{
"type": "FeatureCollection",
"name": "Padova",
"crs": { "type": "name", "properties": { "name": "urn:ogc:def:crs:OGC:1.3:CRS84" } },
"features": [
{ "type": "Feature", "properties": { "COD_RIP": 2, "COD_REG": 5, "COD_PROV": 28, "COD_CM": 0, "COD_UTS": 28, "DEN_PROV": "Padova", "DEN_CM": "-", "DEN_UTS": "Padova", "SIGLA": "PD", "TIPO_UTS": "Provincia", "Shape_Leng": 318862.568638, "Shape_Area": 2143613346.8099999, "prov_name": "Verona", "prov_istat_code_num": 23, "prov_acr": "VR", "reg_name": "Veneto", "reg_istat_code": "05", "reg_istat_code_num": 5, "prov_istat_code": "023" }, "geometry": { "type": "MultiPolygon", "coordinates": [ [ [ [ 11.491554779509851, 45.103324144167388 ], [ 11.476574662165154, 45.106719605740778 ], [ 11.473318286579079, 45.107476598687299 ], [ 11.469311852168749, 45.108458243100536 ], [ 11.469167329298129, 45.108493650426027 ], [ 11.468738891402802, 45.108615893810985 ], [ 11.468015193002854, 45.108822377152769 ], [ 11.468010024757261, 45.108824387093655 ], [ 11.462910969662056, 45.110807238980101 ], [ 11.461275816052796, 45.111508637809933 ], [ 11.445639337801641, 45.118645540162646 ], [ 11.445637054826692, 45.118646304508189 ], [ 11.429368623967711, 45.124091353899004 ], [ 11.427612473385537, 45.124678939525651 ], [ 11.416905620441902, 45.129332738020615 ], [ 11.416905947814303, 45.129333026341044 ], [ 11.417232586747209, 45.129620698839766 ], [ 11.417612788335544, 45.129957091673901 ], [ 11.417823700644403, 45.130143699284453 ], [ 11.417823860255478, 45.130143876335914 ], [ 11.417835023302025, 45.13015625914295 ], [ 11.41829944810539, 45.130671424680401 ], [ 11.418546328553644, 45.130947296240997 ], [ 11.418617697973577, 45.131027045940812 ], [ 11.418666497177318, 45.131081700354613 ], [ 11.418704466726927, 45.131124225620461 ], [ 11.418776484078988, 45.131223420061474 ], [ 11.419393157161826, 45.132072809519279 ], [ 11.42065176417757, 45.133855485058859 ], [ 11.420688319236405, 45.133914248925606 ], [ 11.423627474040019, 45.138638618302053 ], [ 11.424231936564697, 45.139720580171051 ], [ 11.424699919152411, 45.140574956683913 ], [ 11.425965181617201, 45.143588996065738 ], [ 11.425988271399433, 45.143643996029795 ], [ 11.42637283521441, 45.144587617167758 ], [ 11.426726601425782, 45.145455638544568 ], [ 11.428173610553481, 45.149365268609479 ], [ 11.427632336383782, 45.150818706752183 ], [ 11.427632107637477, 45.15081932097015 ], [ 11.41885382941625, 45.157171034985055 ], [ 11.418852635900539, 45.157171898439749 ], [ 11.420985178962182, 45.164166486431505 ], [ 11.421675030902845, 45.166428747904924 ], [ 11.421674937023035, 45.166428793453647 ], [ 11.417522949221562, 45.168443114873682 ], [ 11.41479855073537, 45.170379684322313 ], [ 11.414358931429154, 45.170692158441987 ], [ 11.412636232085243, 45.171996270692397 ], [ 11.408699946857029, 45.174975788951564 ], [ 11.407981918818551, 45.177565402459038 ], [ 11.406809980636904, 45.185088471112053 ], [ 11.406786716823877, 45.185248296910537 ], [ 11.40501328013306, 45.197429786420649 ], [ 11.404202375722848, 45.202998276325026 ], [ 11.402448247558146, 45.218293815877843 ], [ 11.401730824073494, 45.220244334269417 ], [ 11.399970962584389, 45.225028461883923 ], [ 11.399757921148742, 45.225626108350369 ], [ 11.39973172116626, 45.225699606480973 ], [ 11.399734945763695, 45.225713360836508 ], [ 11.400157245320207, 45.227514594370092 ], [ 11.400842451488421, 45.230069008728684 ], [ 11.402237385409769, 45.235122420730129 ], [ 11.404619776339073, 45.236999120752905 ], [ 11.405047105868011, 45.237181726008885 ], [ 11.405411905018306, 45.237472905135455 ], [ 11.405577205067475, 45.237604844713253 ], [ 11.406167829720669, 45.238076263752617 ], [ 11.406417779800524, 45.238806335820719 ], [ 11.406516638894102, 45.239095086317072 ], [ 11.406522986360864, 45.239758321266216 ], [ 11.406527834050991, 45.240265048982501 ], [ 11.406175717679606, 45.243089952740903 ], [ 11.406142544971116, 45.243207871071895 ], [ 11.406103806094942, 45.243345574756773 ], [ 11.405956139511803, 45.243864619207571 ], [ 11.405787501388074, 45.244457367135247 ], [ 11.405581541157888, 45.245129632685206 ], [ 11.405462741233672, 45.245517390223455 ], [ 11.405062720484864, 45.246606003664752 ], [ 11.404602720666601, 45.247393012314213 ], [ 11.404369262402072, 45.247792424037158 ], [ 11.40434899058708, 45.247827104802077 ], [ 11.404106480299866, 45.248173329706155 ], [ 11.404065099427328, 45.248232407519424 ], [ 11.403930719752555, 45.248424140562214 ], [ 11.403592402748664, 45.24890535818551 ], [ 11.40148096061411, 45.251416217064993 ], [ 11.401145148681939, 45.251612313997256 ], [ 11.400393707535386, 45.251925168179568 ], [ 11.399778149425217, 45.252136145069315 ], [ 11.399391287243146, 45.25220685960079 ], [ 11.398943478924263, 45.252288712630737 ], [ 11.398496321259058, 45.252343462947273 ], [ 11.397967229459208, 45.2524082429521 ], [ 11.396784602004585, 45.25246908735599 ], [ 11.396782911458958, 45.252468932088455 ], [ 11.395428501727439, 45.25234452847846 ], [ 11.394458923993094, 45.252319863350344 ], [ 11.393253552661426, 45.252354115629828 ], [ 11.393249693648011, 45.25235422526849 ], [ 11.393246252079269, 45.252354427698258 ], [ 11.39281695968047, 45.252379677441382 ], [ 11.3923089830602, 45.252409950903754 ], [ 11.390876996452839, 45.252624604828682 ], [ 11.390876966405619, 45.252624775644186 ], [ 11.390781781982303, 45.253165885155397 ], [ 11.390773391751981, 45.253213581945872 ], [ 11.390736200434795, 45.253430362694168 ], [ 11.39070318610656, 45.253622795378689 ], [ 11.390762409598221, 45.253936107526449 ], [ 11.390850634323066, 45.254402838738727 ], [ 11.391629100240959, 45.256653287313974 ], [ 11.392359279799321, 45.258763968492481 ], [ 11.392601460266814, 45.259370995363348 ], [ 11.393101426419939, 45.259603373702561 ], [ 11.393472427665012, 45.259775806689476 ], [ 11.393477107307167, 45.259777969931058 ], [ 11.401104545274741, 45.26330339705018 ], [ 11.40112884476855, 45.26331462681879 ], [ 11.406755894370258, 45.262609873819386 ], [ 11.407176855283788, 45.262557139280041 ], [ 11.415705823021492, 45.258092237248654 ], [ 11.423665099757565, 45.254249524880663 ], [ 11.42615799339694, 45.253630839672333 ], [ 11.428755835202155, 45.255078833780622 ], [ 11.428755855708422, 45.255078845209951 ], [ 11.438662626721847, 45.258791946191316 ], [ 11.438664919863706, 45.258792805512982 ], [ 11.438695030936163, 45.258798476512851 ], [ 11.451281106141664, 45.261168086915902 ], [ 11.451282764790557, 45.261168399088362 ], [ 11.464750792751957, 45.261949549643923 ], [ 11.465745783515029, 45.261733366929604 ], [ 11.476480112623269, 45.259400456644926 ], [ 11.476481020584847, 45.259400259265668 ], [ 11.477553403385105, 45.258854898435175 ], [ 11.477581111539356, 45.25884635222139 ], [ 11.478217436956839, 45.25865008352865 ], [ 11.478536713902455, 45.258552380564943 ], [ 11.478812313171645, 45.258468042569149 ], [ 11.478813024825193, 45.25846782479006 ], [ 11.479437812766575, 45.258488317695409 ], [ 11.479964012750472, 45.258505574268611 ], [ 11.480291665130881, 45.25851638341792 ], [ 11.480904010589438, 45.258716237693449 ], [ 11.48142943831256, 45.258887720401482 ], [ 11.482158694344712, 45.259548113680196 ], [ 11.482875809694944, 45.260197492683261 ], [ 11.483804827921075, 45.261041426129424 ], [ 11.484264194298593, 45.261536326044343 ], [ 11.484330026435126, 45.261607272881406 ], [ 11.484607320543725, 45.261906108387855 ], [ 11.484667483056322, 45.261990693660934 ], [ 11.48513692431578, 45.262650706291701 ], [ 11.487024281832309, 45.265953656845497 ], [ 11.487181113456019, 45.265905939033885 ], [ 11.490864171176836, 45.264785242559292 ], [ 11.499350043665466, 45.263321905687349 ], [ 11.526294714475494, 45.258670809970887 ], [ 11.526309069290599, 45.258668330206525 ], [ 11.528352269407904, 45.258470062076547 ], [ 11.529931535444502, 45.258444069981522 ], [ 11.531026603938329, 45.25848597077966 ], [ 11.533506310663276, 45.258580813095826 ], [ 11.535183914212242, 45.258759600147307 ], [ 11.535694007259597, 45.258818488722504 ], [ 11.54124282942159, 45.259458926112011 ], [ 11.545465518906884, 45.26009703052663 ], [ 11.547259402107377, 45.260309052042622 ], [ 11.547259490329338, 45.260309061763188 ], [ 11.557993455626972, 45.26149122965338 ], [ 11.558920123507223, 45.261586890952742 ], [ 11.562008635002931, 45.261905665646744 ], [ 11.563294941216451, 45.262038403402769 ], [ 11.565645995765832, 45.261865419161531 ], [ 11.567169654288316, 45.261753286134542 ], [ 11.570987358096854, 45.261354702300927 ], [ 11.574911339987231, 45.260732752581859 ], [ 11.575196170725864, 45.260654447958331 ], [ 11.575981424658439, 45.260438561856972 ], [ 11.577771075143078, 45.259146944367863 ], [ 11.578400474454984, 45.2586916525945 ], [ 11.590007748522945, 45.256367495644625 ], [ 11.606422831174179, 45.255525733759434 ], [ 11.609680863274406, 45.255703328031672 ], [ 11.613010062506893, 45.256226770382732 ], [ 11.61509961794105, 45.257694657134053 ], [ 11.616202847745068, 45.259144382437512 ], [ 11.616367138473464, 45.259360265066803 ], [ 11.610555853838179, 45.261476517952332 ], [ 11.610544768395394, 45.261480554428658 ], [ 11.610480737059612, 45.261504442001815 ], [ 11.603914296400786, 45.26395382912542 ], [ 11.594855075432809, 45.267519128724985 ], [ 11.594711647082459, 45.267575566376834 ], [ 11.588867437068766, 45.269967655629912 ], [ 11.588853785437287, 45.269973441145439 ], [ 11.582538698761093, 45.272649456292982 ], [ 11.580309174063872, 45.287288967883285 ], [ 11.580308816803601, 45.287291313205948 ], [ 11.580215423121068, 45.297873695541107 ], [ 11.580215374860506, 45.297879165462639 ], [ 11.580234465894984, 45.298580848588841 ], [ 11.580310468711957, 45.299974358993012 ], [ 11.580382697145772, 45.300531659105552 ], [ 11.580467505551068, 45.301186007267731 ], [ 11.580859839094385, 45.302171800966747 ], [ 11.581172707283596, 45.302952355882972 ], [ 11.581839883064179, 45.304161464888573 ], [ 11.582781554932414, 45.305796429521095 ], [ 11.5839431894764, 45.307498417948096 ], [ 11.584424927801122, 45.308151439112947 ], [ 11.585112321636389, 45.309083206309914 ], [ 11.587438091767371, 45.31197398212047 ], [ 11.588302869200847, 45.313034549720172 ], [ 11.589931169175239, 45.313771738252392 ], [ 11.593699488498723, 45.315276751230272 ], [ 11.596051744302553, 45.316216103455531 ], [ 11.596384226908881, 45.316317522693112 ], [ 11.597397372690972, 45.316626560538822 ], [ 11.604122876749692, 45.318336611835619 ], [ 11.604660305899339, 45.317995769984364 ], [ 11.604829576388394, 45.317888415942512 ], [ 11.604904937018482, 45.31782085430514 ], [ 11.605993775067873, 45.316844675975766 ], [ 11.606857004775645, 45.315915817422905 ], [ 11.606857132107921, 45.315915850232543 ], [ 11.614334970120405, 45.3178423464025 ], [ 11.614590878606037, 45.317908264337539 ], [ 11.618014962672657, 45.32700897215998 ], [ 11.618014974461509, 45.327009003487461 ], [ 11.616876278408077, 45.336497874039367 ], [ 11.620435862872219, 45.3433833080922 ], [ 11.623237862437636, 45.344054785665236 ], [ 11.623483849329553, 45.344222428534536 ], [ 11.623658621017137, 45.344344431177824 ], [ 11.623927228972578, 45.344558443974158 ], [ 11.624042952075705, 45.34465064539075 ], [ 11.624105713413899, 45.344711926646575 ], [ 11.62436030988899, 45.344960885315935 ], [ 11.624699282261515, 45.345294183595172 ], [ 11.624805112876773, 45.34539824166194 ], [ 11.624858260601266, 45.345486651611672 ], [ 11.625109347886264, 45.345904324973887 ], [ 11.625342414532605, 45.346704133522742 ], [ 11.625367299934478, 45.346789532481608 ], [ 11.626789857196718, 45.352075817173301 ], [ 11.626902346760666, 45.352539863882065 ], [ 11.626971450299186, 45.352838343796748 ], [ 11.626983711139225, 45.352891301853852 ], [ 11.62708874546302, 45.353540426802006 ], [ 11.627149138753948, 45.353913656962099 ], [ 11.627229463839237, 45.354580026439066 ], [ 11.627444546509224, 45.356364240094258 ], [ 11.626324135833093, 45.357825970105417 ], [ 11.625253179677737, 45.3592231015392 ], [ 11.62499694009888, 45.359550011330711 ], [ 11.624541853826152, 45.360130598818209 ], [ 11.624143874876507, 45.360471200941085 ], [ 11.623731239783341, 45.360824340558779 ], [ 11.623412002648296, 45.361028412015706 ], [ 11.623073946457444, 45.361244510971225 ], [ 11.622319024049547, 45.361404898931411 ], [ 11.622242586546855, 45.36142113822784 ], [ 11.622189883535219, 45.361432057761235 ], [ 11.621973831948218, 45.361476821178876 ], [ 11.621687657101782, 45.361443264384171 ], [ 11.62094678816689, 45.361356386730549 ], [ 11.620532750443884, 45.36167583466613 ], [ 11.619972787811026, 45.362107861996428 ], [ 11.616433070523982, 45.365645592711672 ], [ 11.615569280741504, 45.366574530772176 ], [ 11.615492567120166, 45.366676735774426 ], [ 11.614847441275812, 45.367536216140522 ], [ 11.614110960867, 45.368732075018421 ], [ 11.614110840810332, 45.36873226995592 ], [ 11.613854920643895, 45.369222902829854 ], [ 11.612209938787975, 45.372376343637924 ], [ 11.611469324421227, 45.37431958695857 ], [ 11.61134995031744, 45.374825031386585 ], [ 11.611341076624832, 45.374862603345548 ], [ 11.611341086439754, 45.374862633309569 ], [ 11.614388127904892, 45.384163280284859 ], [ 11.614765890987401, 45.385274554365409 ], [ 11.6156998565294, 45.388021815230672 ], [ 11.615720009238755, 45.388055020889581 ], [ 11.615883052255485, 45.388323665558111 ], [ 11.617253057364945, 45.389428681370433 ], [ 11.617297336130944, 45.389458642843614 ], [ 11.636863268809948, 45.402693146197571 ], [ 11.641364608865748, 45.405235463009923 ], [ 11.643563891950601, 45.406313800471267 ], [ 11.646255769852127, 45.407633547904354 ], [ 11.646655985246017, 45.407833580125171 ], [ 11.653102143772347, 45.411055048129626 ], [ 11.653102487475826, 45.4110552198756 ], [ 11.656955060777864, 45.415603210200963 ], [ 11.661630466282075, 45.421534171865616 ], [ 11.664456649369386, 45.422669889512534 ], [ 11.666321041371688, 45.423152950704861 ], [ 11.672196918731098, 45.423879665989212 ], [ 11.67282862465003, 45.423823231953307 ], [ 11.673698924978726, 45.423745476974283 ], [ 11.68028377827768, 45.428470518577576 ], [ 11.680595462555884, 45.428694141722282 ], [ 11.683451998223845, 45.430743486398718 ], [ 11.69329169897458, 45.437800989201726 ], [ 11.693448636882314, 45.44363224137382 ], [ 11.693448660257625, 45.44363310974996 ], [ 11.69342934469401, 45.448422255895188 ], [ 11.699287948184216, 45.457204129732858 ], [ 11.70202668175442, 45.459353796185816 ], [ 11.702032043327133, 45.45935800432089 ], [ 11.702032067259303, 45.459358023104521 ], [ 11.70526081252504, 45.460141171236884 ], [ 11.707847905637284, 45.460295448588361 ], [ 11.708074568512568, 45.460183816502962 ], [ 11.708399549295091, 45.460085727669139 ], [ 11.708631592726816, 45.460016220035996 ], [ 11.709640545277248, 45.461585500738295 ], [ 11.710038536682793, 45.462683209680165 ], [ 11.708425598460353, 45.467996242120726 ], [ 11.707128698816485, 45.471366480108749 ], [ 11.706597287473532, 45.472707715487246 ], [ 11.706592265061447, 45.472720391314738 ], [ 11.706357033979737, 45.473043470449205 ], [ 11.70629216569106, 45.473132563365326 ], [ 11.706223153483171, 45.473187226797187 ], [ 11.70607142248544, 45.473307409910241 ], [ 11.717977179122819, 45.474286116735122 ], [ 11.720645080646213, 45.473665462749658 ], [ 11.721638838884742, 45.473515799122765 ], [ 11.722933967825188, 45.473320733874807 ], [ 11.738629772180266, 45.471182075355536 ], [ 11.744361490970766, 45.471188432033586 ], [ 11.744662836735177, 45.471225575859584 ], [ 11.744850517409944, 45.47124870891723 ], [ 11.744850881558179, 45.471248985255464 ], [ 11.745265474064134, 45.471563601167091 ], [ 11.745447023239075, 45.471703109190813 ], [ 11.745488905525431, 45.471790934513692 ], [ 11.745490699700071, 45.471794696812637 ], [ 11.745527752497713, 45.471875393147187 ], [ 11.7456486153746, 45.472138615512577 ], [ 11.74561597085637, 45.47240304909436 ], [ 11.745602330936808, 45.472506112178955 ], [ 11.745535028192187, 45.472960463321783 ], [ 11.744559265629574, 45.476755554620723 ], [ 11.743136630191557, 45.48258647754156 ], [ 11.744938201245429, 45.485954642483044 ], [ 11.741919484101119, 45.488054852018898 ], [ 11.741891968634384, 45.488073994266024 ], [ 11.737595394364426, 45.489965519684119 ], [ 11.73595244435284, 45.495675698023625 ], [ 11.735277585850127, 45.498653280580818 ], [ 11.735026529496547, 45.50001655618096 ], [ 11.73468982919908, 45.50184480054461 ], [ 11.734590570548431, 45.502702295875139 ], [ 11.734524658071685, 45.50423746572875 ], [ 11.734524416536058, 45.504243091273118 ], [ 11.733999352397804, 45.512248816856435 ], [ 11.733145765940947, 45.512512183405704 ], [ 11.733145584340848, 45.512512239435871 ], [ 11.732374295688986, 45.513116688777018 ], [ 11.732245159421362, 45.513217889527411 ], [ 11.732033424483213, 45.513411255864042 ], [ 11.729866508362017, 45.51539008936988 ], [ 11.72949140891213, 45.515965629257067 ], [ 11.729330170432076, 45.516213024269646 ], [ 11.729312675831778, 45.516261349658883 ], [ 11.728037701345295, 45.519782999841965 ], [ 11.727953853020432, 45.520053441685498 ], [ 11.727913819679454, 45.52054946512952 ], [ 11.728289726480034, 45.520796711272091 ], [ 11.728909945316088, 45.521203796374287 ], [ 11.729289186921465, 45.521452709669838 ], [ 11.729537374383671, 45.521316529734911 ], [ 11.732225947456888, 45.519841239865421 ], [ 11.732258856787777, 45.519821123289695 ], [ 11.734322072986666, 45.518559888757501 ], [ 11.734322185210658, 45.518559882113252 ], [ 11.743259173902441, 45.518030410855665 ], [ 11.747161013590841, 45.518262172476526 ], [ 11.758899781287608, 45.518958613907607 ], [ 11.759059737499802, 45.519872872194874 ], [ 11.7589582244018, 45.520415392953296 ], [ 11.758360211322991, 45.523373242951507 ], [ 11.75781363291744, 45.524241565134261 ], [ 11.753199901230142, 45.53033157124937 ], [ 11.75140050130852, 45.532706337920693 ], [ 11.748293987413398, 45.536461517701426 ], [ 11.741218135130289, 45.545012745977466 ], [ 11.739768186418177, 45.547082801724734 ], [ 11.732458136561849, 45.55751666715539 ], [ 11.730983508273173, 45.559343189357115 ], [ 11.730166695201357, 45.559938802692017 ], [ 11.730166026829735, 45.559939147989091 ], [ 11.729971122230843, 45.560039840114669 ], [ 11.729182107756214, 45.560443910427011 ], [ 11.729092990676394, 45.560489497216992 ], [ 11.728766347727264, 45.560656375882878 ], [ 11.727740699808294, 45.560644885614614 ], [ 11.722876444023886, 45.560349217563818 ], [ 11.722411063826003, 45.560198296382005 ], [ 11.720504608798631, 45.559525906736674 ], [ 11.72029927297744, 45.559121247042533 ], [ 11.720725738634584, 45.558293338495595 ], [ 11.721616840125176, 45.55668877917681 ], [ 11.722174493799951, 45.556164665526097 ], [ 11.722838371193005, 45.555651517212169 ], [ 11.723161225879162, 45.555439039315829 ], [ 11.724148271778141, 45.552640674990649 ], [ 11.723993142655186, 45.551114379731793 ], [ 11.722962195732306, 45.5445682681177 ], [ 11.72294340797376, 45.544450116883425 ], [ 11.722941117645989, 45.544435713579794 ], [ 11.722662584031193, 45.544204963388424 ], [ 11.722616581017963, 45.544166852100147 ], [ 11.72261653103504, 45.544166810691664 ], [ 11.722435262703057, 45.544102846866849 ], [ 11.721684710513445, 45.543837996208168 ], [ 11.72109287665174, 45.544115382627751 ], [ 11.711218905814874, 45.543234189942737 ], [ 11.709281607107451, 45.543090814255642 ], [ 11.706616606177194, 45.54289352762305 ], [ 11.703442240065435, 45.542896987334295 ], [ 11.702519004952544, 45.543425095168637 ], [ 11.702031277917641, 45.543704077301349 ], [ 11.700936078865144, 45.544490861855436 ], [ 11.70078455245203, 45.544599895700273 ], [ 11.70061957072396, 45.544718610889412 ], [ 11.700618773648218, 45.544719963571204 ], [ 11.699624427570471, 45.546407371241557 ], [ 11.696313860291557, 45.549163784614748 ], [ 11.694519275564325, 45.550657825191827 ], [ 11.685774998766613, 45.551984832571854 ], [ 11.681893356858149, 45.55162520933419 ], [ 11.678351198449802, 45.549608851823855 ], [ 11.678686568659392, 45.548163156336926 ], [ 11.679302758534419, 45.545506741611234 ], [ 11.679303627734274, 45.545504403437192 ], [ 11.679358174301621, 45.545357671135072 ], [ 11.679575340090487, 45.544773498552836 ], [ 11.679535325546224, 45.544545992527304 ], [ 11.679179227906818, 45.542521277116954 ], [ 11.679167889617643, 45.542474590041301 ], [ 11.678994558321522, 45.541785238179287 ], [ 11.675527573671353, 45.539174831759667 ], [ 11.675261560222657, 45.539108638446436 ], [ 11.675241031341562, 45.539103530120776 ], [ 11.67419646277553, 45.538843721270673 ], [ 11.673162505776348, 45.538601615321539 ], [ 11.673099527113992, 45.538586868194386 ], [ 11.672230411488165, 45.538458080007246 ], [ 11.668156835643043, 45.538110062702074 ], [ 11.668156821786997, 45.538110061518061 ], [ 11.662055071589892, 45.538095662407379 ], [ 11.661396303927399, 45.538683323793201 ], [ 11.657961953264447, 45.541746721975507 ], [ 11.657906971423809, 45.541795761622922 ], [ 11.655719817733575, 45.549978365572777 ], [ 11.655719838653523, 45.549978482045184 ], [ 11.656004703956867, 45.551564426956084 ], [ 11.657302699060658, 45.553008159526684 ], [ 11.658141127209081, 45.553727919599048 ], [ 11.6588850094926, 45.55436649435778 ], [ 11.665827682341702, 45.56056163727613 ], [ 11.666497777452582, 45.561313222527929 ], [ 11.669891726938109, 45.565119528685088 ], [ 11.668085984408147, 45.568802809029066 ], [ 11.668085906567379, 45.568802967794987 ], [ 11.668085674217689, 45.568803441701085 ], [ 11.665859195094676, 45.570808489752764 ], [ 11.666543929298042, 45.576366665420018 ], [ 11.667474500271112, 45.578971995439119 ], [ 11.669950470236463, 45.582454676429393 ], [ 11.669953889268434, 45.582459485265964 ], [ 11.673981708941474, 45.585013788264433 ], [ 11.673981749898491, 45.585014776629251 ], [ 11.674266084987865, 45.591874979910102 ], [ 11.674016375635386, 45.592285879947696 ], [ 11.671539154602485, 45.594117101010745 ], [ 11.670593516597163, 45.594283880066712 ], [ 11.666478586844994, 45.595009514629467 ], [ 11.661845251510472, 45.594695470523781 ], [ 11.659069684867276, 45.594507252563666 ], [ 11.659069688228401, 45.59450675985623 ], [ 11.659079388695634, 45.59308485123335 ], [ 11.657591070401516, 45.592256919086317 ], [ 11.65624325496586, 45.592295407561963 ], [ 11.656204604100287, 45.592299787537591 ], [ 11.655479447246114, 45.592381960888609 ], [ 11.655239656016718, 45.592409132498432 ], [ 11.649805851843556, 45.593273485683234 ], [ 11.646026969930492, 45.59416223817243 ], [ 11.642927408818585, 45.598050525335246 ], [ 11.642747821131843, 45.598594748596149 ], [ 11.642793290665214, 45.599016748225644 ], [ 11.644764471372671, 45.610942540457664 ], [ 11.644764486580808, 45.610942589734314 ], [ 11.646883093794697, 45.617806270213045 ], [ 11.646723621064449, 45.619135716532547 ], [ 11.645764763433519, 45.627128159265446 ], [ 11.645759983457051, 45.627167997523586 ], [ 11.645542986324076, 45.627420069328508 ], [ 11.645539988662195, 45.627423551503931 ], [ 11.645495235187358, 45.627844152145023 ], [ 11.645468818158369, 45.628108417900457 ], [ 11.645434460180345, 45.62845211894134 ], [ 11.645459316702734, 45.629252637402267 ], [ 11.645777115723641, 45.630819143700542 ], [ 11.64655063162996, 45.63419131238053 ], [ 11.646551683486663, 45.634195897677046 ], [ 11.646931722298415, 45.634637139459407 ], [ 11.651634508410343, 45.638587479602229 ], [ 11.653885742489848, 45.639795314917663 ], [ 11.655834075502689, 45.640294004767945 ], [ 11.656178658814378, 45.640371901978668 ], [ 11.656183679880129, 45.640373037041712 ], [ 11.657068599117784, 45.640497411895836 ], [ 11.657166022138611, 45.640511104185563 ], [ 11.65764310288505, 45.640543975319659 ], [ 11.658343164103302, 45.640592206242985 ], [ 11.659546838237763, 45.640671760833762 ], [ 11.659919012262799, 45.640696355123445 ], [ 11.660049539118461, 45.640704980405872 ], [ 11.66004962098306, 45.640704974986015 ], [ 11.661098466573637, 45.640635530947122 ], [ 11.662187581870555, 45.640331105549954 ], [ 11.662384600035033, 45.639885458786139 ], [ 11.676677871896564, 45.640136275771695 ], [ 11.676678265820216, 45.640136282659498 ], [ 11.68552128310715, 45.647892282576642 ], [ 11.685839322054456, 45.657126046239277 ], [ 11.685840189339332, 45.65715121956773 ], [ 11.689197745323176, 45.659077155800851 ], [ 11.689197981722772, 45.659077291394311 ], [ 11.689198349038337, 45.659077048584322 ], [ 11.691919120098815, 45.657278423697271 ], [ 11.692988608548019, 45.65756415679008 ], [ 11.699557946464216, 45.659903886354982 ], [ 11.700402424029958, 45.660224219476483 ], [ 11.700630090141864, 45.660310577686175 ], [ 11.701494070900171, 45.660659178257333 ], [ 11.701860843108676, 45.660838839106127 ], [ 11.701861569761638, 45.660839195049732 ], [ 11.701862175566895, 45.660839491797304 ], [ 11.702096139771317, 45.661057728875178 ], [ 11.704999708787392, 45.665884853089729 ], [ 11.705106583043476, 45.66606251131676 ], [ 11.706418426967335, 45.666532359669432 ], [ 11.709924452773048, 45.667787959079412 ], [ 11.710394462850498, 45.668319855152731 ], [ 11.710830275215562, 45.669450774844378 ], [ 11.710937597369469, 45.669857061373342 ], [ 11.710861219910552, 45.670317105329019 ], [ 11.710337033064825, 45.671650426339241 ], [ 11.709795250460825, 45.67275435500477 ], [ 11.708614335461561, 45.675160418671979 ], [ 11.706956864603095, 45.678559815337266 ], [ 11.706956232284544, 45.678561112114174 ], [ 11.706733846067985, 45.680075431305774 ], [ 11.707810413247273, 45.680512628742044 ], [ 11.708087587027695, 45.680625187123198 ], [ 11.712882211311848, 45.681308829910421 ], [ 11.713476464545369, 45.681377309796247 ], [ 11.713797693350006, 45.681390324463571 ], [ 11.714521349861686, 45.68138923806756 ], [ 11.716676499849697, 45.681282890971396 ], [ 11.720324485954219, 45.681050457733605 ], [ 11.737284627907357, 45.679968281665609 ], [ 11.756473867340254, 45.678077104555697 ], [ 11.756968540179043, 45.677947197188985 ], [ 11.757197911731486, 45.677912937807051 ], [ 11.757698810961182, 45.677893737912861 ], [ 11.757949402812473, 45.677905537846698 ], [ 11.757954506593411, 45.677906030681861 ], [ 11.75966028961788, 45.678070732462828 ], [ 11.761593720072588, 45.678257382582402 ], [ 11.762492813311416, 45.678356214173313 ], [ 11.768084173044679, 45.679040346290805 ], [ 11.795312281117956, 45.683042666935464 ], [ 11.795854002101304, 45.683127379736426 ], [ 11.81769598949238, 45.686540595249078 ], [ 11.821676395041814, 45.687169327553427 ], [ 11.82167704147529, 45.687169429649508 ], [ 11.824059644375879, 45.685926218727964 ], [ 11.824329948141392, 45.68578517125318 ], [ 11.830252946404462, 45.682530869415864 ], [ 11.830807829453139, 45.682237236821557 ], [ 11.832050870376072, 45.681579424748598 ], [ 11.839833163768917, 45.677657405408084 ], [ 11.840504083202937, 45.677328284598921 ], [ 11.840963917127196, 45.677102707750556 ], [ 11.84096378494219, 45.677103105344266 ], [ 11.84058202381142, 45.678251366059833 ], [ 11.840128304914815, 45.67961904074857 ], [ 11.839765488604717, 45.680885960195731 ], [ 11.839253667291656, 45.682950934131263 ], [ 11.83925400479907, 45.682950983589357 ], [ 11.839369209708419, 45.682967865571129 ], [ 11.841931780464581, 45.6833433485209 ], [ 11.853134910812576, 45.677301050241176 ], [ 11.865464174259152, 45.670648652569852 ], [ 11.865466009983429, 45.670647866229586 ], [ 11.876155173953958, 45.666068255668748 ], [ 11.876155469651108, 45.666068038827817 ], [ 11.883590459264886, 45.6606150482476 ], [ 11.890537679238825, 45.640960346245642 ], [ 11.892023763482607, 45.637154593385745 ], [ 11.893586572819874, 45.63315181105061 ], [ 11.892185455137511, 45.632684471663651 ], [ 11.891831146778278, 45.632566288956276 ], [ 11.889448402092734, 45.631771461122334 ], [ 11.891748748327913, 45.622622078178736 ], [ 11.894945485487415, 45.617783220065583 ], [ 11.896901179796027, 45.614822473599446 ], [ 11.897926780218972, 45.613320255262899 ], [ 11.898106669540027, 45.613091490502114 ], [ 11.898107040610778, 45.613091018610291 ], [ 11.89810733446388, 45.613090644916412 ], [ 11.898172114147274, 45.61312024057213 ], [ 11.898624248952252, 45.613328032544345 ], [ 11.898645943578373, 45.613338002868517 ], [ 11.900732514701804, 45.615994333342954 ], [ 11.901227221085785, 45.616680142005443 ], [ 11.901229846003027, 45.616683780860896 ], [ 11.901229858187131, 45.616683803119777 ], [ 11.901725517158058, 45.617589295963306 ], [ 11.901708269661029, 45.618304123682385 ], [ 11.901705089642979, 45.618435920532214 ], [ 11.90156921745249, 45.618957462904049 ], [ 11.900484574835295, 45.623120519010669 ], [ 11.900281047011839, 45.623564193414232 ], [ 11.900196305667917, 45.623748920717965 ], [ 11.899257315650235, 45.624942920069536 ], [ 11.898368435402784, 45.625865605565515 ], [ 11.898289523144353, 45.625951906144209 ], [ 11.897955550888616, 45.626317143788818 ], [ 11.897950216555419, 45.626605646155525 ], [ 11.8979453957903, 45.626866373523988 ], [ 11.897945394026834, 45.626866468899742 ], [ 11.897987429692638, 45.626906042653019 ], [ 11.898336416549135, 45.627234587477417 ], [ 11.898435517936361, 45.62729057511099 ], [ 11.898720507153639, 45.62745097240569 ], [ 11.899112660965226, 45.627671677933421 ], [ 11.899141373120635, 45.627687564724731 ], [ 11.899287641814956, 45.62776849674826 ], [ 11.899774758071885, 45.627947396953104 ], [ 11.900046070835486, 45.628046270593551 ], [ 11.900476361170698, 45.62802056515266 ], [ 11.901094819422219, 45.627983615730528 ], [ 11.901096759402135, 45.627982972348612 ], [ 11.905208350446138, 45.626619283620379 ], [ 11.906543649966416, 45.626010187715622 ], [ 11.907863566025334, 45.625408081062432 ], [ 11.911098698624826, 45.620996080506977 ], [ 11.911554762531813, 45.620390373527286 ], [ 11.912229524209618, 45.619797088314492 ], [ 11.913217944844972, 45.619254300007157 ], [ 11.913314660068913, 45.619202325912859 ], [ 11.916500603323152, 45.618553892985453 ], [ 11.917140165383834, 45.618519547100767 ], [ 11.917398950884374, 45.618809969549929 ], [ 11.917459819822513, 45.619735529839645 ], [ 11.917490150700868, 45.620319827252494 ], [ 11.917667928982107, 45.621026371422957 ], [ 11.917964018362618, 45.621540867697504 ], [ 11.918373957212621, 45.62153038630705 ], [ 11.922664740441849, 45.621159566184083 ], [ 11.924112683725502, 45.620636420329532 ], [ 11.927387602657975, 45.619064619255603 ], [ 11.927713665539217, 45.618908115204498 ], [ 11.930771638254003, 45.616730165493259 ], [ 11.932709861564948, 45.61552823705118 ], [ 11.940310681613248, 45.613509408360791 ], [ 11.942330323166026, 45.613093359505498 ], [ 11.944558410048323, 45.613269929193486 ], [ 11.949329182248846, 45.612745179927927 ], [ 11.950710406565905, 45.612593216716569 ], [ 11.952043856528322, 45.61244649311412 ], [ 11.960454800177317, 45.609474302662939 ], [ 11.965430041409654, 45.609948213165886 ], [ 11.965430204317949, 45.609948228679812 ], [ 11.976979147707155, 45.618063634188964 ], [ 11.986537079024789, 45.623169612043775 ], [ 11.999282941240228, 45.622623742956385 ], [ 12.005254448395846, 45.622430921405524 ], [ 12.005761931818904, 45.624528185231874 ], [ 12.004874055921391, 45.625676706094346 ], [ 12.004312496405777, 45.626690614293757 ], [ 12.004218355991986, 45.627094623312438 ], [ 12.004124674422151, 45.627496657955049 ], [ 12.00405668939068, 45.632224029361808 ], [ 12.004061361056971, 45.632324381811038 ], [ 12.004113834732744, 45.633451534852014 ], [ 12.004525442082855, 45.636190194561024 ], [ 12.004621565245751, 45.636534260357259 ], [ 12.00474761664597, 45.636985444930467 ], [ 12.006284647870844, 45.640770444548608 ], [ 12.008268583124151, 45.642286426211413 ], [ 12.008425103501246, 45.642406022814157 ], [ 12.008425398597018, 45.642406248294968 ], [ 12.015319994453293, 45.644674328888001 ], [ 12.020518673637524, 45.646384109379085 ], [ 12.021724133763795, 45.646780520650047 ], [ 12.023431469642702, 45.647266372154292 ], [ 12.028038268173258, 45.647972348272937 ], [ 12.0297224094484, 45.648026667198813 ], [ 12.030913462151311, 45.647743013999239 ], [ 12.049109758599707, 45.64539181594354 ], [ 12.049867219500399, 45.645293875371934 ], [ 12.056202199888595, 45.64031781904346 ], [ 12.056638621770789, 45.639613045040825 ], [ 12.05783040413184, 45.639113059868706 ], [ 12.059011321795008, 45.638649360831266 ], [ 12.059642169643157, 45.638452428303658 ], [ 12.060274220315414, 45.638318873741028 ], [ 12.060276437075483, 45.638318405324512 ], [ 12.067944011052225, 45.6372754543562 ], [ 12.068500591411919, 45.637395781639384 ], [ 12.068824793999733, 45.637465869593164 ], [ 12.068943826519158, 45.637491604226341 ], [ 12.068947400902831, 45.637493338818444 ], [ 12.069945575033426, 45.637977728247002 ], [ 12.071066585671291, 45.638532642197582 ], [ 12.072315716355718, 45.639318126479537 ], [ 12.072315877314852, 45.639317912893084 ], [ 12.077454208615164, 45.632498638111159 ], [ 12.077483310067043, 45.632438022635782 ], [ 12.081691318205234, 45.623671775690795 ], [ 12.081751093765776, 45.623607446397294 ], [ 12.084626314479651, 45.620512985161916 ], [ 12.087788597400031, 45.617109109517251 ], [ 12.087788889024715, 45.617108795590589 ], [ 12.088185092575149, 45.60904011945869 ], [ 12.087250021236022, 45.608996415722153 ], [ 12.087073322765644, 45.608982771632427 ], [ 12.086787492081603, 45.608683793864131 ], [ 12.08604368332611, 45.606464863344947 ], [ 12.08598648239578, 45.605714811612437 ], [ 12.087332626962292, 45.599706344020348 ], [ 12.087333162552632, 45.599703953203118 ], [ 12.08733318297201, 45.599703862053232 ], [ 12.088834612713956, 45.599271691393596 ], [ 12.091751190851683, 45.598432110696301 ], [ 12.092450930902592, 45.598332143996267 ], [ 12.092450921443692, 45.598332011222588 ], [ 12.092169991509778, 45.594388243870277 ], [ 12.092167248847645, 45.594383071316258 ], [ 12.088966154736056, 45.588345199117931 ], [ 12.088203438270659, 45.587637427294176 ], [ 12.083679221956395, 45.583438640144053 ], [ 12.077118149206148, 45.58115085782039 ], [ 12.077117099215265, 45.581150525246173 ], [ 12.07230203995478, 45.579625257697543 ], [ 12.066351870703283, 45.5777400199295 ], [ 12.066350553859376, 45.577739602654674 ], [ 12.062255560219423, 45.575956888153534 ], [ 12.062196631733393, 45.575931232292 ], [ 12.056381310281118, 45.572363270692826 ], [ 12.038287753754345, 45.571235170657324 ], [ 12.038287633351862, 45.571235013582296 ], [ 12.034041838486766, 45.56569537176442 ], [ 12.032787873091646, 45.553458713140664 ], [ 12.031902623674052, 45.544816080847475 ], [ 12.031883630903598, 45.544630619008018 ], [ 12.031666037347165, 45.536020327875612 ], [ 12.031623284059162, 45.534327929543295 ], [ 12.031413702052127, 45.533765192771263 ], [ 12.029892474226729, 45.529680255193519 ], [ 12.028802153452084, 45.526752022409525 ], [ 12.026320688762297, 45.520159948186098 ], [ 12.024828021642806, 45.520692370450988 ], [ 12.024683317931208, 45.520743983540818 ], [ 12.023027579050519, 45.524698969012036 ], [ 12.018353390282666, 45.528658234800325 ], [ 12.01498991413181, 45.530264913590642 ], [ 12.013376992138367, 45.530890713794811 ], [ 12.01208900280206, 45.531265044413587 ], [ 12.010605548142658, 45.531651767381824 ], [ 12.007999506966204, 45.531963834115267 ], [ 12.007819062872729, 45.531700359058036 ], [ 12.007681874774178, 45.531486324796518 ], [ 12.007586170861972, 45.531260192798229 ], [ 12.003609260548059, 45.521861644160047 ], [ 11.998072557287474, 45.518004643962364 ], [ 11.998048619354568, 45.51798796644897 ], [ 11.995738396769672, 45.511869422439219 ], [ 11.995926170873593, 45.511805534364726 ], [ 12.003379103482693, 45.509269394345587 ], [ 12.003568571284475, 45.509204911619669 ], [ 11.999748715152869, 45.498985547876799 ], [ 11.996231030198123, 45.489570947127184 ], [ 11.994632001555068, 45.485290211182402 ], [ 11.990404099948003, 45.474154945079086 ], [ 11.99013761305657, 45.473454841231202 ], [ 11.989969298131918, 45.473389525569402 ], [ 11.989960397077347, 45.473391571417309 ], [ 11.989431736437112, 45.473513079036302 ], [ 11.98437736008041, 45.47467468533128 ], [ 11.983206654936463, 45.474943700853458 ], [ 11.98356128707673, 45.476086596077131 ], [ 11.981986533066745, 45.476271968298811 ], [ 11.979577929675433, 45.471032917337304 ], [ 11.979577861793217, 45.471032710933287 ], [ 11.977346037068132, 45.464245672303726 ], [ 11.978303084998505, 45.456479649964407 ], [ 11.978304764122754, 45.456466023110956 ], [ 11.978431998917255, 45.456210665541228 ], [ 11.979494786612564, 45.454292645621521 ], [ 11.979934674811012, 45.453903104674239 ], [ 11.981885800651872, 45.452825988937299 ], [ 11.982398747417879, 45.452635182165785 ], [ 11.982926869066999, 45.452438729529348 ], [ 11.987731619494395, 45.451637940094841 ], [ 11.988138162016526, 45.451586789834373 ], [ 11.989632103834921, 45.451403718488365 ], [ 11.989793057328354, 45.451491690400033 ], [ 11.989821224991738, 45.451507085870254 ], [ 11.989824049752787, 45.451506758119436 ], [ 11.998217469820609, 45.450532564153413 ], [ 12.003111017480611, 45.447678741119638 ], [ 12.003518742730531, 45.447586233387966 ], [ 12.004412493460491, 45.447383446490257 ], [ 12.007292236133274, 45.447127895966446 ], [ 12.008307220518324, 45.447037807691061 ], [ 12.009238796177613, 45.447085109777298 ], [ 12.009474071167574, 45.447097054982258 ], [ 12.011353481786658, 45.447569554526019 ], [ 12.014876416501192, 45.44858359703543 ], [ 12.016732015691167, 45.449845991201038 ], [ 12.0167325634318, 45.449846363824733 ], [ 12.016854810701089, 45.450167942525781 ], [ 12.016953704317279, 45.450428085075124 ], [ 12.017117854071024, 45.450843469993778 ], [ 12.017249358166847, 45.45117623938053 ], [ 12.017249413438293, 45.451176379243279 ], [ 12.017359713480866, 45.451249995115859 ], [ 12.017846171407639, 45.45157466064525 ], [ 12.017906382678857, 45.451563213210456 ], [ 12.01960596889583, 45.45124007106886 ], [ 12.020653937464484, 45.450987304074317 ], [ 12.020667061444824, 45.450981466318709 ], [ 12.026307338648602, 45.448472333734095 ], [ 12.026312508162155, 45.448470033798898 ], [ 12.026969182114099, 45.447120419106305 ], [ 12.025919211647894, 45.443988787960159 ], [ 12.025372165680398, 45.443085154456888 ], [ 12.019161205018573, 45.4290185129938 ], [ 12.014884032210492, 45.423901800878248 ], [ 12.014651477840015, 45.423975456062614 ], [ 12.01347578803354, 45.424185496743689 ], [ 12.012907258629467, 45.424287061443664 ], [ 12.010654896057106, 45.424598543842677 ], [ 12.008382879695569, 45.424901498357265 ], [ 12.005363779127912, 45.425098065511278 ], [ 12.003724123007487, 45.42503321905307 ], [ 11.998060463249022, 45.424052479416794 ], [ 11.997767941516017, 45.423846865305485 ], [ 11.995955573006396, 45.42257289646026 ], [ 11.995146197866406, 45.419501075581195 ], [ 11.994785477670778, 45.418131913848327 ], [ 11.994967951566689, 45.417646061739291 ], [ 11.99602552759886, 45.414830017771195 ], [ 11.997086183972645, 45.414586133417735 ], [ 11.998623720576992, 45.414176686024724 ], [ 12.001276132815388, 45.413341842906107 ], [ 12.002187295742694, 45.412930816919619 ], [ 12.002720343581215, 45.412619746783427 ], [ 12.003755781348623, 45.411179281938061 ], [ 12.004037736393615, 45.41071278569445 ], [ 12.002817221754599, 45.408422555883909 ], [ 12.001544831290309, 45.408350261446444 ], [ 12.00029449386286, 45.408279208020936 ], [ 11.999793735706087, 45.408250747331465 ], [ 11.999676877246664, 45.408244107420423 ], [ 11.999053591673444, 45.408238088119305 ], [ 11.992391005749377, 45.408210355892557 ], [ 11.992263273207328, 45.408211454809319 ], [ 11.985723816446098, 45.408340245283554 ], [ 11.984060484163898, 45.408372943724316 ], [ 11.983542094930563, 45.408383283002692 ], [ 11.9800208929167, 45.408453451026361 ], [ 11.977560266901156, 45.405381339975065 ], [ 11.975998077707112, 45.403430725741558 ], [ 11.975481742006775, 45.402340038043377 ], [ 11.975061971700981, 45.401453296686086 ], [ 11.975027410529936, 45.396602383911919 ], [ 11.975344489815965, 45.396551464024853 ], [ 11.978611247778117, 45.396049929400689 ], [ 11.978768144965995, 45.396026652944848 ], [ 11.979374885453318, 45.395993989452883 ], [ 11.979709332533336, 45.395976255923557 ], [ 11.981609424931456, 45.396085377510062 ], [ 11.984050655676363, 45.396168865251646 ], [ 11.984906385528824, 45.396147537306845 ], [ 11.985441235253084, 45.396132487013119 ], [ 11.986275601571247, 45.396069494430705 ], [ 11.986535772390896, 45.396049846280739 ], [ 11.987716185080165, 45.39590193746988 ], [ 11.98867256525574, 45.395624855682534 ], [ 11.989001821844266, 45.395462517597942 ], [ 11.989270274441846, 45.395330157205912 ], [ 11.990337141328869, 45.39472611918459 ], [ 11.990440795323094, 45.394664559759107 ], [ 11.990733544847894, 45.394490696533538 ], [ 11.991140806166309, 45.394218982060998 ], [ 11.991497034273596, 45.393948605714634 ], [ 11.991497210409582, 45.393948183056764 ], [ 11.993673718763642, 45.388724937116329 ], [ 11.994788905672772, 45.385166902857051 ], [ 11.99426053947472, 45.38459567640205 ], [ 11.994183833029142, 45.384413159755113 ], [ 11.994041181298437, 45.38407035034168 ], [ 11.992804786466351, 45.380935916964354 ], [ 11.994097650028495, 45.379820204186679 ], [ 11.997330892009327, 45.377598386112993 ], [ 11.997339060048088, 45.377592772873349 ], [ 12.007794031949887, 45.373047251646334 ], [ 12.00963579035826, 45.372246335951083 ], [ 12.021354275956133, 45.368218913722906 ], [ 12.026290086202581, 45.366522044454975 ], [ 12.027579547669175, 45.366057179289363 ], [ 12.031815009810236, 45.364530094149707 ], [ 12.033617438589099, 45.358642234231297 ], [ 12.033886217860722, 45.357764134651312 ], [ 12.032578921812471, 45.356919113495898 ], [ 12.026751256996963, 45.353151676511068 ], [ 12.014212583972853, 45.343566219277399 ], [ 12.016559683529588, 45.338712635014275 ], [ 12.017298898198812, 45.33718383519637 ], [ 12.014606646797828, 45.335785311311582 ], [ 12.01558268005404, 45.332896072777096 ], [ 12.016183672064439, 45.33111688626304 ], [ 12.016676236641528, 45.329969971076792 ], [ 12.01725114992551, 45.328631252804811 ], [ 12.01805922356195, 45.326750242089624 ], [ 12.020687093401225, 45.323019335855228 ], [ 12.020691314152243, 45.323013343036429 ], [ 12.021360864112252, 45.322167481307794 ], [ 12.022142291618438, 45.321592206229738 ], [ 12.022515051124895, 45.321317780474402 ], [ 12.02252459186353, 45.321311961969812 ], [ 12.027853562065774, 45.318061736945154 ], [ 12.02970211159141, 45.317037455239067 ], [ 12.034780616930462, 45.314223116211785 ], [ 12.048224955757467, 45.312885510010098 ], [ 12.049848997444673, 45.314407784832824 ], [ 12.055364926014708, 45.319577262215965 ], [ 12.055366489797956, 45.319578727602178 ], [ 12.062648909692525, 45.32165187254256 ], [ 12.062653350208816, 45.321651771107952 ], [ 12.068343721817827, 45.321521643896084 ], [ 12.068440463334987, 45.321519429158037 ], [ 12.071550851906101, 45.326304411992581 ], [ 12.07156554373084, 45.326327011493774 ], [ 12.071566387545396, 45.326327657496378 ], [ 12.07907423309123, 45.332074616397954 ], [ 12.080940200082106, 45.332114763804171 ], [ 12.082971180724801, 45.332158426777539 ], [ 12.084475552043109, 45.332142461816964 ], [ 12.084616522384273, 45.332140964769387 ], [ 12.085123260758207, 45.332078079499112 ], [ 12.086378544015112, 45.331922290996332 ], [ 12.086918357405443, 45.331812508387543 ], [ 12.087272472073138, 45.331740300515442 ], [ 12.087721048016931, 45.331648829126159 ], [ 12.087804829195715, 45.33163166174851 ], [ 12.092909655255326, 45.329764974397932 ], [ 12.093240751894674, 45.329592448910887 ], [ 12.094039164822044, 45.329176409451698 ], [ 12.100651630217031, 45.325009260156762 ], [ 12.100651668823051, 45.32500920870644 ], [ 12.102685466239745, 45.322298620616444 ], [ 12.102685531050211, 45.322298534234335 ], [ 12.102712909991835, 45.3174279928187 ], [ 12.105587570060164, 45.31366873259433 ], [ 12.110880297803446, 45.306745870212524 ], [ 12.111396556364346, 45.30638973703379 ], [ 12.113887829990114, 45.305103213417532 ], [ 12.114154023582367, 45.30496574130737 ], [ 12.116420476921657, 45.303795210715599 ], [ 12.116788255572525, 45.303646324108236 ], [ 12.118092639271886, 45.303119422333651 ], [ 12.122036524260135, 45.302003408998942 ], [ 12.123735628358004, 45.301587843456275 ], [ 12.127524731113169, 45.300907950132185 ], [ 12.127526317482605, 45.30090771127697 ], [ 12.135418216289928, 45.299719154338682 ], [ 12.135575911648262, 45.299701276030291 ], [ 12.136608094495433, 45.299584249307038 ], [ 12.137028161966777, 45.299539880443021 ], [ 12.137478059502088, 45.299559994471146 ], [ 12.138328023373159, 45.299597991658864 ], [ 12.138335787962198, 45.299598346401737 ], [ 12.139022772265941, 45.2996297307239 ], [ 12.139151811147594, 45.29967329138799 ], [ 12.141660005259979, 45.300523019740474 ], [ 12.141669701444151, 45.30052457971513 ], [ 12.148422196062029, 45.301610734724775 ], [ 12.161799071040988, 45.30208768767789 ], [ 12.163943488267881, 45.302125632572142 ], [ 12.16596136401278, 45.302161301442723 ], [ 12.166024992492469, 45.302161542977352 ], [ 12.185366071097011, 45.302233316082564 ], [ 12.187034611209462, 45.301277327269844 ], [ 12.189955275309204, 45.297119348590847 ], [ 12.189975402393756, 45.297090692560097 ], [ 12.190136539318743, 45.29685427940008 ], [ 12.190323165034844, 45.296580463728617 ], [ 12.190788462369175, 45.29589776566764 ], [ 12.190104082032041, 45.293702527083106 ], [ 12.189947362476115, 45.292500704169953 ], [ 12.18954970008086, 45.289400260253757 ], [ 12.189653862973522, 45.288179173748439 ], [ 12.189797318948473, 45.28755405740975 ], [ 12.191131968102514, 45.284978304460111 ], [ 12.192666864984844, 45.283927192088349 ], [ 12.195808213437513, 45.283101120538262 ], [ 12.196111795573044, 45.283011549499818 ], [ 12.196347558240507, 45.282941987658468 ], [ 12.199799908966188, 45.280846875941528 ], [ 12.205601742422605, 45.274067879378421 ], [ 12.205976280757534, 45.273463002002458 ], [ 12.206185998824918, 45.273124302579745 ], [ 12.206185935182287, 45.273124104775661 ], [ 12.203496993353193, 45.264765378818502 ], [ 12.203276296615059, 45.264145520172164 ], [ 12.203147080640615, 45.263782594660384 ], [ 12.202967070558714, 45.263276996438613 ], [ 12.202076120630737, 45.260808572036971 ], [ 12.201621514230842, 45.259644391593071 ], [ 12.201489930102657, 45.259307470738989 ], [ 12.201391128446481, 45.25905448639395 ], [ 12.199942867342168, 45.256247916426808 ], [ 12.195856219018406, 45.248326754072409 ], [ 12.192794114391194, 45.243262044451804 ], [ 12.193377064763196, 45.239808087783587 ], [ 12.195511298102039, 45.237427844354535 ], [ 12.195546132846077, 45.237388992340122 ], [ 12.195546458693622, 45.237388628914353 ], [ 12.19547359263367, 45.23719376390126 ], [ 12.195450876199063, 45.237133515099956 ], [ 12.195307385795669, 45.236752944829824 ], [ 12.195254560847484, 45.236664675008505 ], [ 12.19519567057216, 45.236566985555669 ], [ 12.195187976670931, 45.236554243436792 ], [ 12.195012472819975, 45.236263584047691 ], [ 12.19477532303679, 45.23587633115077 ], [ 12.194600147523795, 45.235615067023026 ], [ 12.194164142426299, 45.234966155499301 ], [ 12.193686498252708, 45.234299891396674 ], [ 12.193650098873926, 45.234249975280456 ], [ 12.193557531877007, 45.234128151453447 ], [ 12.193483830086262, 45.234031154945534 ], [ 12.193269729758859, 45.233848114322882 ], [ 12.185214723860456, 45.231053241080744 ], [ 12.18473898303445, 45.230891195036783 ], [ 12.182666113073871, 45.230185103030692 ], [ 12.182014264747551, 45.229964596253623 ], [ 12.181653386265259, 45.229842876804526 ], [ 12.1816485030247, 45.229841558236927 ], [ 12.168419431751875, 45.226268452138008 ], [ 12.161941313691118, 45.225910327253423 ], [ 12.158769350624322, 45.22596443893908 ], [ 12.158479635323683, 45.225928604202956 ], [ 12.158115223140609, 45.225883529131259 ], [ 12.157305792131272, 45.225527882621364 ], [ 12.157305752942209, 45.225527865402285 ], [ 12.157164515207697, 45.225449307600613 ], [ 12.156819230008482, 45.225253274172751 ], [ 12.156819099554111, 45.225253056216893 ], [ 12.156818891096664, 45.225252707937834 ], [ 12.154775056882867, 45.22183774894993 ], [ 12.15433744464117, 45.218284616747987 ], [ 12.153975576105571, 45.215346062877522 ], [ 12.153964196672559, 45.214904586005588 ], [ 12.153806675547758, 45.208791940906842 ], [ 12.153813408136289, 45.208632709454619 ], [ 12.153816242595862, 45.20856631569891 ], [ 12.153824757820283, 45.208408531946688 ], [ 12.153836681241618, 45.208187682698117 ], [ 12.154485962625063, 45.207746810069679 ], [ 12.154695874571809, 45.207605829824303 ], [ 12.16182245851385, 45.205687168079507 ], [ 12.164720516967842, 45.204906773024966 ], [ 12.167244990201787, 45.203328020215594 ], [ 12.171377707180751, 45.200743202496035 ], [ 12.171065850907052, 45.198798517028159 ], [ 12.178774209893209, 45.196612655799264 ], [ 12.182446382362089, 45.197167403166155 ], [ 12.183702254938229, 45.197330255362075 ], [ 12.183703182386301, 45.197330375621142 ], [ 12.184818571182957, 45.196946185010262 ], [ 12.185039763723278, 45.196869994359439 ], [ 12.185033639185702, 45.19666963634814 ], [ 12.185024367961937, 45.196366332594096 ], [ 12.184637327842548, 45.195819035608991 ], [ 12.184420212924632, 45.195632316782373 ], [ 12.183851641053341, 45.195143336971363 ], [ 12.182674747574325, 45.195071763499413 ], [ 12.180695794432209, 45.194951384412981 ], [ 12.180056239176967, 45.194925500681009 ], [ 12.178150590935783, 45.194848583334164 ], [ 12.176319716185272, 45.194774920183072 ], [ 12.166716032074985, 45.194393288284097 ], [ 12.162900008481358, 45.194313091200584 ], [ 12.156818705622035, 45.194197704585662 ], [ 12.156503962028921, 45.194198107554953 ], [ 12.155112873375, 45.194199881429405 ], [ 12.152402825051961, 45.194229782101274 ], [ 12.150876366205996, 45.194694741087886 ], [ 12.15087534427075, 45.194695052359855 ], [ 12.14580327865662, 45.196680345639727 ], [ 12.144584593929549, 45.197555978310149 ], [ 12.144578637207562, 45.197560258156741 ], [ 12.143006094514417, 45.19882780995821 ], [ 12.142507792768139, 45.199243118156801 ], [ 12.142249236586228, 45.199459592714462 ], [ 12.142081026939389, 45.199600424029832 ], [ 12.142073524881249, 45.199605433059837 ], [ 12.13568243681487, 45.20387219414814 ], [ 12.125772720233371, 45.209139626775681 ], [ 12.125771962860123, 45.209140029282736 ], [ 12.123034573149337, 45.210369445579815 ], [ 12.081629848204066, 45.203335275082125 ], [ 12.077369608236106, 45.202596557458364 ], [ 12.066452247604001, 45.200702686215074 ], [ 12.059611956801016, 45.199498997179674 ], [ 12.059607204609165, 45.199498152281294 ], [ 12.051972565897927, 45.198140489189512 ], [ 12.049037851075042, 45.197618456035677 ], [ 12.046673525508979, 45.197201355565504 ], [ 12.041131787518237, 45.196323794000897 ], [ 12.031152068026685, 45.194742702680379 ], [ 12.023031982885195, 45.193635613110985 ], [ 12.021934781471266, 45.193493075268726 ], [ 12.021651775981951, 45.19345291678529 ], [ 12.013699154465799, 45.192311138445646 ], [ 12.000889118770957, 45.190469623698476 ], [ 12.000358532373376, 45.19039331506761 ], [ 11.986986890679342, 45.188468955153716 ], [ 11.97893791225145, 45.187309773785323 ], [ 11.978206796656963, 45.187203533590754 ], [ 11.977809462791857, 45.187145793887723 ], [ 11.975578947070826, 45.18416142916179 ], [ 11.973532692903731, 45.18005425764256 ], [ 11.975340175446664, 45.168837854641275 ], [ 11.975583329512247, 45.167643296116474 ], [ 11.976619452140806, 45.162620355328571 ], [ 11.978651359397345, 45.16254976948612 ], [ 11.980785343950464, 45.162475598519066 ], [ 11.981810095894657, 45.162475029404135 ], [ 11.981841065486174, 45.162475012061257 ], [ 11.98184139645354, 45.162475011875877 ], [ 11.982612239057312, 45.162616894928036 ], [ 11.982962830203583, 45.162751755313693 ], [ 11.983173137333782, 45.159497271203612 ], [ 11.983427205538055, 45.155565289117952 ], [ 11.983426987532441, 45.155565193127501 ], [ 11.981574507332695, 45.154749496975093 ], [ 11.971093310114913, 45.150133322387937 ], [ 11.969378215586088, 45.149378536338276 ], [ 11.969228629564865, 45.14942900657595 ], [ 11.968578349288812, 45.149651511250958 ], [ 11.967282776271025, 45.150093642314211 ], [ 11.966265834603714, 45.150440668759714 ], [ 11.965429500829742, 45.150223924233401 ], [ 11.964896569592595, 45.150085668254789 ], [ 11.963487688738081, 45.149720153153496 ], [ 11.962457309731482, 45.149452691113268 ], [ 11.962232423604833, 45.149394314398577 ], [ 11.961946150581085, 45.149319661039343 ], [ 11.961946117582983, 45.149319652434151 ], [ 11.966834522821161, 45.138310423159041 ], [ 11.968054689165459, 45.135561864582982 ], [ 11.968753584119559, 45.133990901677151 ], [ 11.968753694345935, 45.13399065390562 ], [ 11.968159401363414, 45.133850422492046 ], [ 11.967353512648225, 45.133660256104818 ], [ 11.966622195118955, 45.133546578105204 ], [ 11.966212456013382, 45.133482884871164 ], [ 11.965624979231588, 45.133482817296233 ], [ 11.963109384199406, 45.133482493717601 ], [ 11.960444093134289, 45.133626947719243 ], [ 11.958328322102052, 45.133741573976664 ], [ 11.956239702022499, 45.134035025731208 ], [ 11.954793099789983, 45.13423824975834 ], [ 11.951461687847829, 45.134793235091415 ], [ 11.950442931995239, 45.134962929871158 ], [ 11.948466522615103, 45.135356080762094 ], [ 11.946940180764509, 45.135845595069945 ], [ 11.945533681884276, 45.13644001556797 ], [ 11.944930530091323, 45.136899231411434 ], [ 11.944052859949259, 45.137567436171587 ], [ 11.942238750648627, 45.138892466482162 ], [ 11.941707885606478, 45.13925510157884 ], [ 11.940924063850025, 45.139790519306246 ], [ 11.938857615112319, 45.141158005594079 ], [ 11.937767042022889, 45.14180299742344 ], [ 11.937536816212635, 45.141939155512567 ], [ 11.937324848690686, 45.142025341237179 ], [ 11.935929594997413, 45.142592633535571 ], [ 11.935066038775037, 45.142866896785748 ], [ 11.934869363319626, 45.142896628125939 ], [ 11.934097334280784, 45.143013331856238 ], [ 11.933261080993649, 45.143138351427474 ], [ 11.931281282828191, 45.143225233134892 ], [ 11.92794618967109, 45.143279193625915 ], [ 11.926540800897556, 45.143301903050144 ], [ 11.924471883280894, 45.143138905760765 ], [ 11.924275390950907, 45.143082038195722 ], [ 11.922728943471961, 45.142634459178488 ], [ 11.921320275122731, 45.141950397357093 ], [ 11.921108013407677, 45.141750662115172 ], [ 11.920398312893143, 45.141082830636016 ], [ 11.919722982160071, 45.1402865362816 ], [ 11.919680992673621, 45.140237024841049 ], [ 11.911688925343407, 45.13665152664781 ], [ 11.898381671895194, 45.1335606636272 ], [ 11.897184999817368, 45.133285000006559 ], [ 11.897184980775199, 45.133284995619903 ], [ 11.897136551231483, 45.133286737785937 ], [ 11.89548395083626, 45.133346174758749 ], [ 11.893754823190275, 45.13360607789199 ], [ 11.891538546878524, 45.134292377982966 ], [ 11.891291567063847, 45.134438162363281 ], [ 11.880104087573537, 45.135039577226401 ], [ 11.880066862048835, 45.135041576542761 ], [ 11.865308121549839, 45.133396740381272 ], [ 11.864612617570607, 45.133268296884886 ], [ 11.863806293250283, 45.133119381348955 ], [ 11.859790370513982, 45.132318661250785 ], [ 11.858873655913975, 45.132135857698337 ], [ 11.857162827574907, 45.131746625819488 ], [ 11.857160924932318, 45.131746104377555 ], [ 11.846560097739449, 45.128840172287816 ], [ 11.845185329429693, 45.128463221440434 ], [ 11.838361415081895, 45.126256647018721 ], [ 11.83631975554243, 45.125596343813818 ], [ 11.835853235350733, 45.124842793441502 ], [ 11.835781054786606, 45.124728032457313 ], [ 11.835780765357537, 45.124727572288535 ], [ 11.834030437578173, 45.122763676678979 ], [ 11.833385451218781, 45.122320606291275 ], [ 11.832354145792689, 45.122035649610588 ], [ 11.832293660617909, 45.122019543810659 ], [ 11.832276836658279, 45.122015063972803 ], [ 11.832015722667672, 45.121981789854303 ], [ 11.830562231642938, 45.121796557768612 ], [ 11.824895780469696, 45.121369863795614 ], [ 11.824402984283514, 45.121388088297593 ], [ 11.823423560757849, 45.121424302822774 ], [ 11.821683484704732, 45.121719390449272 ], [ 11.820501039205071, 45.122127319339384 ], [ 11.819758151194367, 45.122383597271316 ], [ 11.819539518590906, 45.122458619951928 ], [ 11.819433061579586, 45.122495149920937 ], [ 11.819074501597504, 45.122598863898787 ], [ 11.818003922207703, 45.122908521644675 ], [ 11.817162235367645, 45.123145887194873 ], [ 11.816674587613322, 45.12328340587316 ], [ 11.815616286948655, 45.12335030476612 ], [ 11.815039421699279, 45.123386766251755 ], [ 11.813056364860294, 45.1231386114247 ], [ 11.808027336218647, 45.121192080284999 ], [ 11.807878334272928, 45.121116366646568 ], [ 11.806827672110465, 45.120582473208664 ], [ 11.805878797865823, 45.119870509781506 ], [ 11.805666040112708, 45.119710868852451 ], [ 11.805665459864374, 45.11971042940732 ], [ 11.79210708403782, 45.10943941065883 ], [ 11.791664193052462, 45.109176116612865 ], [ 11.777943807138973, 45.101017391278127 ], [ 11.777258262522359, 45.100628962854458 ], [ 11.773775514382775, 45.098655495333112 ], [ 11.773457877391486, 45.098475496892299 ], [ 11.762884437122826, 45.096009583856556 ], [ 11.762881996267829, 45.096009014466844 ], [ 11.761249878646552, 45.095634437835344 ], [ 11.760149893018953, 45.095508348610664 ], [ 11.75949907327797, 45.095433741117418 ], [ 11.758225758069667, 45.095383508371903 ], [ 11.756756698843454, 45.095491019773952 ], [ 11.756756539082039, 45.095491057685045 ], [ 11.7552362772173, 45.095851800875614 ], [ 11.745620402150129, 45.096884199415022 ], [ 11.745614242876595, 45.096884860428709 ], [ 11.737431736976436, 45.097729555818383 ], [ 11.729402950149094, 45.097804839953845 ], [ 11.729402582224894, 45.097804925652461 ], [ 11.718290649970502, 45.100392516434887 ], [ 11.717231258514307, 45.101101876887078 ], [ 11.715649999360396, 45.101508363339967 ], [ 11.715649064024166, 45.1015086037741 ], [ 11.715646099727424, 45.101509248756557 ], [ 11.71504519853603, 45.101639993146712 ], [ 11.714503960551779, 45.101751887007389 ], [ 11.713632197857224, 45.101862637148507 ], [ 11.711899651078296, 45.102047848471642 ], [ 11.710239863638208, 45.102159292133102 ], [ 11.708827156726029, 45.102093900858463 ], [ 11.708825904637239, 45.102093842894007 ], [ 11.708824245690904, 45.102093530515027 ], [ 11.707594734801409, 45.101862006427083 ], [ 11.706401665615839, 45.101629256714325 ], [ 11.705358408242724, 45.101338932486684 ], [ 11.702040564628257, 45.100319326786952 ], [ 11.69910215859931, 45.099491184294564 ], [ 11.699093989761129, 45.09948888189821 ], [ 11.696804926177368, 45.098921878231451 ], [ 11.696140767774292, 45.098764799222046 ], [ 11.695905224916912, 45.098709090220709 ], [ 11.694452853183982, 45.098635370030621 ], [ 11.693719183533226, 45.098821350975285 ], [ 11.693121506088064, 45.098972854356767 ], [ 11.692129480831056, 45.09930516413916 ], [ 11.690606446334003, 45.099815328007459 ], [ 11.68925679052756, 45.100329930288822 ], [ 11.68897074245951, 45.100438992667641 ], [ 11.688182316452238, 45.100754484907043 ], [ 11.686126259287871, 45.101577184059366 ], [ 11.684893788327976, 45.102128285996478 ], [ 11.678672923799075, 45.103912784419897 ], [ 11.66996977088418, 45.105722742652446 ], [ 11.664266580730935, 45.104078982489526 ], [ 11.662960184032064, 45.103866427200664 ], [ 11.662445854180129, 45.103924195459847 ], [ 11.662049760331, 45.103968682091192 ], [ 11.655072516589383, 45.10563450615934 ], [ 11.654128800314439, 45.106042063836362 ], [ 11.653838811574747, 45.106167297018665 ], [ 11.652470213002914, 45.107081281862072 ], [ 11.652469541483157, 45.107081366010945 ], [ 11.640299336889516, 45.108605741539883 ], [ 11.638269555484591, 45.10865703788798 ], [ 11.631555825532343, 45.108826448694934 ], [ 11.619324660897979, 45.109134066674365 ], [ 11.619323508810526, 45.109134095587898 ], [ 11.610322241855908, 45.110558992331221 ], [ 11.610148139055795, 45.110586545079812 ], [ 11.60644489732627, 45.113848782320531 ], [ 11.600811561981143, 45.117172901578812 ], [ 11.599990483904683, 45.117569680990236 ], [ 11.599498497836038, 45.117737185640593 ], [ 11.598913744741346, 45.117936270343179 ], [ 11.597159351829212, 45.118219252778736 ], [ 11.596362123600201, 45.118279775248247 ], [ 11.595296806384075, 45.11836064112557 ], [ 11.590777120875739, 45.117662178497575 ], [ 11.590514241657754, 45.117742155830257 ], [ 11.586337618188344, 45.119012725137807 ], [ 11.581408434499409, 45.120511964088443 ], [ 11.580768391581548, 45.121543629841135 ], [ 11.580768203185388, 45.121543907665419 ], [ 11.580303444244837, 45.122229270053658 ], [ 11.579819293657684, 45.122771315091207 ], [ 11.57922662396755, 45.123162781434473 ], [ 11.578454898392092, 45.123531284741894 ], [ 11.577590598691664, 45.123820858623468 ], [ 11.577037772781205, 45.123968368863977 ], [ 11.574109592333848, 45.124169474329655 ], [ 11.572551014165532, 45.124148355363296 ], [ 11.565055823934845, 45.121871140343281 ], [ 11.565054927719357, 45.121870868011129 ], [ 11.565050090575257, 45.121869989103608 ], [ 11.556321226536623, 45.120283576121558 ], [ 11.553812815330108, 45.119827548120185 ], [ 11.552110123116178, 45.120135685464241 ], [ 11.552107735333559, 45.120136101937661 ], [ 11.550570930528277, 45.120404137551596 ], [ 11.548885190473941, 45.120522812626547 ], [ 11.544656653879613, 45.120644174941681 ], [ 11.528912434235561, 45.120850088884673 ], [ 11.528648093934869, 45.120845556471231 ], [ 11.52730918034476, 45.120822589858257 ], [ 11.526136213004332, 45.120749539460242 ], [ 11.525394326564699, 45.120648935121714 ], [ 11.525372809795913, 45.120645821579281 ], [ 11.522156887366446, 45.120180417985651 ], [ 11.520214707239845, 45.119674216629882 ], [ 11.518807227037019, 45.119183188619665 ], [ 11.517540715981697, 45.118427984472525 ], [ 11.517244589225987, 45.118064483040278 ], [ 11.516640253015805, 45.117322631126029 ], [ 11.516089182877616, 45.116395033423103 ], [ 11.516012097774283, 45.116265275953474 ], [ 11.515939876987311, 45.116140841418556 ], [ 11.51588705488482, 45.115997130816304 ], [ 11.515434451270853, 45.114765720898689 ], [ 11.515433817746617, 45.114765238119951 ], [ 11.507043206010843, 45.10837010260957 ], [ 11.496098701119903, 45.103704257231627 ], [ 11.496098233161598, 45.103704057692966 ], [ 11.494591324119492, 45.103250911196568 ], [ 11.493411969778037, 45.103118370604889 ], [ 11.492981902657272, 45.103070034727693 ], [ 11.492917265845341, 45.103081131368903 ], [ 11.491720265863494, 45.103286621151582 ], [ 11.491554779509851, 45.103324144167388 ] ] ] ] } }
]
}
