{
"type": "FeatureCollection",
"name": "Veneto",
"crs": { "type": "name", "properties": { "name": "urn:ogc:def:crs:OGC:1.3:CRS84" } },
"features": [
{ "type": "Feature", "properties": { "prov_name": "Verona", "prov_istat_code_num": 23, "prov_acr": "VR", "reg_name": "Veneto", "reg_istat_code": "05", "reg_istat_code_num": 5, "prov_istat_code": "023" }, "geometry": { "type": "MultiPolygon", "coordinates": [ [ [ [ 12.332727, 45.163108 ], [ 12.333246, 45.163322 ], [ 12.334688, 45.16378 ], [ 12.334675, 45.163733 ], [ 12.334403, 45.162708 ], [ 12.334213, 45.162137 ], [ 12.333141, 45.159306 ], [ 12.332089, 45.156753 ], [ 12.33148, 45.155367 ], [ 12.331229, 45.154816 ], [ 12.330805, 45.154198 ], [ 12.330335, 45.153015 ], [ 12.330204, 45.152632 ], [ 12.329855, 45.151445 ], [ 12.329435, 45.1499 ], [ 12.329152, 45.148702 ], [ 12.328904, 45.146899 ], [ 12.328828, 45.146141 ], [ 12.328393, 45.145555 ], [ 12.327066, 45.139259 ], [ 12.326891, 45.138339 ], [ 12.3268, 45.137473 ], [ 12.326721, 45.136501 ], [ 12.326644, 45.135504 ], [ 12.326413, 45.131932 ], [ 12.326433, 45.131556 ], [ 12.32664, 45.129099 ], [ 12.32716, 45.123676 ], [ 12.327262, 45.122645 ], [ 12.327902, 45.11993 ], [ 12.328916, 45.116329 ], [ 12.329852, 45.113127 ], [ 12.334641, 45.096871 ], [ 12.337234, 45.089522 ], [ 12.337715, 45.089378 ], [ 12.342048, 45.087738 ], [ 12.343611, 45.086927 ], [ 12.345014, 45.086148 ], [ 12.346178, 45.085464 ], [ 12.347873, 45.084077 ], [ 12.355797, 45.076578 ], [ 12.356084, 45.07622 ], [ 12.356367, 45.075836 ], [ 12.35653, 45.075507 ], [ 12.365188, 45.072377 ], [ 12.364463, 45.070703 ], [ 12.370644, 45.064917 ], [ 12.372621, 45.063159 ], [ 12.374707, 45.061343 ], [ 12.376902, 45.059451 ], [ 12.393532, 45.045503 ], [ 12.409984, 45.036587 ], [ 12.420737, 45.030184 ], [ 12.432319, 45.021449 ], [ 12.433564, 45.020516 ], [ 12.435685, 45.019003 ], [ 12.437013, 45.018083 ], [ 12.443528, 45.013606 ], [ 12.444145, 45.013209 ], [ 12.459543, 45.005476 ], [ 12.463756, 45.003388 ], [ 12.469088, 45.000762 ], [ 12.485137, 44.992954 ], [ 12.503427, 44.988998 ], [ 12.506964, 44.990195 ], [ 12.506949, 44.99025 ], [ 12.506931, 44.990467 ], [ 12.506984, 44.990816 ], [ 12.507012, 44.990865 ], [ 12.50734, 44.991183 ], [ 12.507421, 44.991235 ], [ 12.507491, 44.99127 ], [ 12.507643, 44.991333 ], [ 12.50778, 44.99138 ], [ 12.507877, 44.991403 ], [ 12.508055, 44.991432 ], [ 12.508232, 44.991449 ], [ 12.508405, 44.991451 ], [ 12.508669, 44.991444 ], [ 12.510905, 44.991383 ], [ 12.510965, 44.991378 ], [ 12.511259, 44.991298 ], [ 12.511377, 44.991258 ], [ 12.514566, 44.989975 ], [ 12.516503, 44.988975 ], [ 12.518617, 44.987747 ], [ 12.523591, 44.984897 ], [ 12.529149, 44.981725 ], [ 12.531036, 44.980777 ], [ 12.538786, 44.977532 ], [ 12.543563, 44.975777 ], [ 12.547018, 44.974981 ], [ 12.548329, 44.974236 ], [ 12.553936, 44.965984 ], [ 12.553961, 44.965945 ], [ 12.553991, 44.965867 ], [ 12.554059, 44.965617 ], [ 12.554086, 44.96541 ], [ 12.554083, 44.965189 ], [ 12.554066, 44.964639 ], [ 12.554026, 44.964485 ], [ 12.550852, 44.960879 ], [ 12.55044, 44.960422 ], [ 12.549244, 44.959278 ], [ 12.548179, 44.958604 ], [ 12.547482, 44.958461 ], [ 12.545995, 44.958017 ], [ 12.538028, 44.953002 ], [ 12.535973, 44.951691 ], [ 12.534218, 44.9504 ], [ 12.533291, 44.949699 ], [ 12.531201, 44.947982 ], [ 12.530644, 44.94752 ], [ 12.529704, 44.946712 ], [ 12.529327, 44.946387 ], [ 12.515606, 44.934473 ], [ 12.509134, 44.92644 ], [ 12.501029, 44.909067 ], [ 12.495195, 44.896106 ], [ 12.494203, 44.893906 ], [ 12.485513, 44.877793 ], [ 12.48455, 44.876047 ], [ 12.482861, 44.87324 ], [ 12.465008, 44.843733 ], [ 12.45613, 44.838896 ], [ 12.454506, 44.838085 ], [ 12.45182, 44.836744 ], [ 12.447848, 44.835071 ], [ 12.442715, 44.833432 ], [ 12.438978, 44.832334 ], [ 12.435108, 44.831337 ], [ 12.432018, 44.830802 ], [ 12.42904, 44.83093 ], [ 12.415451, 44.82004 ], [ 12.414981, 44.819391 ], [ 12.415415, 44.818806 ], [ 12.416842, 44.816905 ], [ 12.419337, 44.814973 ], [ 12.42155, 44.813906 ], [ 12.421588, 44.812285 ], [ 12.42093, 44.811352 ], [ 12.418402, 44.80797 ], [ 12.415189, 44.803745 ], [ 12.408821, 44.798374 ], [ 12.396763, 44.790684 ], [ 12.398108, 44.792777 ], [ 12.395228, 44.794115 ], [ 12.394311, 44.79444 ], [ 12.393482, 44.794738 ], [ 12.390226, 44.795924 ], [ 12.388286, 44.796684 ], [ 12.381694, 44.799832 ], [ 12.379353, 44.801099 ], [ 12.377637, 44.802248 ], [ 12.376228, 44.803244 ], [ 12.374038, 44.804713 ], [ 12.368858, 44.808044 ], [ 12.364038, 44.81104 ], [ 12.363119, 44.811562 ], [ 12.362047, 44.812035 ], [ 12.360563, 44.81261 ], [ 12.358973, 44.813106 ], [ 12.35737, 44.813604 ], [ 12.355192, 44.815081 ], [ 12.353282, 44.817028 ], [ 12.353168, 44.817199 ], [ 12.351747, 44.819359 ], [ 12.346145, 44.829417 ], [ 12.344555, 44.835171 ], [ 12.343893, 44.838584 ], [ 12.343739, 44.840083 ], [ 12.343625, 44.841824 ], [ 12.343588, 44.843805 ], [ 12.343452, 44.845835 ], [ 12.343092, 44.846826 ], [ 12.342466, 44.847817 ], [ 12.341575, 44.849031 ], [ 12.340534, 44.85007 ], [ 12.338429, 44.851311 ], [ 12.336318, 44.852237 ], [ 12.334392, 44.852617 ], [ 12.3325, 44.852736 ], [ 12.327059, 44.852809 ], [ 12.3226, 44.853546 ], [ 12.317436, 44.854201 ], [ 12.309622, 44.854986 ], [ 12.306117, 44.855223 ], [ 12.303836, 44.855388 ], [ 12.301932, 44.85574 ], [ 12.299854, 44.856358 ], [ 12.297879, 44.857234 ], [ 12.29515, 44.859303 ], [ 12.294109, 44.860359 ], [ 12.287909, 44.868622 ], [ 12.286651, 44.870305 ], [ 12.285996, 44.872368 ], [ 12.284705, 44.878373 ], [ 12.284024, 44.886423 ], [ 12.284049, 44.888645 ], [ 12.284552, 44.893691 ], [ 12.285156, 44.894519 ], [ 12.285282, 44.895613 ], [ 12.28515, 44.897066 ], [ 12.28488, 44.899451 ], [ 12.28398, 44.903888 ], [ 12.283391, 44.905543 ], [ 12.282329, 44.907797 ], [ 12.281872, 44.910016 ], [ 12.282185, 44.91151 ], [ 12.283306, 44.91317 ], [ 12.28409, 44.914246 ], [ 12.289348, 44.91936 ], [ 12.290401, 44.920275 ], [ 12.29191, 44.921627 ], [ 12.293183, 44.923057 ], [ 12.294134, 44.924398 ], [ 12.294747, 44.925371 ], [ 12.294871, 44.926213 ], [ 12.294737, 44.927415 ], [ 12.29401, 44.929101 ], [ 12.293308, 44.930336 ], [ 12.292279, 44.931626 ], [ 12.28383, 44.939693 ], [ 12.283118, 44.940307 ], [ 12.281854, 44.941262 ], [ 12.280869, 44.941767 ], [ 12.276164, 44.943289 ], [ 12.274489, 44.943472 ], [ 12.25776, 44.942844 ], [ 12.256904, 44.942724 ], [ 12.256183, 44.942528 ], [ 12.239565, 44.935071 ], [ 12.238807, 44.934678 ], [ 12.238538, 44.934508 ], [ 12.237546, 44.933877 ], [ 12.236418, 44.932748 ], [ 12.235814, 44.931928 ], [ 12.235151, 44.930947 ], [ 12.233912, 44.9292 ], [ 12.233187, 44.928248 ], [ 12.231719, 44.926481 ], [ 12.22959, 44.924677 ], [ 12.228485, 44.923953 ], [ 12.226762, 44.923272 ], [ 12.225134, 44.923007 ], [ 12.224972, 44.922981 ], [ 12.223702, 44.923152 ], [ 12.221952, 44.923579 ], [ 12.220156, 44.924089 ], [ 12.217938, 44.924764 ], [ 12.215873, 44.925452 ], [ 12.21355, 44.926292 ], [ 12.211197, 44.927033 ], [ 12.208984, 44.927113 ], [ 12.206423, 44.92687 ], [ 12.20379, 44.926458 ], [ 12.202484, 44.926216 ], [ 12.202058, 44.926079 ], [ 12.201449, 44.92584 ], [ 12.199963, 44.925539 ], [ 12.198054, 44.925404 ], [ 12.194174, 44.92535 ], [ 12.191272, 44.925576 ], [ 12.189139, 44.925959 ], [ 12.18767, 44.926433 ], [ 12.186054, 44.927225 ], [ 12.184186, 44.928267 ], [ 12.183149, 44.928943 ], [ 12.182167, 44.929584 ], [ 12.180655, 44.930643 ], [ 12.179339, 44.931832 ], [ 12.177887, 44.933529 ], [ 12.176558, 44.935402 ], [ 12.175857, 44.937393 ], [ 12.174891, 44.93941 ], [ 12.173617, 44.940678 ], [ 12.172326, 44.941632 ], [ 12.170676, 44.942047 ], [ 12.169145, 44.94209 ], [ 12.16734, 44.941546 ], [ 12.165034, 44.940638 ], [ 12.163247, 44.939724 ], [ 12.161069, 44.938596 ], [ 12.159877, 44.937657 ], [ 12.159155, 44.936516 ], [ 12.158723, 44.934646 ], [ 12.158792, 44.933141 ], [ 12.159144, 44.931691 ], [ 12.158909, 44.931103 ], [ 12.158029, 44.930552 ], [ 12.144342, 44.92822 ], [ 12.142424, 44.927904 ], [ 12.140604, 44.92844 ], [ 12.138891, 44.929567 ], [ 12.127962, 44.937168 ], [ 12.122467, 44.943107 ], [ 12.117532, 44.951209 ], [ 12.117533, 44.953099 ], [ 12.117474, 44.954829 ], [ 12.117059, 44.956047 ], [ 12.116183, 44.957673 ], [ 12.114929, 44.959102 ], [ 12.113134, 44.960367 ], [ 12.11124, 44.960985 ], [ 12.108963, 44.961552 ], [ 12.107085, 44.961756 ], [ 12.101231, 44.961826 ], [ 12.099812, 44.966076 ], [ 12.091564, 44.970207 ], [ 12.072348, 44.97204 ], [ 12.069182, 44.970694 ], [ 12.066465, 44.96993 ], [ 12.064035, 44.969527 ], [ 12.061057, 44.96958 ], [ 12.059035, 44.96995 ], [ 12.056889, 44.970601 ], [ 12.056843, 44.970623 ], [ 12.055368, 44.971326 ], [ 12.053713, 44.972415 ], [ 12.052294, 44.97338 ], [ 12.051638, 44.973857 ], [ 12.051343, 44.974071 ], [ 12.050792, 44.974473 ], [ 12.047487, 44.976964 ], [ 12.04311, 44.976704 ], [ 12.039545, 44.976682 ], [ 12.034656, 44.976794 ], [ 12.023225, 44.976728 ], [ 12.015454, 44.976556 ], [ 12.013163, 44.977111 ], [ 12.005599, 44.979453 ], [ 12.002433, 44.980509 ], [ 11.999267, 44.981573 ], [ 11.996562, 44.982239 ], [ 11.988403, 44.983389 ], [ 11.985794, 44.983717 ], [ 11.983163, 44.98435 ], [ 11.975008, 44.985832 ], [ 11.964173, 44.98678 ], [ 11.962679, 44.986828 ], [ 11.96099, 44.986547 ], [ 11.958894, 44.985999 ], [ 11.951242, 44.983465 ], [ 11.950387, 44.983127 ], [ 11.946325, 44.981323 ], [ 11.944897, 44.980667 ], [ 11.94314, 44.979803 ], [ 11.941636, 44.979158 ], [ 11.938748, 44.977972 ], [ 11.936597, 44.977289 ], [ 11.932258, 44.976006 ], [ 11.930242, 44.975517 ], [ 11.927809, 44.975013 ], [ 11.926941, 44.974877 ], [ 11.926377, 44.974793 ], [ 11.924583, 44.974677 ], [ 11.922868, 44.974608 ], [ 11.921183, 44.974651 ], [ 11.915395, 44.97524 ], [ 11.911408, 44.975648 ], [ 11.909545, 44.975921 ], [ 11.907683, 44.976211 ], [ 11.906202, 44.976519 ], [ 11.904432, 44.976888 ], [ 11.89956, 44.977804 ], [ 11.8976, 44.977917 ], [ 11.895635, 44.977922 ], [ 11.893673, 44.977747 ], [ 11.891668, 44.977465 ], [ 11.889778, 44.976972 ], [ 11.887364, 44.976372 ], [ 11.883207, 44.975361 ], [ 11.881187, 44.975034 ], [ 11.877278, 44.974457 ], [ 11.875804, 44.974404 ], [ 11.870004, 44.974775 ], [ 11.853331, 44.974293 ], [ 11.838318, 44.972789 ], [ 11.837928, 44.972782 ], [ 11.836843, 44.972899 ], [ 11.835458, 44.973087 ], [ 11.833644, 44.973348 ], [ 11.827584, 44.974691 ], [ 11.82558, 44.975402 ], [ 11.824009, 44.975936 ], [ 11.819519, 44.976705 ], [ 11.817757, 44.976973 ], [ 11.815865, 44.977182 ], [ 11.813598, 44.977265 ], [ 11.811267, 44.977295 ], [ 11.808819, 44.977293 ], [ 11.806468, 44.977161 ], [ 11.804719, 44.976961 ], [ 11.802578, 44.976483 ], [ 11.800684, 44.975845 ], [ 11.799071, 44.975003 ], [ 11.797316, 44.973848 ], [ 11.795528, 44.972299 ], [ 11.793272, 44.970225 ], [ 11.791602, 44.968736 ], [ 11.790037, 44.967545 ], [ 11.788447, 44.966387 ], [ 11.787074, 44.965529 ], [ 11.783827, 44.964186 ], [ 11.782516, 44.96384 ], [ 11.780673, 44.963471 ], [ 11.772245, 44.961973 ], [ 11.764182, 44.960095 ], [ 11.76244, 44.959732 ], [ 11.760372, 44.959431 ], [ 11.758436, 44.959244 ], [ 11.756401, 44.959059 ], [ 11.756331, 44.959057 ], [ 11.756193, 44.959053 ], [ 11.756153, 44.959052 ], [ 11.753987, 44.959 ], [ 11.752119, 44.958874 ], [ 11.750313, 44.958738 ], [ 11.748679, 44.958507 ], [ 11.748534, 44.958471 ], [ 11.747036, 44.958097 ], [ 11.745631, 44.957334 ], [ 11.743958, 44.956024 ], [ 11.742356, 44.954586 ], [ 11.741233, 44.953092 ], [ 11.740404, 44.951626 ], [ 11.740003, 44.95016 ], [ 11.739972, 44.949781 ], [ 11.741324, 44.944052 ], [ 11.743399, 44.94023 ], [ 11.744027, 44.938792 ], [ 11.744746, 44.937128 ], [ 11.744907, 44.935981 ], [ 11.744885, 44.935606 ], [ 11.744847, 44.934974 ], [ 11.744023, 44.933643 ], [ 11.743029, 44.932731 ], [ 11.740043, 44.93066 ], [ 11.738707, 44.929747 ], [ 11.737047, 44.928671 ], [ 11.734073, 44.927135 ], [ 11.732932, 44.926609 ], [ 11.731187, 44.926408 ], [ 11.729609, 44.926265 ], [ 11.727845, 44.926209 ], [ 11.726212, 44.926239 ], [ 11.725327, 44.926458 ], [ 11.723806, 44.926701 ], [ 11.721452, 44.926739 ], [ 11.71845, 44.926657 ], [ 11.718129, 44.926623 ], [ 11.715532, 44.926338 ], [ 11.710322, 44.925169 ], [ 11.707574, 44.924465 ], [ 11.706659, 44.9241 ], [ 11.701344, 44.921939 ], [ 11.701298, 44.921919 ], [ 11.699762, 44.921227 ], [ 11.698717, 44.920712 ], [ 11.69768, 44.920152 ], [ 11.696165, 44.919546 ], [ 11.694997, 44.919118 ], [ 11.694942, 44.919099 ], [ 11.693836, 44.918723 ], [ 11.69376, 44.918699 ], [ 11.689477, 44.917365 ], [ 11.687522, 44.91685 ], [ 11.67804, 44.915613 ], [ 11.675469, 44.915366 ], [ 11.675412, 44.915361 ], [ 11.672845, 44.915166 ], [ 11.671278, 44.914756 ], [ 11.66959, 44.914063 ], [ 11.665882, 44.912111 ], [ 11.665478, 44.911898 ], [ 11.664519, 44.911386 ], [ 11.663382, 44.910773 ], [ 11.656933, 44.907058 ], [ 11.65011, 44.903271 ], [ 11.643029, 44.899114 ], [ 11.631817, 44.892942 ], [ 11.624809, 44.889223 ], [ 11.623269, 44.888781 ], [ 11.621441, 44.888391 ], [ 11.61959, 44.888065 ], [ 11.617373, 44.888035 ], [ 11.61538, 44.888099 ], [ 11.614654, 44.888124 ], [ 11.600853, 44.888988 ], [ 11.599288, 44.889213 ], [ 11.596777, 44.889738 ], [ 11.595205, 44.89023 ], [ 11.595142, 44.890253 ], [ 11.593536, 44.890892 ], [ 11.592084, 44.892039 ], [ 11.591255, 44.893235 ], [ 11.590229, 44.895081 ], [ 11.589386, 44.896786 ], [ 11.589082, 44.89746 ], [ 11.588836, 44.898013 ], [ 11.588811, 44.898074 ], [ 11.588332, 44.899263 ], [ 11.588313, 44.899521 ], [ 11.588233, 44.900654 ], [ 11.588135, 44.902114 ], [ 11.588134, 44.902151 ], [ 11.588137, 44.903887 ], [ 11.588133, 44.904787 ], [ 11.588129, 44.905641 ], [ 11.587918, 44.907133 ], [ 11.587623, 44.908727 ], [ 11.587611, 44.908771 ], [ 11.587075, 44.910121 ], [ 11.586429, 44.911339 ], [ 11.58551, 44.912358 ], [ 11.58543, 44.912442 ], [ 11.584687, 44.913184 ], [ 11.583335, 44.914195 ], [ 11.581706, 44.915202 ], [ 11.578975, 44.916851 ], [ 11.575576, 44.917746 ], [ 11.572742, 44.918396 ], [ 11.57143, 44.918524 ], [ 11.570029, 44.918637 ], [ 11.569318, 44.918608 ], [ 11.566413, 44.918808 ], [ 11.565099, 44.91891 ], [ 11.563743, 44.919183 ], [ 11.561208, 44.920023 ], [ 11.560064, 44.920508 ], [ 11.558543, 44.921352 ], [ 11.557606, 44.92194 ], [ 11.556463, 44.922767 ], [ 11.554627, 44.924195 ], [ 11.552803, 44.925694 ], [ 11.551753, 44.926581 ], [ 11.549101, 44.928827 ], [ 11.534131, 44.936246 ], [ 11.52369, 44.936899 ], [ 11.519926, 44.936605 ], [ 11.518059, 44.936512 ], [ 11.515838, 44.936444 ], [ 11.512669, 44.936702 ], [ 11.506485, 44.937009 ], [ 11.503069, 44.937147 ], [ 11.499893, 44.937271 ], [ 11.497701, 44.937283 ], [ 11.490072, 44.937297 ], [ 11.485033, 44.937127 ], [ 11.477425, 44.936762 ], [ 11.469602, 44.936373 ], [ 11.467516, 44.936202 ], [ 11.46582, 44.935995 ], [ 11.464227, 44.935714 ], [ 11.461886, 44.935325 ], [ 11.459652, 44.934946 ], [ 11.456299, 44.934185 ], [ 11.452614, 44.93313 ], [ 11.434077, 44.929395 ], [ 11.432557, 44.929113 ], [ 11.431093, 44.928955 ], [ 11.429373, 44.929046 ], [ 11.427495, 44.929563 ], [ 11.426352, 44.9301 ], [ 11.425555, 44.931053 ], [ 11.424973, 44.932263 ], [ 11.424622, 44.933558 ], [ 11.424, 44.936559 ], [ 11.42393, 44.937893 ], [ 11.424066, 44.939331 ], [ 11.424235, 44.940938 ], [ 11.424673, 44.943805 ], [ 11.42493, 44.944781 ], [ 11.425372, 44.946261 ], [ 11.426163, 44.948792 ], [ 11.426502, 44.949604 ], [ 11.426742, 44.950084 ], [ 11.427507, 44.952837 ], [ 11.427646, 44.953734 ], [ 11.427673, 44.955228 ], [ 11.427588, 44.956535 ], [ 11.427316, 44.957891 ], [ 11.426835, 44.95881 ], [ 11.426232, 44.959831 ], [ 11.425487, 44.960819 ], [ 11.424417, 44.961895 ], [ 11.422983, 44.963069 ], [ 11.421912, 44.96383 ], [ 11.420178, 44.964812 ], [ 11.41844, 44.965677 ], [ 11.41747, 44.966139 ], [ 11.41614, 44.96677 ], [ 11.414792, 44.967348 ], [ 11.412651, 44.968248 ], [ 11.411302, 44.968727 ], [ 11.409028, 44.969531 ], [ 11.407681, 44.969766 ], [ 11.405809, 44.969869 ], [ 11.401788, 44.970422 ], [ 11.395839, 44.971285 ], [ 11.394559, 44.971618 ], [ 11.388041, 44.973798 ], [ 11.386445, 44.97411 ], [ 11.383924, 44.974775 ], [ 11.376014, 44.977325 ], [ 11.363681, 44.981434 ], [ 11.360768, 44.982485 ], [ 11.358415, 44.983551 ], [ 11.343963, 44.987773 ], [ 11.338246, 44.989421 ], [ 11.327202, 44.995655 ], [ 11.322129, 45.000174 ], [ 11.317929, 45.004197 ], [ 11.313216, 45.00973 ], [ 11.310864, 45.011209 ], [ 11.30874, 45.012359 ], [ 11.306948, 45.012927 ], [ 11.30539, 45.0133 ], [ 11.303416, 45.013772 ], [ 11.301618, 45.014187 ], [ 11.29886, 45.01446 ], [ 11.292083, 45.015045 ], [ 11.290478, 45.015203 ], [ 11.283015, 45.016144 ], [ 11.281526, 45.016354 ], [ 11.277361, 45.016942 ], [ 11.275497, 45.017312 ], [ 11.274037, 45.018259 ], [ 11.27391, 45.01842 ], [ 11.2733, 45.01921 ], [ 11.273207, 45.020382 ], [ 11.273117, 45.021635 ], [ 11.272999, 45.023141 ], [ 11.272796, 45.02409 ], [ 11.272121, 45.025661 ], [ 11.271278, 45.027127 ], [ 11.269931, 45.02836 ], [ 11.264621, 45.031746 ], [ 11.264074, 45.03209 ], [ 11.263053, 45.032939 ], [ 11.263142, 45.033585 ], [ 11.267352, 45.039893 ], [ 11.268512, 45.041607 ], [ 11.269279, 45.042699 ], [ 11.27037, 45.04401 ], [ 11.270455, 45.044512 ], [ 11.270516, 45.045087 ], [ 11.270618, 45.046363 ], [ 11.270599, 45.047498 ], [ 11.270298, 45.048566 ], [ 11.269534, 45.051075 ], [ 11.269203, 45.052009 ], [ 11.268699, 45.053405 ], [ 11.267551, 45.055201 ], [ 11.265903, 45.056224 ], [ 11.264324, 45.056786 ], [ 11.262712, 45.056809 ], [ 11.261412, 45.056349 ], [ 11.25948, 45.055361 ], [ 11.256959, 45.053908 ], [ 11.254917, 45.052346 ], [ 11.252988, 45.050439 ], [ 11.25165, 45.048701 ], [ 11.250501, 45.046942 ], [ 11.249031, 45.045395 ], [ 11.247598, 45.04446 ], [ 11.245423, 45.043729 ], [ 11.243039, 45.043155 ], [ 11.240441, 45.042954 ], [ 11.238533, 45.043207 ], [ 11.229809, 45.047798 ], [ 11.224662, 45.050914 ], [ 11.216389, 45.055684 ], [ 11.214905, 45.056388 ], [ 11.212191, 45.057484 ], [ 11.21001, 45.057905 ], [ 11.206947, 45.05845 ], [ 11.201449, 45.060204 ], [ 11.200968, 45.06024 ], [ 11.197422, 45.060497 ], [ 11.19338, 45.060773 ], [ 11.191492, 45.060872 ], [ 11.181128, 45.061233 ], [ 11.178564, 45.060931 ], [ 11.176414, 45.060495 ], [ 11.17528, 45.060066 ], [ 11.174295, 45.061561 ], [ 11.173749, 45.06727 ], [ 11.173546, 45.071288 ], [ 11.173572, 45.071648 ], [ 11.174342, 45.073848 ], [ 11.174646, 45.07449 ], [ 11.175487, 45.074888 ], [ 11.177029, 45.075363 ], [ 11.178173, 45.076043 ], [ 11.180774, 45.077632 ], [ 11.18272, 45.079017 ], [ 11.187326, 45.082511 ], [ 11.18822, 45.083304 ], [ 11.188368, 45.084085 ], [ 11.187959, 45.085776 ], [ 11.187775, 45.086284 ], [ 11.187454, 45.086533 ], [ 11.182882, 45.087926 ], [ 11.181783, 45.088118 ], [ 11.18085, 45.087955 ], [ 11.180027, 45.08771 ], [ 11.179309, 45.087553 ], [ 11.178122, 45.087746 ], [ 11.177309, 45.088077 ], [ 11.176816, 45.088491 ], [ 11.176718, 45.089258 ], [ 11.176698, 45.092076 ], [ 11.177055, 45.095112 ], [ 11.177396, 45.096793 ], [ 11.177509, 45.097345 ], [ 11.188408, 45.10152 ], [ 11.205478, 45.109491 ], [ 11.203434, 45.111667 ], [ 11.192841, 45.110243 ], [ 11.189225, 45.109773 ], [ 11.188193, 45.109694 ], [ 11.187589, 45.109876 ], [ 11.180849, 45.113129 ], [ 11.173054, 45.116086 ], [ 11.171251, 45.11648 ], [ 11.16933, 45.116796 ], [ 11.166802, 45.117177 ], [ 11.164549, 45.117454 ], [ 11.162551, 45.117726 ], [ 11.160895, 45.117973 ], [ 11.159237, 45.118535 ], [ 11.148782, 45.124836 ], [ 11.147648, 45.125801 ], [ 11.146437, 45.126068 ], [ 11.145876, 45.126007 ], [ 11.138738, 45.123863 ], [ 11.134414, 45.116689 ], [ 11.134194, 45.115901 ], [ 11.133935, 45.114411 ], [ 11.133893, 45.113962 ], [ 11.133927, 45.113169 ], [ 11.134072, 45.112293 ], [ 11.134474, 45.111134 ], [ 11.134756, 45.110516 ], [ 11.134821, 45.109858 ], [ 11.134386, 45.109101 ], [ 11.132076, 45.105102 ], [ 11.131764, 45.104919 ], [ 11.127405, 45.103227 ], [ 11.126604, 45.103224 ], [ 11.115518, 45.104546 ], [ 11.114362, 45.104919 ], [ 11.105401, 45.109054 ], [ 11.10354, 45.111681 ], [ 11.102553, 45.11286 ], [ 11.102144, 45.113138 ], [ 11.100991, 45.112907 ], [ 11.100565, 45.112735 ], [ 11.100148, 45.112455 ], [ 11.097064, 45.109469 ], [ 11.096478, 45.108741 ], [ 11.094893, 45.10607 ], [ 11.093905, 45.099904 ], [ 11.095402, 45.097752 ], [ 11.097573, 45.095247 ], [ 11.093597, 45.096003 ], [ 11.08827, 45.097685 ], [ 11.087591, 45.098255 ], [ 11.086836, 45.0988 ], [ 11.083297, 45.099702 ], [ 11.078789, 45.099451 ], [ 11.072942, 45.098749 ], [ 11.050842, 45.109428 ], [ 11.049967, 45.110216 ], [ 11.049014, 45.110935 ], [ 11.047771, 45.111372 ], [ 11.046223, 45.111435 ], [ 11.044203, 45.111481 ], [ 11.042698, 45.111688 ], [ 11.039711, 45.113127 ], [ 11.033815, 45.117517 ], [ 11.030725, 45.120714 ], [ 11.028697, 45.123045 ], [ 11.028471, 45.124202 ], [ 11.028395, 45.126732 ], [ 11.028931, 45.127875 ], [ 11.029295, 45.128033 ], [ 11.03161, 45.128768 ], [ 11.035889, 45.130335 ], [ 11.041619, 45.132562 ], [ 11.043848, 45.134279 ], [ 11.043845, 45.134567 ], [ 11.042894, 45.137492 ], [ 11.041509, 45.140388 ], [ 11.042225, 45.143697 ], [ 11.042285, 45.143948 ], [ 11.044503, 45.145502 ], [ 11.04737, 45.147404 ], [ 11.050475, 45.149571 ], [ 11.050147, 45.149991 ], [ 11.049459, 45.150688 ], [ 11.046634, 45.153142 ], [ 11.046005, 45.153 ], [ 11.035572, 45.150107 ], [ 11.032281, 45.149852 ], [ 11.032157, 45.153148 ], [ 11.032096, 45.153591 ], [ 11.029528, 45.158659 ], [ 11.028729, 45.159078 ], [ 11.028365, 45.159238 ], [ 11.028044, 45.159136 ], [ 11.026099, 45.158468 ], [ 11.023174, 45.157431 ], [ 11.021986, 45.156939 ], [ 11.02126, 45.156564 ], [ 11.021635, 45.155658 ], [ 11.017188, 45.152559 ], [ 11.013647, 45.150281 ], [ 11.012298, 45.149521 ], [ 11.011041, 45.148877 ], [ 11.010245, 45.148657 ], [ 10.994517, 45.150356 ], [ 10.99436, 45.150583 ], [ 10.992689, 45.153008 ], [ 10.993416, 45.153075 ], [ 10.994185, 45.153242 ], [ 10.994982, 45.153471 ], [ 10.995372, 45.154067 ], [ 10.99739, 45.15721 ], [ 10.997731, 45.157852 ], [ 10.998012, 45.158621 ], [ 10.998881, 45.165267 ], [ 10.998878, 45.165933 ], [ 10.998557, 45.167561 ], [ 10.998421, 45.168147 ], [ 10.99831, 45.16859 ], [ 10.993432, 45.180134 ], [ 10.993958, 45.183905 ], [ 10.99477, 45.183846 ], [ 10.996858, 45.184206 ], [ 10.997221, 45.184388 ], [ 10.997739, 45.184658 ], [ 10.998086, 45.185018 ], [ 10.998122, 45.185057 ], [ 10.998081, 45.185346 ], [ 10.997809, 45.185935 ], [ 10.997119, 45.186938 ], [ 10.995819, 45.188716 ], [ 10.990387, 45.196111 ], [ 10.988181, 45.197473 ], [ 10.98411, 45.199785 ], [ 10.980711, 45.199421 ], [ 10.9797, 45.199258 ], [ 10.978744, 45.19923 ], [ 10.977441, 45.199486 ], [ 10.976356, 45.199775 ], [ 10.971869, 45.201833 ], [ 10.963576, 45.205397 ], [ 10.957869, 45.20608 ], [ 10.946957, 45.205737 ], [ 10.947085, 45.206129 ], [ 10.94696, 45.206563 ], [ 10.945403, 45.209083 ], [ 10.943441, 45.211277 ], [ 10.939585, 45.213611 ], [ 10.938528, 45.213998 ], [ 10.936108, 45.213969 ], [ 10.934982, 45.214202 ], [ 10.93073, 45.21801 ], [ 10.930531, 45.220021 ], [ 10.930753, 45.226219 ], [ 10.936054, 45.231907 ], [ 10.93679, 45.232938 ], [ 10.927751, 45.233876 ], [ 10.917793, 45.235142 ], [ 10.903465, 45.237191 ], [ 10.902382, 45.237421 ], [ 10.902086, 45.237484 ], [ 10.901475, 45.237872 ], [ 10.901315, 45.238415 ], [ 10.899658, 45.245671 ], [ 10.899662, 45.246922 ], [ 10.896826, 45.24706 ], [ 10.889038, 45.248573 ], [ 10.886094, 45.247777 ], [ 10.88191, 45.246874 ], [ 10.87955, 45.247975 ], [ 10.874001, 45.252432 ], [ 10.861503, 45.254896 ], [ 10.846608, 45.256569 ], [ 10.83998, 45.266415 ], [ 10.839879, 45.266776 ], [ 10.839797, 45.267066 ], [ 10.839768, 45.267733 ], [ 10.839767, 45.268498 ], [ 10.840011, 45.272894 ], [ 10.835599, 45.274029 ], [ 10.835037, 45.274398 ], [ 10.833826, 45.275588 ], [ 10.833309, 45.276163 ], [ 10.829954, 45.280484 ], [ 10.829387, 45.28187 ], [ 10.827022, 45.283879 ], [ 10.823857, 45.284767 ], [ 10.816874, 45.289307 ], [ 10.816563, 45.289942 ], [ 10.816265, 45.291018 ], [ 10.816054, 45.291994 ], [ 10.816316, 45.293394 ], [ 10.816491, 45.294084 ], [ 10.794809, 45.30777 ], [ 10.782815, 45.315422 ], [ 10.748583, 45.294176 ], [ 10.737416, 45.287245 ], [ 10.728348, 45.291301 ], [ 10.72827, 45.291734 ], [ 10.728412, 45.293917 ], [ 10.728874, 45.296133 ], [ 10.729738, 45.298514 ], [ 10.730479, 45.299623 ], [ 10.731114, 45.300573 ], [ 10.731958, 45.301892 ], [ 10.732438, 45.30301 ], [ 10.732766, 45.304139 ], [ 10.733099, 45.305448 ], [ 10.73296, 45.306738 ], [ 10.731372, 45.313639 ], [ 10.730482, 45.315858 ], [ 10.72707, 45.317782 ], [ 10.726124, 45.318111 ], [ 10.724705, 45.318465 ], [ 10.723016, 45.318707 ], [ 10.721961, 45.318831 ], [ 10.721282, 45.31876 ], [ 10.720649, 45.318077 ], [ 10.719891, 45.317476 ], [ 10.718499, 45.31702 ], [ 10.716382, 45.316611 ], [ 10.711043, 45.315989 ], [ 10.70947, 45.315859 ], [ 10.708131, 45.315897 ], [ 10.707064, 45.316048 ], [ 10.706383, 45.316301 ], [ 10.707882, 45.318637 ], [ 10.708799, 45.319857 ], [ 10.709479, 45.320423 ], [ 10.710598, 45.321144 ], [ 10.711508, 45.321688 ], [ 10.71196, 45.322082 ], [ 10.71232, 45.322396 ], [ 10.713176, 45.323689 ], [ 10.714542, 45.327539 ], [ 10.714942, 45.328937 ], [ 10.715502, 45.332268 ], [ 10.715435, 45.332593 ], [ 10.714971, 45.334076 ], [ 10.703076, 45.341357 ], [ 10.702015, 45.341152 ], [ 10.700688, 45.34087 ], [ 10.700145, 45.340653 ], [ 10.699786, 45.340163 ], [ 10.699287, 45.339694 ], [ 10.698687, 45.339694 ], [ 10.695473, 45.340218 ], [ 10.692924, 45.340742 ], [ 10.687735, 45.341827 ], [ 10.686763, 45.342175 ], [ 10.685544, 45.353684 ], [ 10.68888, 45.353715 ], [ 10.690146, 45.353777 ], [ 10.691839, 45.35404 ], [ 10.703649, 45.35832 ], [ 10.714041, 45.367157 ], [ 10.714626, 45.367931 ], [ 10.71466, 45.368219 ], [ 10.713863, 45.368465 ], [ 10.712657, 45.368681 ], [ 10.711077, 45.368804 ], [ 10.709927, 45.368794 ], [ 10.708669, 45.368975 ], [ 10.707452, 45.369281 ], [ 10.706388, 45.369999 ], [ 10.699768, 45.374931 ], [ 10.699453, 45.375512 ], [ 10.697738, 45.380092 ], [ 10.698575, 45.380323 ], [ 10.707925, 45.385008 ], [ 10.716842, 45.395568 ], [ 10.71763, 45.39669 ], [ 10.718012, 45.397486 ], [ 10.718805, 45.399211 ], [ 10.719095, 45.399936 ], [ 10.719221, 45.400303 ], [ 10.717589, 45.400833 ], [ 10.718051, 45.401734 ], [ 10.718581, 45.40277 ], [ 10.71929, 45.404235 ], [ 10.719441, 45.404611 ], [ 10.719506, 45.40506 ], [ 10.719445, 45.405565 ], [ 10.719367, 45.405962 ], [ 10.716135, 45.416101 ], [ 10.715793, 45.416638 ], [ 10.714544, 45.417582 ], [ 10.712515, 45.41855 ], [ 10.69861, 45.422817 ], [ 10.698139, 45.422896 ], [ 10.697953, 45.422665 ], [ 10.697979, 45.421828 ], [ 10.698034, 45.42153 ], [ 10.69806, 45.421106 ], [ 10.697687, 45.421049 ], [ 10.668689, 45.426359 ], [ 10.665233, 45.427716 ], [ 10.654626, 45.415823 ], [ 10.653853, 45.415837 ], [ 10.643865, 45.417817 ], [ 10.643551, 45.417993 ], [ 10.643588, 45.41848 ], [ 10.643607, 45.418739 ], [ 10.64366, 45.419125 ], [ 10.644004, 45.419949 ], [ 10.644808, 45.420351 ], [ 10.646067, 45.421035 ], [ 10.646588, 45.421369 ], [ 10.650735, 45.425936 ], [ 10.651171, 45.426848 ], [ 10.651547, 45.427905 ], [ 10.649455, 45.440789 ], [ 10.642111, 45.443703 ], [ 10.640276, 45.443495 ], [ 10.636877, 45.442698 ], [ 10.635406, 45.442215 ], [ 10.62821, 45.439653 ], [ 10.627252, 45.438272 ], [ 10.623646, 45.443616 ], [ 10.627022, 45.44286 ], [ 10.643409, 45.444377 ], [ 10.644135, 45.444546 ], [ 10.644311, 45.444682 ], [ 10.647737, 45.448537 ], [ 10.647616, 45.451401 ], [ 10.646168, 45.452637 ], [ 10.643011, 45.457311 ], [ 10.642849, 45.462613 ], [ 10.641571, 45.472074 ], [ 10.640761, 45.479178 ], [ 10.640311, 45.483704 ], [ 10.638614, 45.500767 ], [ 10.637911, 45.508338 ], [ 10.637614, 45.511483 ], [ 10.636735, 45.520902 ], [ 10.63538, 45.535431 ], [ 10.632285, 45.568455 ], [ 10.631709, 45.574107 ], [ 10.630935, 45.581607 ], [ 10.629275, 45.595393 ], [ 10.628468, 45.602057 ], [ 10.631043, 45.609509 ], [ 10.681405, 45.654722 ], [ 10.689486, 45.661783 ], [ 10.695966, 45.667425 ], [ 10.702007, 45.672735 ], [ 10.705606, 45.676412 ], [ 10.712251, 45.683775 ], [ 10.718776, 45.691354 ], [ 10.727533, 45.701119 ], [ 10.729282, 45.703032 ], [ 10.735479, 45.709842 ], [ 10.748312, 45.7242 ], [ 10.763134, 45.740696 ], [ 10.771986, 45.750779 ], [ 10.784063, 45.766149 ], [ 10.792451, 45.777107 ], [ 10.80241, 45.789551 ], [ 10.80525, 45.793044 ], [ 10.80812, 45.796562 ], [ 10.808744, 45.797324 ], [ 10.809591, 45.798357 ], [ 10.814781, 45.804044 ], [ 10.816268, 45.805038 ], [ 10.81932, 45.807068 ], [ 10.824996, 45.810254 ], [ 10.826602, 45.81093 ], [ 10.827, 45.811104 ], [ 10.830262, 45.813428 ], [ 10.832468, 45.815571 ], [ 10.833513, 45.816796 ], [ 10.83455, 45.818193 ], [ 10.838334, 45.827583 ], [ 10.84015, 45.832756 ], [ 10.841273, 45.832377 ], [ 10.856108, 45.827392 ], [ 10.858967, 45.826345 ], [ 10.870062, 45.822135 ], [ 10.883404, 45.816972 ], [ 10.883347, 45.816472 ], [ 10.882511, 45.815137 ], [ 10.884736, 45.814468 ], [ 10.885821, 45.813694 ], [ 10.886653, 45.812924 ], [ 10.88726, 45.812239 ], [ 10.887586, 45.811648 ], [ 10.88757, 45.811164 ], [ 10.886697, 45.810036 ], [ 10.885488, 45.809146 ], [ 10.881073, 45.806167 ], [ 10.880896, 45.806136 ], [ 10.880003, 45.805687 ], [ 10.876761, 45.803324 ], [ 10.876689, 45.803229 ], [ 10.874117, 45.795546 ], [ 10.873191, 45.791541 ], [ 10.873006, 45.790539 ], [ 10.872797, 45.788562 ], [ 10.881913, 45.780865 ], [ 10.883413, 45.779756 ], [ 10.883825, 45.77934 ], [ 10.884777, 45.778238 ], [ 10.885394, 45.775571 ], [ 10.884976, 45.774655 ], [ 10.884444, 45.773732 ], [ 10.884109, 45.773234 ], [ 10.883789, 45.772812 ], [ 10.883007, 45.772023 ], [ 10.882724, 45.771941 ], [ 10.882284, 45.771945 ], [ 10.881535, 45.772042 ], [ 10.880857, 45.772153 ], [ 10.875766, 45.770098 ], [ 10.86761, 45.765021 ], [ 10.867228, 45.764612 ], [ 10.866937, 45.76424 ], [ 10.865244, 45.761301 ], [ 10.865094, 45.759698 ], [ 10.864868, 45.754894 ], [ 10.86373, 45.749093 ], [ 10.862627, 45.743661 ], [ 10.858598, 45.743871 ], [ 10.858261, 45.743795 ], [ 10.855692, 45.742392 ], [ 10.855259, 45.74209 ], [ 10.855029, 45.741855 ], [ 10.84993, 45.735782 ], [ 10.844402, 45.724884 ], [ 10.84327, 45.720588 ], [ 10.843832, 45.718593 ], [ 10.848192, 45.717943 ], [ 10.855492, 45.717892 ], [ 10.857295, 45.717862 ], [ 10.858026, 45.71781 ], [ 10.858257, 45.717793 ], [ 10.860182, 45.717591 ], [ 10.862031, 45.717381 ], [ 10.872507, 45.71579 ], [ 10.881472, 45.717277 ], [ 10.882975, 45.716898 ], [ 10.885546, 45.716238 ], [ 10.888895, 45.715274 ], [ 10.889579, 45.715075 ], [ 10.904597, 45.707719 ], [ 10.918782, 45.700554 ], [ 10.913557, 45.692087 ], [ 10.911998, 45.688315 ], [ 10.917967, 45.683716 ], [ 10.930368, 45.677727 ], [ 10.933897, 45.675813 ], [ 10.93746, 45.673416 ], [ 10.940309, 45.673174 ], [ 10.941961, 45.673094 ], [ 10.942901, 45.673063 ], [ 10.942989, 45.673117 ], [ 10.944497, 45.674065 ], [ 10.945432, 45.675688 ], [ 10.945535, 45.675871 ], [ 10.946044, 45.678213 ], [ 10.946144, 45.67871 ], [ 10.946123, 45.679192 ], [ 10.951327, 45.684499 ], [ 10.961998, 45.685683 ], [ 10.965146, 45.691975 ], [ 10.965335, 45.692327 ], [ 10.96566, 45.692898 ], [ 10.965923, 45.693272 ], [ 10.9722, 45.701817 ], [ 10.972509, 45.701403 ], [ 10.974777, 45.696708 ], [ 10.974831, 45.696565 ], [ 10.974957, 45.696105 ], [ 10.974938, 45.695969 ], [ 10.974921, 45.695863 ], [ 10.974799, 45.695572 ], [ 10.974159, 45.694691 ], [ 10.972542, 45.692465 ], [ 10.970363, 45.689317 ], [ 10.970088, 45.688856 ], [ 10.969383, 45.687433 ], [ 10.968431, 45.6847 ], [ 10.96832, 45.680121 ], [ 10.975389, 45.684167 ], [ 10.979142, 45.685685 ], [ 10.986336, 45.688807 ], [ 10.997632, 45.697027 ], [ 10.998011, 45.69908 ], [ 10.997896, 45.700683 ], [ 10.9978, 45.701949 ], [ 10.997717, 45.702774 ], [ 10.998977, 45.707608 ], [ 11.001522, 45.708347 ], [ 11.007558, 45.710422 ], [ 11.01057, 45.713212 ], [ 11.011081, 45.71376 ], [ 11.011442, 45.714208 ], [ 11.011765, 45.714638 ], [ 11.011904, 45.714893 ], [ 11.011858, 45.71564 ], [ 11.011705, 45.716421 ], [ 11.011579, 45.717589 ], [ 11.011467, 45.718945 ], [ 11.016575, 45.719424 ], [ 11.017022, 45.71946 ], [ 11.01715, 45.719347 ], [ 11.017377, 45.718923 ], [ 11.017566, 45.718339 ], [ 11.017526, 45.717916 ], [ 11.01736, 45.717115 ], [ 11.01719, 45.716501 ], [ 11.01664, 45.714549 ], [ 11.01521, 45.711 ], [ 11.016466, 45.705727 ], [ 11.017184, 45.706162 ], [ 11.01764, 45.706325 ], [ 11.017885, 45.706362 ], [ 11.022113, 45.705531 ], [ 11.02548, 45.704814 ], [ 11.026196, 45.704717 ], [ 11.027196, 45.704689 ], [ 11.027666, 45.704723 ], [ 11.041377, 45.706319 ], [ 11.052074, 45.715933 ], [ 11.052758, 45.716567 ], [ 11.055942, 45.718334 ], [ 11.056145, 45.718422 ], [ 11.056408, 45.71847 ], [ 11.056678, 45.718393 ], [ 11.057554, 45.717738 ], [ 11.057727, 45.717599 ], [ 11.057979, 45.717243 ], [ 11.058088, 45.716748 ], [ 11.058407, 45.71598 ], [ 11.058957, 45.714963 ], [ 11.059163, 45.714587 ], [ 11.059507, 45.714189 ], [ 11.064974, 45.708835 ], [ 11.065452, 45.708486 ], [ 11.07085, 45.705915 ], [ 11.072386, 45.703834 ], [ 11.073836, 45.703059 ], [ 11.092399, 45.695151 ], [ 11.100158, 45.695016 ], [ 11.101687, 45.695922 ], [ 11.101867, 45.695958 ], [ 11.103193, 45.695961 ], [ 11.107153, 45.695722 ], [ 11.107569, 45.69567 ], [ 11.108643, 45.69496 ], [ 11.113145, 45.696525 ], [ 11.113744, 45.696722 ], [ 11.114092, 45.696749 ], [ 11.114338, 45.696719 ], [ 11.120717, 45.695665 ], [ 11.121396, 45.695545 ], [ 11.122501, 45.695189 ], [ 11.123379, 45.693823 ], [ 11.123534, 45.69294 ], [ 11.123195, 45.690966 ], [ 11.123055, 45.690162 ], [ 11.123, 45.689939 ], [ 11.122889, 45.689815 ], [ 11.122607, 45.689688 ], [ 11.122472, 45.689583 ], [ 11.122501, 45.689219 ], [ 11.12256, 45.689093 ], [ 11.123327, 45.689375 ], [ 11.123941, 45.689628 ], [ 11.128498, 45.6916 ], [ 11.133392, 45.693893 ], [ 11.135634, 45.695432 ], [ 11.13851, 45.696848 ], [ 11.138259, 45.697084 ], [ 11.135993, 45.699088 ], [ 11.135877, 45.699352 ], [ 11.13585, 45.699581 ], [ 11.135902, 45.700031 ], [ 11.136155, 45.701016 ], [ 11.136837, 45.703572 ], [ 11.136992, 45.7041 ], [ 11.138662, 45.709316 ], [ 11.13875, 45.709441 ], [ 11.139209, 45.709834 ], [ 11.141539, 45.711643 ], [ 11.142132, 45.7121 ], [ 11.142815, 45.712355 ], [ 11.143617, 45.7126 ], [ 11.144114, 45.712901 ], [ 11.14438, 45.713103 ], [ 11.145723, 45.714901 ], [ 11.145796, 45.715377 ], [ 11.145903, 45.716945 ], [ 11.149499, 45.717396 ], [ 11.152295, 45.718076 ], [ 11.153188, 45.718316 ], [ 11.172901, 45.731762 ], [ 11.173761, 45.732165 ], [ 11.174164, 45.732526 ], [ 11.174535, 45.732961 ], [ 11.174652, 45.733107 ], [ 11.17843, 45.738066 ], [ 11.17713, 45.744721 ], [ 11.177059, 45.74505 ], [ 11.176109, 45.74721 ], [ 11.175103, 45.74876 ], [ 11.175061, 45.74909 ], [ 11.17774, 45.756733 ], [ 11.179356, 45.7606 ], [ 11.180241, 45.761853 ], [ 11.18045, 45.762362 ], [ 11.180656, 45.762907 ], [ 11.180599, 45.765681 ], [ 11.180586, 45.765796 ], [ 11.179779, 45.772855 ], [ 11.179061, 45.775219 ], [ 11.178324, 45.777145 ], [ 11.176849, 45.780661 ], [ 11.17518, 45.782831 ], [ 11.173567, 45.786521 ], [ 11.173549, 45.786671 ], [ 11.173664, 45.786796 ], [ 11.173809, 45.786938 ], [ 11.173966, 45.787081 ], [ 11.175673, 45.787891 ], [ 11.175936, 45.787968 ], [ 11.176794, 45.788173 ], [ 11.177029, 45.788205 ], [ 11.178131, 45.788142 ], [ 11.178384, 45.788115 ], [ 11.179384, 45.787718 ], [ 11.190071, 45.781615 ], [ 11.202788, 45.783373 ], [ 11.195861, 45.790244 ], [ 11.195429, 45.790859 ], [ 11.194888, 45.791676 ], [ 11.193724, 45.793479 ], [ 11.19351, 45.793851 ], [ 11.193307, 45.794325 ], [ 11.193061, 45.794945 ], [ 11.189602, 45.804354 ], [ 11.189452, 45.804889 ], [ 11.188499, 45.811863 ], [ 11.188673, 45.813109 ], [ 11.188821, 45.813573 ], [ 11.189142, 45.814039 ], [ 11.191088, 45.816746 ], [ 11.191586, 45.817061 ], [ 11.191821, 45.817198 ], [ 11.192209, 45.817303 ], [ 11.197621, 45.821292 ], [ 11.198665, 45.824189 ], [ 11.203132, 45.827093 ], [ 11.208061, 45.828554 ], [ 11.212842, 45.830046 ], [ 11.214866, 45.830691 ], [ 11.21907, 45.832716 ], [ 11.21904, 45.832898 ], [ 11.21843, 45.835247 ], [ 11.218387, 45.835683 ], [ 11.218282, 45.841457 ], [ 11.218454, 45.843962 ], [ 11.219159, 45.84549 ], [ 11.219699, 45.846406 ], [ 11.220176, 45.847179 ], [ 11.220524, 45.847739 ], [ 11.220861, 45.848103 ], [ 11.221861, 45.84896 ], [ 11.222722, 45.848917 ], [ 11.223817, 45.84894 ], [ 11.22664, 45.849002 ], [ 11.228164, 45.849747 ], [ 11.239324, 45.855982 ], [ 11.244364, 45.876946 ], [ 11.241482, 45.87579 ], [ 11.240865, 45.875588 ], [ 11.240651, 45.875551 ], [ 11.240354, 45.875669 ], [ 11.234966, 45.878119 ], [ 11.23485, 45.878208 ], [ 11.23485, 45.879657 ], [ 11.23494, 45.879733 ], [ 11.246441, 45.886439 ], [ 11.246818, 45.886262 ], [ 11.247923, 45.88571 ], [ 11.249741, 45.884822 ], [ 11.250448, 45.884494 ], [ 11.251698, 45.884311 ], [ 11.253062, 45.884131 ], [ 11.253756, 45.884059 ], [ 11.254395, 45.884011 ], [ 11.255081, 45.884007 ], [ 11.254852, 45.888633 ], [ 11.254795, 45.889726 ], [ 11.254764, 45.890235 ], [ 11.254706, 45.890745 ], [ 11.254635, 45.891237 ], [ 11.254081, 45.892081 ], [ 11.253447, 45.89298 ], [ 11.251121, 45.896123 ], [ 11.249366, 45.898471 ], [ 11.248894, 45.899176 ], [ 11.248972, 45.899251 ], [ 11.249713, 45.899656 ], [ 11.251709, 45.900625 ], [ 11.254544, 45.90195 ], [ 11.255739, 45.902477 ], [ 11.256375, 45.902725 ], [ 11.256965, 45.902907 ], [ 11.260439, 45.909206 ], [ 11.261236, 45.918248 ], [ 11.258323, 45.920678 ], [ 11.269939, 45.916608 ], [ 11.271101, 45.916974 ], [ 11.27088, 45.917422 ], [ 11.270771, 45.91787 ], [ 11.270658, 45.918345 ], [ 11.27064, 45.918625 ], [ 11.270703, 45.918831 ], [ 11.270812, 45.919115 ], [ 11.271041, 45.919253 ], [ 11.271741, 45.91935 ], [ 11.273837, 45.919578 ], [ 11.274464, 45.919646 ], [ 11.275296, 45.919691 ], [ 11.281701, 45.918586 ], [ 11.283706, 45.917471 ], [ 11.30067, 45.917899 ], [ 11.300796, 45.917904 ], [ 11.302888, 45.918022 ], [ 11.303776, 45.918237 ], [ 11.303429, 45.919453 ], [ 11.301822, 45.924689 ], [ 11.304599, 45.926833 ], [ 11.313024, 45.929823 ], [ 11.312394, 45.928017 ], [ 11.313753, 45.926192 ], [ 11.31581, 45.923451 ], [ 11.318228, 45.92128 ], [ 11.324167, 45.917518 ], [ 11.324349, 45.917416 ], [ 11.339684, 45.911335 ], [ 11.345541, 45.909103 ], [ 11.346108, 45.90909 ], [ 11.346817, 45.909178 ], [ 11.349315, 45.909531 ], [ 11.350203, 45.910783 ], [ 11.350223, 45.9109 ], [ 11.350688, 45.913968 ], [ 11.350085, 45.914501 ], [ 11.349465, 45.915068 ], [ 11.348974, 45.915573 ], [ 11.348544, 45.916036 ], [ 11.347961, 45.916719 ], [ 11.346871, 45.918101 ], [ 11.346515, 45.918566 ], [ 11.346283, 45.918883 ], [ 11.345932, 45.919435 ], [ 11.345035, 45.920944 ], [ 11.345478, 45.921119 ], [ 11.347999, 45.922046 ], [ 11.352943, 45.923782 ], [ 11.353591, 45.923993 ], [ 11.358057, 45.925295 ], [ 11.357835, 45.929077 ], [ 11.360592, 45.934438 ], [ 11.360653, 45.934568 ], [ 11.360667, 45.934769 ], [ 11.360644, 45.935058 ], [ 11.360141, 45.938089 ], [ 11.358296, 45.943663 ], [ 11.361568, 45.942977 ], [ 11.363442, 45.942592 ], [ 11.364268, 45.942434 ], [ 11.365213, 45.9423 ], [ 11.3662, 45.942216 ], [ 11.367177, 45.942155 ], [ 11.367854, 45.942149 ], [ 11.369753, 45.942146 ], [ 11.37045, 45.942158 ], [ 11.380749, 45.942674 ], [ 11.382359, 45.947861 ], [ 11.383307, 45.951031 ], [ 11.379558, 45.954682 ], [ 11.378295, 45.95597 ], [ 11.378087, 45.956365 ], [ 11.376109, 45.960911 ], [ 11.372396, 45.973169 ], [ 11.372617, 45.97605 ], [ 11.37325, 45.982373 ], [ 11.37329, 45.982743 ], [ 11.373376, 45.983214 ], [ 11.37374, 45.983503 ], [ 11.374012, 45.983595 ], [ 11.374356, 45.98367 ], [ 11.377127, 45.984215 ], [ 11.37746, 45.984274 ], [ 11.37792, 45.984271 ], [ 11.37819, 45.984247 ], [ 11.392748, 45.980955 ], [ 11.393459, 45.980701 ], [ 11.393771, 45.980596 ], [ 11.394151, 45.980557 ], [ 11.40015, 45.980102 ], [ 11.422414, 45.980177 ], [ 11.446782, 45.980893 ], [ 11.453821, 45.984383 ], [ 11.4544, 45.984807 ], [ 11.462025, 45.991314 ], [ 11.464133, 45.994054 ], [ 11.468045, 45.997556 ], [ 11.483483, 46.000673 ], [ 11.483759, 46.001122 ], [ 11.485239, 46.003421 ], [ 11.488479, 46.006757 ], [ 11.488622, 46.006901 ], [ 11.48905, 46.007295 ], [ 11.489681, 46.007824 ], [ 11.491201, 46.00855 ], [ 11.510704, 46.011999 ], [ 11.511347, 46.010653 ], [ 11.512737, 46.010271 ], [ 11.517209, 46.009183 ], [ 11.533166, 46.011818 ], [ 11.53793, 46.012891 ], [ 11.538911, 46.013304 ], [ 11.544522, 46.011758 ], [ 11.552412, 46.011768 ], [ 11.560124, 46.008661 ], [ 11.562764, 46.007355 ], [ 11.566799, 46.005803 ], [ 11.567002, 46.005744 ], [ 11.568191, 46.005811 ], [ 11.56943, 46.00588 ], [ 11.572168, 46.007022 ], [ 11.57723, 46.00652 ], [ 11.579827, 46.000765 ], [ 11.581989, 45.99257 ], [ 11.584162, 45.983494 ], [ 11.584186, 45.983394 ], [ 11.586665, 45.972911 ], [ 11.587592, 45.968997 ], [ 11.591745, 45.969479 ], [ 11.594245, 45.971321 ], [ 11.597868, 45.972067 ], [ 11.60909, 45.969417 ], [ 11.618654, 45.971583 ], [ 11.619295, 45.971576 ], [ 11.620924, 45.971556 ], [ 11.630679, 45.969379 ], [ 11.627608, 45.960641 ], [ 11.637262, 45.961677 ], [ 11.655913, 45.964692 ], [ 11.667952, 45.963836 ], [ 11.67323, 45.964351 ], [ 11.674413, 45.964801 ], [ 11.676085, 45.965743 ], [ 11.677719, 45.966703 ], [ 11.679523, 45.967705 ], [ 11.681746, 45.968571 ], [ 11.682666, 45.968918 ], [ 11.683306, 45.96905 ], [ 11.684525, 45.969199 ], [ 11.685804, 45.969286 ], [ 11.685964, 45.970339 ], [ 11.685768, 45.971087 ], [ 11.685572, 45.971501 ], [ 11.6838, 45.974216 ], [ 11.682315, 45.975891 ], [ 11.684284, 45.984078 ], [ 11.690005, 45.988807 ], [ 11.686059, 45.994608 ], [ 11.68585, 45.99472 ], [ 11.685667, 45.99482 ], [ 11.685296, 45.99512 ], [ 11.681673, 45.999112 ], [ 11.68118, 45.999682 ], [ 11.678538, 46.002864 ], [ 11.677471, 46.004783 ], [ 11.675104, 46.009197 ], [ 11.672579, 46.01275 ], [ 11.668737, 46.015594 ], [ 11.66665, 46.017099 ], [ 11.668662, 46.017602 ], [ 11.669175, 46.017709 ], [ 11.669798, 46.018045 ], [ 11.669971, 46.018152 ], [ 11.672086, 46.019542 ], [ 11.672414, 46.019773 ], [ 11.680591, 46.025566 ], [ 11.680765, 46.025707 ], [ 11.681191, 46.02608 ], [ 11.681869, 46.026691 ], [ 11.681885, 46.026947 ], [ 11.681916, 46.027445 ], [ 11.681931, 46.027945 ], [ 11.681866, 46.028416 ], [ 11.681603, 46.02847 ], [ 11.681283, 46.028417 ], [ 11.681097, 46.028386 ], [ 11.680626, 46.02826 ], [ 11.680145, 46.028184 ], [ 11.679872, 46.028204 ], [ 11.676139, 46.028566 ], [ 11.675854, 46.028631 ], [ 11.673448, 46.029286 ], [ 11.673038, 46.029489 ], [ 11.672578, 46.029851 ], [ 11.672276, 46.030127 ], [ 11.666609, 46.035346 ], [ 11.666236, 46.036069 ], [ 11.666249, 46.036318 ], [ 11.666686, 46.03779 ], [ 11.666754, 46.037947 ], [ 11.666902, 46.038062 ], [ 11.678832, 46.046045 ], [ 11.679547, 46.045972 ], [ 11.679744, 46.045929 ], [ 11.679871, 46.045884 ], [ 11.682859, 46.04448 ], [ 11.68334, 46.044242 ], [ 11.683597, 46.044161 ], [ 11.684541, 46.044143 ], [ 11.687312, 46.04414 ], [ 11.700649, 46.04451 ], [ 11.700874, 46.044518 ], [ 11.700955, 46.044527 ], [ 11.701176, 46.044551 ], [ 11.701614, 46.044604 ], [ 11.703499, 46.044834 ], [ 11.703789, 46.044889 ], [ 11.704268, 46.045018 ], [ 11.705468, 46.045363 ], [ 11.705927, 46.045511 ], [ 11.706076, 46.04556 ], [ 11.706265, 46.045735 ], [ 11.706441, 46.045993 ], [ 11.704334, 46.054558 ], [ 11.704183, 46.054799 ], [ 11.703888, 46.055128 ], [ 11.69235, 46.062275 ], [ 11.690089, 46.062699 ], [ 11.689914, 46.062813 ], [ 11.687691, 46.064288 ], [ 11.687587, 46.064433 ], [ 11.686498, 46.066003 ], [ 11.686389, 46.066259 ], [ 11.683497, 46.076282 ], [ 11.682912, 46.07904 ], [ 11.681995, 46.086933 ], [ 11.682346, 46.089987 ], [ 11.682438, 46.090242 ], [ 11.6832, 46.091475 ], [ 11.683885, 46.09227 ], [ 11.685289, 46.093569 ], [ 11.685629, 46.093737 ], [ 11.687852, 46.094668 ], [ 11.688068, 46.094754 ], [ 11.688159, 46.094789 ], [ 11.688595, 46.094856 ], [ 11.688783, 46.094874 ], [ 11.689096, 46.094903 ], [ 11.691682, 46.095042 ], [ 11.691852, 46.095024 ], [ 11.695097, 46.094457 ], [ 11.695392, 46.09432 ], [ 11.703456, 46.090494 ], [ 11.70453, 46.091851 ], [ 11.705622, 46.093065 ], [ 11.706799, 46.09434 ], [ 11.710283, 46.09792 ], [ 11.711468, 46.09912 ], [ 11.716789, 46.102937 ], [ 11.716925, 46.103023 ], [ 11.718023, 46.103329 ], [ 11.718315, 46.103319 ], [ 11.719756, 46.103163 ], [ 11.745784, 46.104336 ], [ 11.75077, 46.105137 ], [ 11.751621, 46.104258 ], [ 11.758692, 46.095601 ], [ 11.763763, 46.09788 ], [ 11.765433, 46.098677 ], [ 11.771821, 46.103508 ], [ 11.773192, 46.105824 ], [ 11.773249, 46.10605 ], [ 11.773256, 46.106085 ], [ 11.773222, 46.106692 ], [ 11.773527, 46.106275 ], [ 11.775052, 46.10438 ], [ 11.775488, 46.104121 ], [ 11.777158, 46.103177 ], [ 11.777705, 46.103055 ], [ 11.77981, 46.102738 ], [ 11.780099, 46.102699 ], [ 11.781718, 46.102697 ], [ 11.783563, 46.102726 ], [ 11.79399, 46.103122 ], [ 11.808215, 46.102383 ], [ 11.809961, 46.102032 ], [ 11.81367, 46.102266 ], [ 11.813942, 46.102323 ], [ 11.814691, 46.102924 ], [ 11.814846, 46.103441 ], [ 11.814955, 46.103911 ], [ 11.815129, 46.104415 ], [ 11.815449, 46.104907 ], [ 11.816086, 46.105787 ], [ 11.81636, 46.106085 ], [ 11.816458, 46.106191 ], [ 11.816871, 46.106576 ], [ 11.817787, 46.107215 ], [ 11.818956, 46.107788 ], [ 11.819682, 46.107963 ], [ 11.821084, 46.107954 ], [ 11.822551, 46.107891 ], [ 11.827009, 46.107408 ], [ 11.841533, 46.111189 ], [ 11.850186, 46.113009 ], [ 11.875804, 46.11767 ], [ 11.876321, 46.117734 ], [ 11.878018, 46.117883 ], [ 11.878382, 46.117871 ], [ 11.878818, 46.117833 ], [ 11.879517, 46.117729 ], [ 11.887569, 46.118695 ], [ 11.891765, 46.120475 ], [ 11.893415, 46.121147 ], [ 11.904744, 46.132996 ], [ 11.905583, 46.1345 ], [ 11.901243, 46.136629 ], [ 11.905185, 46.139432 ], [ 11.912847, 46.143345 ], [ 11.921767, 46.149341 ], [ 11.92151, 46.149799 ], [ 11.920584, 46.150875 ], [ 11.919825, 46.151712 ], [ 11.919706, 46.15199 ], [ 11.919247, 46.153079 ], [ 11.919107, 46.153411 ], [ 11.918323, 46.155271 ], [ 11.921856, 46.162293 ], [ 11.923977, 46.163536 ], [ 11.927241, 46.165784 ], [ 11.928333, 46.166571 ], [ 11.928776, 46.167909 ], [ 11.929072, 46.168928 ], [ 11.929332, 46.169867 ], [ 11.929557, 46.170815 ], [ 11.928626, 46.175801 ], [ 11.930909, 46.175564 ], [ 11.935621, 46.17507 ], [ 11.935891, 46.174913 ], [ 11.936621, 46.174436 ], [ 11.937255, 46.173881 ], [ 11.94004, 46.17302 ], [ 11.941968, 46.172444 ], [ 11.948348, 46.170551 ], [ 11.949477, 46.170343 ], [ 11.950903, 46.170268 ], [ 11.952076, 46.172591 ], [ 11.952129, 46.172701 ], [ 11.95172, 46.174177 ], [ 11.951414, 46.175238 ], [ 11.951124, 46.176123 ], [ 11.950778, 46.177135 ], [ 11.950475, 46.178106 ], [ 11.949796, 46.180356 ], [ 11.949471, 46.181625 ], [ 11.949635, 46.181768 ], [ 11.95001, 46.182094 ], [ 11.952315, 46.183115 ], [ 11.952762, 46.183251 ], [ 11.957357, 46.184121 ], [ 11.958042, 46.184199 ], [ 11.958384, 46.184257 ], [ 11.958589, 46.184321 ], [ 11.961072, 46.18644 ], [ 11.962269, 46.18786 ], [ 11.962332, 46.188011 ], [ 11.962645, 46.189803 ], [ 11.962654, 46.189952 ], [ 11.962679, 46.19054 ], [ 11.962599, 46.199661 ], [ 11.962497, 46.199759 ], [ 11.962359, 46.199799 ], [ 11.962261, 46.199826 ], [ 11.953996, 46.199386 ], [ 11.939555, 46.198773 ], [ 11.939359, 46.19882 ], [ 11.934153, 46.202234 ], [ 11.930171, 46.206468 ], [ 11.927767, 46.209047 ], [ 11.926944, 46.212023 ], [ 11.926366, 46.214414 ], [ 11.926158, 46.214864 ], [ 11.926033, 46.215088 ], [ 11.925646, 46.215678 ], [ 11.924551, 46.216841 ], [ 11.924239, 46.217169 ], [ 11.919401, 46.220828 ], [ 11.918579, 46.221113 ], [ 11.917201, 46.221251 ], [ 11.915654, 46.220986 ], [ 11.909569, 46.224428 ], [ 11.91238, 46.229037 ], [ 11.918131, 46.238376 ], [ 11.923341, 46.241583 ], [ 11.923766, 46.241953 ], [ 11.924815, 46.242952 ], [ 11.925281, 46.243496 ], [ 11.925734, 46.244082 ], [ 11.926195, 46.244697 ], [ 11.929099, 46.248833 ], [ 11.927917, 46.2486 ], [ 11.92455, 46.248105 ], [ 11.92284, 46.247887 ], [ 11.922225, 46.247821 ], [ 11.921616, 46.247829 ], [ 11.921335, 46.247899 ], [ 11.920837, 46.248113 ], [ 11.915893, 46.250509 ], [ 11.913642, 46.251928 ], [ 11.913261, 46.252172 ], [ 11.90031, 46.253703 ], [ 11.898016, 46.252215 ], [ 11.897441, 46.251877 ], [ 11.894747, 46.250936 ], [ 11.894314, 46.251053 ], [ 11.891987, 46.252629 ], [ 11.891228, 46.253165 ], [ 11.889511, 46.254833 ], [ 11.886262, 46.25819 ], [ 11.885688, 46.259166 ], [ 11.885468, 46.259583 ], [ 11.885232, 46.260094 ], [ 11.884942, 46.260734 ], [ 11.88486, 46.261485 ], [ 11.884914, 46.261623 ], [ 11.885036, 46.261935 ], [ 11.885308, 46.262476 ], [ 11.885637, 46.26294 ], [ 11.885996, 46.263287 ], [ 11.886373, 46.263543 ], [ 11.886802, 46.263816 ], [ 11.887199, 46.264076 ], [ 11.887347, 46.264415 ], [ 11.887483, 46.265179 ], [ 11.887595, 46.266055 ], [ 11.887886, 46.2685 ], [ 11.888359, 46.272512 ], [ 11.888292, 46.273639 ], [ 11.888038, 46.274242 ], [ 11.887703, 46.274907 ], [ 11.886544, 46.277043 ], [ 11.885248, 46.278809 ], [ 11.885195, 46.278825 ], [ 11.884917, 46.27889 ], [ 11.884156, 46.278905 ], [ 11.883579, 46.2789 ], [ 11.883001, 46.278843 ], [ 11.882252, 46.278745 ], [ 11.880167, 46.278279 ], [ 11.879461, 46.278069 ], [ 11.869222, 46.274997 ], [ 11.867947, 46.274506 ], [ 11.866851, 46.273822 ], [ 11.865793, 46.273143 ], [ 11.864828, 46.272437 ], [ 11.862904, 46.271325 ], [ 11.857266, 46.270622 ], [ 11.840272, 46.26995 ], [ 11.839691, 46.269933 ], [ 11.83883, 46.269993 ], [ 11.838022, 46.270348 ], [ 11.837638, 46.270722 ], [ 11.82685, 46.284009 ], [ 11.826261, 46.28497 ], [ 11.830083, 46.294212 ], [ 11.833528, 46.299124 ], [ 11.836768, 46.302668 ], [ 11.841446, 46.306341 ], [ 11.83678, 46.308185 ], [ 11.834378, 46.310206 ], [ 11.831662, 46.312938 ], [ 11.831373, 46.313377 ], [ 11.831657, 46.316619 ], [ 11.831879, 46.324948 ], [ 11.831851, 46.325147 ], [ 11.831294, 46.325555 ], [ 11.830198, 46.326357 ], [ 11.830022, 46.32647 ], [ 11.828481, 46.326814 ], [ 11.827671, 46.326987 ], [ 11.824122, 46.327687 ], [ 11.820355, 46.328473 ], [ 11.815575, 46.329743 ], [ 11.803705, 46.332897 ], [ 11.803127, 46.333108 ], [ 11.802812, 46.333225 ], [ 11.801915, 46.338044 ], [ 11.802343, 46.342867 ], [ 11.802117, 46.343025 ], [ 11.800418, 46.344102 ], [ 11.800252, 46.344151 ], [ 11.799983, 46.344229 ], [ 11.798238, 46.344677 ], [ 11.791368, 46.347068 ], [ 11.779498, 46.351636 ], [ 11.774379, 46.358242 ], [ 11.776878, 46.360409 ], [ 11.779586, 46.362543 ], [ 11.780249, 46.362932 ], [ 11.782872, 46.364318 ], [ 11.783326, 46.364523 ], [ 11.783727, 46.364685 ], [ 11.79181, 46.367727 ], [ 11.792173, 46.367818 ], [ 11.792522, 46.367847 ], [ 11.79359, 46.367858 ], [ 11.794278, 46.367851 ], [ 11.794475, 46.367841 ], [ 11.794711, 46.367818 ], [ 11.795071, 46.367736 ], [ 11.795878, 46.367443 ], [ 11.797294, 46.366772 ], [ 11.797733, 46.366529 ], [ 11.797963, 46.366321 ], [ 11.798187, 46.366107 ], [ 11.798512, 46.365781 ], [ 11.798816, 46.365576 ], [ 11.799397, 46.365194 ], [ 11.7997, 46.365027 ], [ 11.799945, 46.364972 ], [ 11.800327, 46.364948 ], [ 11.801719, 46.364914 ], [ 11.80209, 46.364915 ], [ 11.804011, 46.36498 ], [ 11.81367, 46.36755 ], [ 11.814177, 46.36775 ], [ 11.814456, 46.367868 ], [ 11.8148, 46.368053 ], [ 11.815089, 46.368214 ], [ 11.815386, 46.368426 ], [ 11.815783, 46.368759 ], [ 11.816026, 46.369213 ], [ 11.815517, 46.370213 ], [ 11.81509, 46.371027 ], [ 11.814945, 46.371241 ], [ 11.8148, 46.371577 ], [ 11.814722, 46.371782 ], [ 11.814916, 46.372801 ], [ 11.815162, 46.373297 ], [ 11.815425, 46.373786 ], [ 11.815935, 46.374606 ], [ 11.816122, 46.374829 ], [ 11.816428, 46.37512 ], [ 11.816881, 46.375512 ], [ 11.817085, 46.375679 ], [ 11.817774, 46.376039 ], [ 11.818265, 46.376182 ], [ 11.818345, 46.376202 ], [ 11.818692, 46.376286 ], [ 11.819124, 46.376389 ], [ 11.820173, 46.376621 ], [ 11.825183, 46.371254 ], [ 11.830892, 46.366932 ], [ 11.832505, 46.366355 ], [ 11.833226, 46.366158 ], [ 11.83356, 46.366136 ], [ 11.834976, 46.366158 ], [ 11.835394, 46.366222 ], [ 11.835313, 46.368122 ], [ 11.834409, 46.371474 ], [ 11.832862, 46.376587 ], [ 11.83181, 46.379613 ], [ 11.832029, 46.386973 ], [ 11.83204, 46.387187 ], [ 11.83486, 46.395248 ], [ 11.835931, 46.398207 ], [ 11.837406, 46.401876 ], [ 11.840202, 46.405883 ], [ 11.841354, 46.407402 ], [ 11.841975, 46.408142 ], [ 11.842419, 46.40864 ], [ 11.843689, 46.409919 ], [ 11.840314, 46.412979 ], [ 11.839935, 46.413295 ], [ 11.838535, 46.414556 ], [ 11.8384, 46.414707 ], [ 11.838199, 46.415062 ], [ 11.838223, 46.415233 ], [ 11.838851, 46.416441 ], [ 11.839495, 46.417483 ], [ 11.840148, 46.418421 ], [ 11.840528, 46.41896 ], [ 11.848171, 46.429044 ], [ 11.850291, 46.434161 ], [ 11.850298, 46.434189 ], [ 11.850519, 46.434309 ], [ 11.857762, 46.434195 ], [ 11.859746, 46.434118 ], [ 11.860626, 46.433913 ], [ 11.861247, 46.433712 ], [ 11.861607, 46.433489 ], [ 11.862338, 46.43329 ], [ 11.863198, 46.433116 ], [ 11.869949, 46.433162 ], [ 11.870882, 46.433215 ], [ 11.871754, 46.433449 ], [ 11.873001, 46.433949 ], [ 11.873897, 46.434394 ], [ 11.888793, 46.441996 ], [ 11.889108, 46.442742 ], [ 11.889062, 46.443637 ], [ 11.888159, 46.457768 ], [ 11.887363, 46.463143 ], [ 11.886826, 46.464567 ], [ 11.88378, 46.465844 ], [ 11.882678, 46.466322 ], [ 11.881191, 46.467709 ], [ 11.878648, 46.470289 ], [ 11.878566, 46.470744 ], [ 11.877733, 46.471365 ], [ 11.877158, 46.471783 ], [ 11.87642, 46.4721 ], [ 11.875245, 46.472561 ], [ 11.874318, 46.472855 ], [ 11.874269, 46.472868 ], [ 11.874216, 46.472875 ], [ 11.851521, 46.475002 ], [ 11.834394, 46.47631 ], [ 11.830445, 46.476095 ], [ 11.822984, 46.47606 ], [ 11.818072, 46.476537 ], [ 11.817311, 46.476614 ], [ 11.816789, 46.476727 ], [ 11.816376, 46.476824 ], [ 11.816287, 46.476847 ], [ 11.816225, 46.476867 ], [ 11.815443, 46.477161 ], [ 11.813409, 46.477935 ], [ 11.813158, 46.47814 ], [ 11.810566, 46.484246 ], [ 11.810417, 46.484717 ], [ 11.810393, 46.484865 ], [ 11.813898, 46.495823 ], [ 11.815208, 46.499715 ], [ 11.815454, 46.500318 ], [ 11.824081, 46.504077 ], [ 11.828312, 46.508914 ], [ 11.844376, 46.515337 ], [ 11.848021, 46.516731 ], [ 11.851351, 46.517836 ], [ 11.853195, 46.518204 ], [ 11.875666, 46.522042 ], [ 11.876914, 46.522227 ], [ 11.879872, 46.52244 ], [ 11.884973, 46.522726 ], [ 11.898747, 46.528227 ], [ 11.900897, 46.529424 ], [ 11.90796, 46.531773 ], [ 11.911884, 46.53296 ], [ 11.913105, 46.533109 ], [ 11.914504, 46.532938 ], [ 11.91467, 46.532912 ], [ 11.917675, 46.532489 ], [ 11.922181, 46.531158 ], [ 11.923788, 46.530478 ], [ 11.92584, 46.529598 ], [ 11.927576, 46.528905 ], [ 11.929356, 46.528545 ], [ 11.933885, 46.527898 ], [ 11.940464, 46.528268 ], [ 11.945495, 46.529417 ], [ 11.945547, 46.529505 ], [ 11.946012, 46.530295 ], [ 11.947184, 46.533162 ], [ 11.94827, 46.535879 ], [ 11.948567, 46.536793 ], [ 11.948711, 46.537272 ], [ 11.949072, 46.538397 ], [ 11.949534, 46.539231 ], [ 11.950061, 46.539568 ], [ 11.951269, 46.540185 ], [ 11.952025, 46.540544 ], [ 11.964177, 46.54418 ], [ 11.966147, 46.544678 ], [ 11.985732, 46.545248 ], [ 11.987561, 46.545299 ], [ 11.988929, 46.544336 ], [ 11.998419, 46.532856 ], [ 11.999102, 46.533414 ], [ 11.999594, 46.533833 ], [ 12.000435, 46.534648 ], [ 12.0009, 46.535103 ], [ 12.001744, 46.535927 ], [ 12.003084, 46.537638 ], [ 12.005519, 46.54076 ], [ 12.006906, 46.542731 ], [ 12.012768, 46.549659 ], [ 12.013756, 46.550767 ], [ 12.013962, 46.550913 ], [ 12.021582, 46.55966 ], [ 12.028678, 46.568076 ], [ 12.03322, 46.57557 ], [ 12.034176, 46.576786 ], [ 12.035141, 46.577706 ], [ 12.036714, 46.578762 ], [ 12.038869, 46.579731 ], [ 12.040894, 46.58046 ], [ 12.042517, 46.581245 ], [ 12.043769, 46.581922 ], [ 12.044885, 46.582739 ], [ 12.046319, 46.584149 ], [ 12.046693, 46.584724 ], [ 12.04708, 46.585569 ], [ 12.049368, 46.592132 ], [ 12.049772, 46.593759 ], [ 12.049623, 46.599478 ], [ 12.049415, 46.600301 ], [ 12.049313, 46.600702 ], [ 12.04873, 46.601698 ], [ 12.04545, 46.607951 ], [ 12.053016, 46.618009 ], [ 12.054138, 46.618456 ], [ 12.057657, 46.619703 ], [ 12.058883, 46.619913 ], [ 12.061119, 46.620177 ], [ 12.062726, 46.620647 ], [ 12.064065, 46.621691 ], [ 12.06479, 46.623202 ], [ 12.065174, 46.624676 ], [ 12.065504, 46.626135 ], [ 12.065823, 46.627845 ], [ 12.067504, 46.634469 ], [ 12.068603, 46.638426 ], [ 12.069232, 46.640075 ], [ 12.069755, 46.640763 ], [ 12.07137, 46.641601 ], [ 12.073317, 46.642287 ], [ 12.074181, 46.642606 ], [ 12.074225, 46.642622 ], [ 12.069463, 46.648883 ], [ 12.066554, 46.65273 ], [ 12.066462, 46.653235 ], [ 12.068907, 46.666417 ], [ 12.06827, 46.675071 ], [ 12.070252, 46.674913 ], [ 12.074731, 46.674577 ], [ 12.075507, 46.67443 ], [ 12.076545, 46.673835 ], [ 12.077794, 46.672343 ], [ 12.078475, 46.671505 ], [ 12.079023, 46.670726 ], [ 12.079079, 46.670562 ], [ 12.079166, 46.670321 ], [ 12.079198, 46.670241 ], [ 12.079316, 46.669947 ], [ 12.079339, 46.669905 ], [ 12.079603, 46.669523 ], [ 12.079893, 46.669125 ], [ 12.080913, 46.668326 ], [ 12.082064, 46.667472 ], [ 12.091279, 46.664635 ], [ 12.099925, 46.661296 ], [ 12.106038, 46.658925 ], [ 12.107459, 46.658176 ], [ 12.107559, 46.658083 ], [ 12.108328, 46.657295 ], [ 12.108359, 46.65726 ], [ 12.108469, 46.657124 ], [ 12.10878, 46.656726 ], [ 12.108929, 46.656532 ], [ 12.108942, 46.656504 ], [ 12.109086, 46.656141 ], [ 12.109133, 46.655746 ], [ 12.109156, 46.655625 ], [ 12.109309, 46.654885 ], [ 12.109985, 46.653812 ], [ 12.111001, 46.652984 ], [ 12.111413, 46.652743 ], [ 12.112813, 46.651946 ], [ 12.125346, 46.645592 ], [ 12.127088, 46.644743 ], [ 12.140319, 46.637622 ], [ 12.145126, 46.63407 ], [ 12.148079, 46.634231 ], [ 12.156551, 46.635663 ], [ 12.161087, 46.636824 ], [ 12.161998, 46.636763 ], [ 12.171328, 46.634101 ], [ 12.172614, 46.633016 ], [ 12.172665, 46.632961 ], [ 12.175619, 46.629606 ], [ 12.175673, 46.629544 ], [ 12.175954, 46.629214 ], [ 12.176617, 46.628434 ], [ 12.176786, 46.628222 ], [ 12.177238, 46.627626 ], [ 12.177479, 46.627301 ], [ 12.178809, 46.625428 ], [ 12.179551, 46.624313 ], [ 12.17967, 46.624141 ], [ 12.179891, 46.623838 ], [ 12.180368, 46.623204 ], [ 12.181684, 46.621628 ], [ 12.182202, 46.621019 ], [ 12.183287, 46.62075 ], [ 12.183438, 46.620715 ], [ 12.185145, 46.62064 ], [ 12.194264, 46.619333 ], [ 12.194692, 46.610944 ], [ 12.19446, 46.604909 ], [ 12.193795, 46.603587 ], [ 12.193342, 46.602555 ], [ 12.191665, 46.59668 ], [ 12.191682, 46.596533 ], [ 12.19177, 46.595804 ], [ 12.191848, 46.595586 ], [ 12.191923, 46.595385 ], [ 12.192003, 46.595176 ], [ 12.19224, 46.594564 ], [ 12.193671, 46.594608 ], [ 12.194979, 46.594868 ], [ 12.195676, 46.595182 ], [ 12.203791, 46.599284 ], [ 12.209474, 46.604632 ], [ 12.210112, 46.605271 ], [ 12.210374, 46.606389 ], [ 12.210892, 46.607851 ], [ 12.21242, 46.60896 ], [ 12.214259, 46.609574 ], [ 12.217856, 46.610553 ], [ 12.221091, 46.611371 ], [ 12.224748, 46.612257 ], [ 12.232182, 46.614046 ], [ 12.238406, 46.615489 ], [ 12.240298, 46.615886 ], [ 12.241839, 46.616319 ], [ 12.244655, 46.624096 ], [ 12.26122, 46.629125 ], [ 12.264172, 46.627788 ], [ 12.266744, 46.626464 ], [ 12.266822, 46.626357 ], [ 12.267299, 46.62571 ], [ 12.267951, 46.624386 ], [ 12.268577, 46.623352 ], [ 12.26923, 46.622321 ], [ 12.270032, 46.621068 ], [ 12.270074, 46.62103 ], [ 12.271423, 46.620651 ], [ 12.283837, 46.617926 ], [ 12.284392, 46.617906 ], [ 12.285038, 46.617883 ], [ 12.285725, 46.617867 ], [ 12.2927, 46.618099 ], [ 12.301321, 46.618808 ], [ 12.305504, 46.619173 ], [ 12.306537, 46.619603 ], [ 12.307438, 46.620022 ], [ 12.307921, 46.620256 ], [ 12.308381, 46.620485 ], [ 12.313785, 46.623335 ], [ 12.315435, 46.625077 ], [ 12.316021, 46.629939 ], [ 12.31609, 46.629919 ], [ 12.316366, 46.629839 ], [ 12.317831, 46.629549 ], [ 12.319138, 46.629373 ], [ 12.319865, 46.629315 ], [ 12.320581, 46.629262 ], [ 12.331641, 46.629224 ], [ 12.339705, 46.631378 ], [ 12.341561, 46.630068 ], [ 12.343138, 46.62819 ], [ 12.343555, 46.627503 ], [ 12.344564, 46.626394 ], [ 12.346739, 46.624174 ], [ 12.360103, 46.619485 ], [ 12.362273, 46.619457 ], [ 12.366655, 46.619508 ], [ 12.370574, 46.619878 ], [ 12.385163, 46.622782 ], [ 12.387752, 46.623974 ], [ 12.388788, 46.62447 ], [ 12.389237, 46.625186 ], [ 12.389905, 46.627213 ], [ 12.38993, 46.627393 ], [ 12.389836, 46.627512 ], [ 12.382854, 46.632078 ], [ 12.378395, 46.636686 ], [ 12.378037, 46.637847 ], [ 12.37818, 46.638541 ], [ 12.379013, 46.640955 ], [ 12.379263, 46.641614 ], [ 12.379774, 46.642907 ], [ 12.381595, 46.643593 ], [ 12.38303, 46.643711 ], [ 12.385088, 46.643398 ], [ 12.38648, 46.642977 ], [ 12.38851, 46.642372 ], [ 12.391079, 46.641612 ], [ 12.392355, 46.641741 ], [ 12.405459, 46.643093 ], [ 12.405748, 46.643199 ], [ 12.41256, 46.648729 ], [ 12.417669, 46.65291 ], [ 12.427421, 46.661582 ], [ 12.433002, 46.667278 ], [ 12.434242, 46.668281 ], [ 12.435327, 46.668621 ], [ 12.435916, 46.668788 ], [ 12.436571, 46.668859 ], [ 12.437516, 46.668925 ], [ 12.446324, 46.671049 ], [ 12.458766, 46.674173 ], [ 12.472322, 46.677945 ], [ 12.475184, 46.678875 ], [ 12.476486, 46.679353 ], [ 12.477181, 46.679642 ], [ 12.477594, 46.679821 ], [ 12.479206, 46.678235 ], [ 12.480116, 46.677344 ], [ 12.480704, 46.677123 ], [ 12.48142, 46.67698 ], [ 12.482503, 46.676884 ], [ 12.490278, 46.676408 ], [ 12.491707, 46.676558 ], [ 12.496288, 46.677079 ], [ 12.499228, 46.677763 ], [ 12.499427, 46.677897 ], [ 12.499839, 46.678352 ], [ 12.500484, 46.67908 ], [ 12.500849, 46.679568 ], [ 12.501481, 46.680291 ], [ 12.502064, 46.680462 ], [ 12.502553, 46.680443 ], [ 12.503214, 46.680355 ], [ 12.503947, 46.680107 ], [ 12.505086, 46.679573 ], [ 12.505709, 46.678793 ], [ 12.505905, 46.678391 ], [ 12.506029, 46.678028 ], [ 12.514262, 46.678058 ], [ 12.514595, 46.678043 ], [ 12.517007, 46.677627 ], [ 12.521003, 46.676492 ], [ 12.526763, 46.67428 ], [ 12.527212, 46.6741 ], [ 12.527681, 46.673869 ], [ 12.528151, 46.673621 ], [ 12.528586, 46.673364 ], [ 12.544199, 46.661599 ], [ 12.546309, 46.659329 ], [ 12.55411, 46.657444 ], [ 12.559428, 46.654173 ], [ 12.560042, 46.652678 ], [ 12.561072, 46.652052 ], [ 12.564575, 46.651106 ], [ 12.567032, 46.650804 ], [ 12.568841, 46.650685 ], [ 12.570402, 46.650771 ], [ 12.573401, 46.653386 ], [ 12.576614, 46.655437 ], [ 12.578128, 46.656136 ], [ 12.578946, 46.656201 ], [ 12.582319, 46.655816 ], [ 12.586862, 46.655628 ], [ 12.602708, 46.655589 ], [ 12.603982, 46.655738 ], [ 12.612161, 46.657838 ], [ 12.621418, 46.660753 ], [ 12.624405, 46.660897 ], [ 12.625609, 46.660868 ], [ 12.630505, 46.660586 ], [ 12.631159, 46.660539 ], [ 12.631623, 46.660398 ], [ 12.632057, 46.659659 ], [ 12.632388, 46.658645 ], [ 12.632493, 46.657769 ], [ 12.632422, 46.656961 ], [ 12.632754, 46.655583 ], [ 12.633096, 46.655212 ], [ 12.634099, 46.654334 ], [ 12.635409, 46.653644 ], [ 12.641144, 46.652053 ], [ 12.642456, 46.651935 ], [ 12.644344, 46.652064 ], [ 12.64887, 46.652504 ], [ 12.650561, 46.652972 ], [ 12.651891, 46.653704 ], [ 12.653345, 46.654818 ], [ 12.654383, 46.655285 ], [ 12.657967, 46.656434 ], [ 12.662226, 46.656779 ], [ 12.664413, 46.656984 ], [ 12.666846, 46.657158 ], [ 12.67582, 46.656824 ], [ 12.67756, 46.656751 ], [ 12.687954, 46.656208 ], [ 12.689398, 46.656099 ], [ 12.690108, 46.655972 ], [ 12.691218, 46.655293 ], [ 12.692712, 46.654291 ], [ 12.694102, 46.653535 ], [ 12.695716, 46.652682 ], [ 12.697329, 46.651896 ], [ 12.699297, 46.651045 ], [ 12.700783, 46.650456 ], [ 12.7015, 46.650235 ], [ 12.707284, 46.649247 ], [ 12.708978, 46.649363 ], [ 12.7106, 46.649283 ], [ 12.714558, 46.648308 ], [ 12.717154, 46.646469 ], [ 12.724668, 46.640279 ], [ 12.728216, 46.636438 ], [ 12.731981, 46.633813 ], [ 12.72744, 46.630376 ], [ 12.725169, 46.630178 ], [ 12.720933, 46.628984 ], [ 12.716592, 46.62755 ], [ 12.71281, 46.626224 ], [ 12.711376, 46.625551 ], [ 12.710207, 46.624689 ], [ 12.708807, 46.623515 ], [ 12.707185, 46.621961 ], [ 12.706242, 46.620776 ], [ 12.705072, 46.619091 ], [ 12.704721, 46.618396 ], [ 12.705355, 46.616301 ], [ 12.706191, 46.613762 ], [ 12.706599, 46.612422 ], [ 12.706948, 46.610898 ], [ 12.707241, 46.609494 ], [ 12.708575, 46.602025 ], [ 12.707988, 46.60203 ], [ 12.70628, 46.602018 ], [ 12.705356, 46.601976 ], [ 12.69963, 46.601595 ], [ 12.698237, 46.60146 ], [ 12.690221, 46.600621 ], [ 12.688835, 46.600405 ], [ 12.687525, 46.599862 ], [ 12.684545, 46.597465 ], [ 12.68351, 46.596059 ], [ 12.682458, 46.594319 ], [ 12.68002, 46.591095 ], [ 12.67597, 46.586563 ], [ 12.674552, 46.585196 ], [ 12.66856, 46.582778 ], [ 12.664589, 46.581969 ], [ 12.663612, 46.581267 ], [ 12.660487, 46.578042 ], [ 12.659407, 46.576726 ], [ 12.656792, 46.572548 ], [ 12.646113, 46.574595 ], [ 12.646007, 46.575247 ], [ 12.645234, 46.575694 ], [ 12.644478, 46.575948 ], [ 12.644085, 46.576024 ], [ 12.64394, 46.576051 ], [ 12.637039, 46.572639 ], [ 12.634373, 46.568827 ], [ 12.628733, 46.560595 ], [ 12.623602, 46.550948 ], [ 12.620205, 46.543769 ], [ 12.620153, 46.543623 ], [ 12.619403, 46.541423 ], [ 12.619164, 46.540036 ], [ 12.619928, 46.534665 ], [ 12.621526, 46.526487 ], [ 12.625278, 46.519726 ], [ 12.629553, 46.515401 ], [ 12.630586, 46.512167 ], [ 12.631583, 46.508897 ], [ 12.631655, 46.508071 ], [ 12.631608, 46.506943 ], [ 12.63088, 46.503397 ], [ 12.630021, 46.500707 ], [ 12.642335, 46.490463 ], [ 12.643666, 46.489539 ], [ 12.650809, 46.485535 ], [ 12.652068, 46.485076 ], [ 12.653173, 46.484811 ], [ 12.654063, 46.484387 ], [ 12.656887, 46.48116 ], [ 12.662443, 46.469169 ], [ 12.662416, 46.468621 ], [ 12.662363, 46.467968 ], [ 12.658816, 46.465955 ], [ 12.656452, 46.465225 ], [ 12.654774, 46.465459 ], [ 12.649048, 46.466564 ], [ 12.644917, 46.469639 ], [ 12.64386, 46.471185 ], [ 12.642351, 46.472331 ], [ 12.636874, 46.473685 ], [ 12.633312, 46.474428 ], [ 12.620751, 46.475367 ], [ 12.619681, 46.475082 ], [ 12.61816, 46.47445 ], [ 12.616775, 46.473653 ], [ 12.60873, 46.466711 ], [ 12.607507, 46.465237 ], [ 12.606787, 46.464285 ], [ 12.606069, 46.464127 ], [ 12.604667, 46.464589 ], [ 12.602332, 46.465595 ], [ 12.599749, 46.467449 ], [ 12.594784, 46.470765 ], [ 12.592943, 46.471399 ], [ 12.586327, 46.473177 ], [ 12.579568, 46.473682 ], [ 12.578375, 46.473575 ], [ 12.576079, 46.473368 ], [ 12.569954, 46.475486 ], [ 12.560248, 46.471149 ], [ 12.556394, 46.469068 ], [ 12.547588, 46.46355 ], [ 12.54197, 46.459319 ], [ 12.541715, 46.458908 ], [ 12.536834, 46.459721 ], [ 12.531019, 46.464901 ], [ 12.530842, 46.464933 ], [ 12.530223, 46.46452 ], [ 12.527474, 46.460231 ], [ 12.52708, 46.459465 ], [ 12.527048, 46.458417 ], [ 12.527038, 46.456977 ], [ 12.52726, 46.45567 ], [ 12.527943, 46.453093 ], [ 12.518906, 46.447363 ], [ 12.515335, 46.446583 ], [ 12.513764, 46.445991 ], [ 12.505863, 46.44096 ], [ 12.504578, 46.440014 ], [ 12.503352, 46.438904 ], [ 12.502048, 46.437515 ], [ 12.499256, 46.434255 ], [ 12.498838, 46.433472 ], [ 12.498915, 46.432522 ], [ 12.496438, 46.42846 ], [ 12.493914, 46.426059 ], [ 12.492995, 46.42492 ], [ 12.492478, 46.424261 ], [ 12.492568, 46.423974 ], [ 12.492662, 46.423679 ], [ 12.494311, 46.418631 ], [ 12.494513, 46.418033 ], [ 12.494857, 46.417496 ], [ 12.498692, 46.4122 ], [ 12.495264, 46.412016 ], [ 12.493964, 46.411412 ], [ 12.491084, 46.409808 ], [ 12.489417, 46.408738 ], [ 12.481978, 46.403264 ], [ 12.47848, 46.399581 ], [ 12.477199, 46.397767 ], [ 12.469349, 46.390077 ], [ 12.464941, 46.38854 ], [ 12.464193, 46.388391 ], [ 12.456909, 46.390966 ], [ 12.455048, 46.391668 ], [ 12.456299, 46.386531 ], [ 12.45655, 46.38561 ], [ 12.456558, 46.385585 ], [ 12.456748, 46.385206 ], [ 12.457062, 46.38458 ], [ 12.457897, 46.383668 ], [ 12.45862, 46.382948 ], [ 12.460519, 46.380425 ], [ 12.46096, 46.379039 ], [ 12.462943, 46.369263 ], [ 12.44996, 46.36072 ], [ 12.449821, 46.360631 ], [ 12.449226, 46.360268 ], [ 12.440508, 46.358604 ], [ 12.428666, 46.351596 ], [ 12.426876, 46.352111 ], [ 12.424184, 46.352887 ], [ 12.418726, 46.354459 ], [ 12.417374, 46.354854 ], [ 12.419217, 46.35262 ], [ 12.420725, 46.346445 ], [ 12.421214, 46.342578 ], [ 12.418262, 46.338933 ], [ 12.411457, 46.330832 ], [ 12.40287, 46.329408 ], [ 12.400718, 46.328898 ], [ 12.399174, 46.328611 ], [ 12.398054, 46.328549 ], [ 12.387771, 46.329152 ], [ 12.384329, 46.329042 ], [ 12.382654, 46.330074 ], [ 12.381725, 46.330617 ], [ 12.379855, 46.331454 ], [ 12.379068, 46.331766 ], [ 12.378117, 46.331625 ], [ 12.376762, 46.331031 ], [ 12.376478, 46.330869 ], [ 12.375867, 46.330519 ], [ 12.375721, 46.330422 ], [ 12.375019, 46.329905 ], [ 12.371441, 46.326114 ], [ 12.364834, 46.325582 ], [ 12.364278, 46.325407 ], [ 12.354655, 46.319682 ], [ 12.355309, 46.316578 ], [ 12.354564, 46.308619 ], [ 12.3528, 46.300779 ], [ 12.350832, 46.293839 ], [ 12.348079, 46.292382 ], [ 12.34502, 46.291456 ], [ 12.332629, 46.284327 ], [ 12.329143, 46.282123 ], [ 12.324485, 46.275758 ], [ 12.324394, 46.275632 ], [ 12.323851, 46.274872 ], [ 12.32275, 46.273123 ], [ 12.320936, 46.268905 ], [ 12.321219, 46.264462 ], [ 12.323977, 46.254932 ], [ 12.32451, 46.254608 ], [ 12.324729, 46.254478 ], [ 12.325305, 46.254137 ], [ 12.325919, 46.254002 ], [ 12.327807, 46.253885 ], [ 12.333142, 46.247016 ], [ 12.334993, 46.243153 ], [ 12.335529, 46.242206 ], [ 12.335965, 46.241568 ], [ 12.337709, 46.239469 ], [ 12.338327, 46.238951 ], [ 12.338873, 46.239138 ], [ 12.33943, 46.239662 ], [ 12.339528, 46.239762 ], [ 12.339978, 46.240181 ], [ 12.342307, 46.2405 ], [ 12.34305, 46.240559 ], [ 12.343709, 46.240318 ], [ 12.346423, 46.23925 ], [ 12.346972, 46.238995 ], [ 12.351921, 46.236132 ], [ 12.354945, 46.233239 ], [ 12.35685, 46.231136 ], [ 12.359994, 46.228995 ], [ 12.362245, 46.228704 ], [ 12.363126, 46.229052 ], [ 12.364017, 46.229417 ], [ 12.364875, 46.229558 ], [ 12.365735, 46.229308 ], [ 12.367846, 46.228292 ], [ 12.368881, 46.22773 ], [ 12.372333, 46.223965 ], [ 12.373349, 46.223708 ], [ 12.37642, 46.222941 ], [ 12.377468, 46.223201 ], [ 12.378706, 46.223639 ], [ 12.383843, 46.225551 ], [ 12.389196, 46.227561 ], [ 12.390643, 46.228111 ], [ 12.401681, 46.228997 ], [ 12.403763, 46.227461 ], [ 12.405671, 46.225595 ], [ 12.408282, 46.222947 ], [ 12.408709, 46.222341 ], [ 12.408648, 46.221014 ], [ 12.408321, 46.219499 ], [ 12.407766, 46.218791 ], [ 12.40732, 46.218466 ], [ 12.406592, 46.218106 ], [ 12.405637, 46.217878 ], [ 12.404835, 46.217861 ], [ 12.404225, 46.217474 ], [ 12.402853, 46.215973 ], [ 12.400266, 46.211257 ], [ 12.406271, 46.207274 ], [ 12.407259, 46.207024 ], [ 12.41845, 46.208343 ], [ 12.426238, 46.209278 ], [ 12.42719, 46.209344 ], [ 12.428518, 46.209428 ], [ 12.429486, 46.209467 ], [ 12.429584, 46.209468 ], [ 12.430593, 46.209435 ], [ 12.441483, 46.20841 ], [ 12.446454, 46.207766 ], [ 12.444526, 46.206376 ], [ 12.442487, 46.199404 ], [ 12.442289, 46.198685 ], [ 12.442389, 46.197735 ], [ 12.442479, 46.197122 ], [ 12.44302, 46.196073 ], [ 12.443679, 46.195475 ], [ 12.443921, 46.195204 ], [ 12.444367, 46.194401 ], [ 12.447183, 46.188409 ], [ 12.448209, 46.183293 ], [ 12.448023, 46.182462 ], [ 12.446983, 46.180342 ], [ 12.446923, 46.180004 ], [ 12.447259, 46.17958 ], [ 12.456919, 46.170649 ], [ 12.464998, 46.16567 ], [ 12.465825, 46.16542 ], [ 12.470315, 46.164689 ], [ 12.478453, 46.161809 ], [ 12.491512, 46.156897 ], [ 12.494049, 46.154366 ], [ 12.495813, 46.152553 ], [ 12.495849, 46.152239 ], [ 12.495787, 46.151442 ], [ 12.495392, 46.150498 ], [ 12.495186, 46.150164 ], [ 12.494747, 46.149491 ], [ 12.494327, 46.148258 ], [ 12.496101, 46.14137 ], [ 12.497052, 46.139819 ], [ 12.498061, 46.138983 ], [ 12.498627, 46.138451 ], [ 12.498831, 46.137713 ], [ 12.498786, 46.137003 ], [ 12.498341, 46.135702 ], [ 12.49701, 46.13287 ], [ 12.497196, 46.129756 ], [ 12.496319, 46.129486 ], [ 12.495143, 46.129108 ], [ 12.494185, 46.128548 ], [ 12.493895, 46.128251 ], [ 12.493498, 46.127797 ], [ 12.493222, 46.12748 ], [ 12.491891, 46.125135 ], [ 12.491704, 46.124097 ], [ 12.492225, 46.123451 ], [ 12.492974, 46.122879 ], [ 12.493673, 46.122489 ], [ 12.494207, 46.121544 ], [ 12.494074, 46.12091 ], [ 12.493861, 46.120568 ], [ 12.491547, 46.117 ], [ 12.491334, 46.116673 ], [ 12.491161, 46.116436 ], [ 12.490288, 46.115535 ], [ 12.489391, 46.114739 ], [ 12.488962, 46.114432 ], [ 12.484667, 46.10496 ], [ 12.484425, 46.104472 ], [ 12.483377, 46.103427 ], [ 12.472372, 46.096019 ], [ 12.470942, 46.095347 ], [ 12.464825, 46.092765 ], [ 12.454661, 46.088724 ], [ 12.447905, 46.086095 ], [ 12.442846, 46.084201 ], [ 12.442143, 46.08418 ], [ 12.439279, 46.084523 ], [ 12.438539, 46.084651 ], [ 12.437487, 46.084834 ], [ 12.427845, 46.076321 ], [ 12.426792, 46.074156 ], [ 12.425572, 46.071221 ], [ 12.424052, 46.068206 ], [ 12.422269, 46.065748 ], [ 12.421427, 46.06483 ], [ 12.42066, 46.063996 ], [ 12.417196, 46.060502 ], [ 12.416058, 46.059456 ], [ 12.414055, 46.059097 ], [ 12.409945, 46.059147 ], [ 12.406599, 46.05135 ], [ 12.4053, 46.044821 ], [ 12.405314, 46.043397 ], [ 12.405081, 46.042739 ], [ 12.404445, 46.042497 ], [ 12.403195, 46.042167 ], [ 12.401756, 46.041886 ], [ 12.400952, 46.041854 ], [ 12.400503, 46.041933 ], [ 12.400329, 46.041971 ], [ 12.399811, 46.041787 ], [ 12.398988, 46.041424 ], [ 12.40032, 46.039976 ], [ 12.402092, 46.038299 ], [ 12.402744, 46.03778 ], [ 12.404101, 46.036718 ], [ 12.405786, 46.035404 ], [ 12.407166, 46.034668 ], [ 12.408145, 46.034189 ], [ 12.408858, 46.033829 ], [ 12.409408, 46.033309 ], [ 12.410356, 46.032331 ], [ 12.414444, 46.028006 ], [ 12.414817, 46.027563 ], [ 12.415276, 46.02686 ], [ 12.416396, 46.022439 ], [ 12.416396, 46.021938 ], [ 12.416086, 46.021346 ], [ 12.415855, 46.020957 ], [ 12.414941, 46.019982 ], [ 12.417827, 46.014011 ], [ 12.421999, 46.00382 ], [ 12.423697, 46.00079 ], [ 12.423734, 45.998884 ], [ 12.424209, 45.998227 ], [ 12.425007, 45.997569 ], [ 12.425961, 45.996901 ], [ 12.426833, 45.996393 ], [ 12.427901, 45.995902 ], [ 12.428184, 45.995763 ], [ 12.428437, 45.993325 ], [ 12.427992, 45.987687 ], [ 12.426407, 45.975276 ], [ 12.42454, 45.963856 ], [ 12.424096, 45.962768 ], [ 12.422293, 45.956163 ], [ 12.42231, 45.956046 ], [ 12.422326, 45.955954 ], [ 12.425715, 45.947624 ], [ 12.425807, 45.947427 ], [ 12.425842, 45.947353 ], [ 12.426142, 45.947009 ], [ 12.427996, 45.94648 ], [ 12.432243, 45.945507 ], [ 12.432587, 45.945429 ], [ 12.433355, 45.945338 ], [ 12.43401, 45.945269 ], [ 12.434759, 45.94525 ], [ 12.43712, 45.945454 ], [ 12.438109, 45.945654 ], [ 12.441885, 45.946674 ], [ 12.442399, 45.946888 ], [ 12.453498, 45.947338 ], [ 12.454253, 45.947111 ], [ 12.455693, 45.946094 ], [ 12.4557, 45.943943 ], [ 12.456326, 45.94266 ], [ 12.456615, 45.942282 ], [ 12.463105, 45.93452 ], [ 12.473946, 45.92883 ], [ 12.474697, 45.92847 ], [ 12.47897, 45.926981 ], [ 12.482665, 45.925693 ], [ 12.48483, 45.925434 ], [ 12.48556, 45.925587 ], [ 12.486315, 45.925791 ], [ 12.489651, 45.926385 ], [ 12.490726, 45.925987 ], [ 12.491454, 45.925879 ], [ 12.495759, 45.92537 ], [ 12.498911, 45.925539 ], [ 12.500076, 45.925408 ], [ 12.500834, 45.92521 ], [ 12.501147, 45.925087 ], [ 12.501621, 45.924902 ], [ 12.503158, 45.924288 ], [ 12.50463, 45.923644 ], [ 12.505183, 45.923397 ], [ 12.506001, 45.922711 ], [ 12.506851, 45.921875 ], [ 12.50785, 45.920044 ], [ 12.507921, 45.919884 ], [ 12.507912, 45.919488 ], [ 12.507756, 45.919351 ], [ 12.507611, 45.91925 ], [ 12.507045, 45.919038 ], [ 12.506677, 45.918725 ], [ 12.505564, 45.916683 ], [ 12.505638, 45.916165 ], [ 12.505646, 45.916119 ], [ 12.50864, 45.910424 ], [ 12.513367, 45.905995 ], [ 12.513995, 45.905494 ], [ 12.515823, 45.904098 ], [ 12.51649, 45.903869 ], [ 12.523187, 45.903092 ], [ 12.522442, 45.902522 ], [ 12.518579, 45.900091 ], [ 12.518055, 45.89986 ], [ 12.512895, 45.898291 ], [ 12.512715, 45.898292 ], [ 12.511354, 45.898532 ], [ 12.509783, 45.898723 ], [ 12.507558, 45.898387 ], [ 12.507029, 45.897835 ], [ 12.516411, 45.890032 ], [ 12.523364, 45.886387 ], [ 12.527743, 45.884772 ], [ 12.528959, 45.884384 ], [ 12.53048, 45.88439 ], [ 12.532256, 45.881926 ], [ 12.536304, 45.871258 ], [ 12.537089, 45.868655 ], [ 12.536979, 45.868554 ], [ 12.536821, 45.868414 ], [ 12.536519, 45.868168 ], [ 12.535427, 45.868269 ], [ 12.535264, 45.868284 ], [ 12.53395, 45.868243 ], [ 12.532826, 45.867892 ], [ 12.532345, 45.86751 ], [ 12.52955, 45.864318 ], [ 12.529861, 45.863609 ], [ 12.531104, 45.863073 ], [ 12.534677, 45.862042 ], [ 12.549615, 45.860696 ], [ 12.552421, 45.856041 ], [ 12.558985, 45.847065 ], [ 12.559109, 45.845985 ], [ 12.558878, 45.84481 ], [ 12.558324, 45.843615 ], [ 12.554449, 45.840064 ], [ 12.553864, 45.839722 ], [ 12.552916, 45.839508 ], [ 12.551338, 45.839355 ], [ 12.54992, 45.839495 ], [ 12.552277, 45.836153 ], [ 12.554055, 45.829505 ], [ 12.554076, 45.829416 ], [ 12.5593, 45.825925 ], [ 12.560143, 45.825697 ], [ 12.561486, 45.82587 ], [ 12.561856, 45.825974 ], [ 12.562477, 45.826339 ], [ 12.565241, 45.829939 ], [ 12.565312, 45.830239 ], [ 12.564873, 45.830643 ], [ 12.56446, 45.830958 ], [ 12.564047, 45.831343 ], [ 12.56418, 45.831768 ], [ 12.56455, 45.831914 ], [ 12.565299, 45.831812 ], [ 12.566204, 45.831371 ], [ 12.566846, 45.830883 ], [ 12.567379, 45.830416 ], [ 12.567682, 45.82997 ], [ 12.568114, 45.828976 ], [ 12.568747, 45.827385 ], [ 12.568792, 45.82706 ], [ 12.572868, 45.82437 ], [ 12.581999, 45.824234 ], [ 12.582809, 45.821809 ], [ 12.583188, 45.820857 ], [ 12.583668, 45.820171 ], [ 12.587637, 45.815307 ], [ 12.588043, 45.815106 ], [ 12.589335, 45.815007 ], [ 12.593285, 45.815078 ], [ 12.593845, 45.815179 ], [ 12.594201, 45.815348 ], [ 12.59489, 45.815687 ], [ 12.595278, 45.815954 ], [ 12.595554, 45.816174 ], [ 12.595654, 45.816824 ], [ 12.595347, 45.817396 ], [ 12.594527, 45.818205 ], [ 12.593376, 45.818939 ], [ 12.592424, 45.819473 ], [ 12.592095, 45.819874 ], [ 12.592395, 45.820129 ], [ 12.592799, 45.82033 ], [ 12.596421, 45.822065 ], [ 12.596801, 45.822188 ], [ 12.597162, 45.822204 ], [ 12.597392, 45.822142 ], [ 12.595425, 45.826961 ], [ 12.594442, 45.830767 ], [ 12.599286, 45.834614 ], [ 12.605683, 45.838247 ], [ 12.606359, 45.837404 ], [ 12.608055, 45.835109 ], [ 12.608375, 45.834568 ], [ 12.611552, 45.831894 ], [ 12.612137, 45.831475 ], [ 12.612651, 45.831161 ], [ 12.615918, 45.829467 ], [ 12.621139, 45.827919 ], [ 12.622913, 45.828154 ], [ 12.623636, 45.828599 ], [ 12.623954, 45.828809 ], [ 12.624629, 45.829364 ], [ 12.62488, 45.829612 ], [ 12.625354, 45.829884 ], [ 12.625734, 45.830103 ], [ 12.626092, 45.830289 ], [ 12.626774, 45.830286 ], [ 12.629546, 45.830153 ], [ 12.63142, 45.830003 ], [ 12.63216, 45.829259 ], [ 12.633022, 45.822918 ], [ 12.637727, 45.818329 ], [ 12.648215, 45.812176 ], [ 12.654003, 45.809508 ], [ 12.65422, 45.808933 ], [ 12.653987, 45.806843 ], [ 12.651556, 45.804621 ], [ 12.650284, 45.803667 ], [ 12.65737, 45.79736 ], [ 12.658318, 45.79683 ], [ 12.659253, 45.796039 ], [ 12.660576, 45.794872 ], [ 12.661693, 45.793706 ], [ 12.66182, 45.793149 ], [ 12.66175, 45.792615 ], [ 12.661655, 45.792434 ], [ 12.669042, 45.790887 ], [ 12.669675, 45.79079 ], [ 12.670556, 45.790859 ], [ 12.673769, 45.791891 ], [ 12.674017, 45.791986 ], [ 12.674391, 45.792135 ], [ 12.675456, 45.792719 ], [ 12.67893, 45.794695 ], [ 12.678986, 45.794765 ], [ 12.679323, 45.795191 ], [ 12.679428, 45.795372 ], [ 12.679883, 45.795965 ], [ 12.683118, 45.799794 ], [ 12.68436, 45.800641 ], [ 12.688544, 45.802664 ], [ 12.695019, 45.806349 ], [ 12.695161, 45.806715 ], [ 12.703515, 45.816159 ], [ 12.704609, 45.816538 ], [ 12.705671, 45.816868 ], [ 12.706971, 45.81724 ], [ 12.707408, 45.817345 ], [ 12.707909, 45.817561 ], [ 12.708313, 45.817737 ], [ 12.712519, 45.820803 ], [ 12.714982, 45.822936 ], [ 12.715038, 45.822986 ], [ 12.718085, 45.825889 ], [ 12.718651, 45.826541 ], [ 12.71909, 45.827197 ], [ 12.719255, 45.827543 ], [ 12.729995, 45.837278 ], [ 12.737229, 45.830718 ], [ 12.737935, 45.830119 ], [ 12.738892, 45.829363 ], [ 12.741101, 45.827766 ], [ 12.742096, 45.827059 ], [ 12.742702, 45.826705 ], [ 12.742864, 45.82662 ], [ 12.743764, 45.82709 ], [ 12.747211, 45.828928 ], [ 12.748254, 45.829522 ], [ 12.748761, 45.829924 ], [ 12.749571, 45.830615 ], [ 12.750827, 45.831809 ], [ 12.751916, 45.832978 ], [ 12.754843, 45.83582 ], [ 12.757435, 45.83812 ], [ 12.758325, 45.838811 ], [ 12.759036, 45.83928 ], [ 12.763929, 45.842023 ], [ 12.765454, 45.84277 ], [ 12.7688, 45.845244 ], [ 12.768725, 45.845306 ], [ 12.766079, 45.847547 ], [ 12.768887, 45.849959 ], [ 12.769498, 45.850481 ], [ 12.775033, 45.853099 ], [ 12.777187, 45.853767 ], [ 12.779824, 45.854443 ], [ 12.781847, 45.853961 ], [ 12.788558, 45.849339 ], [ 12.796938, 45.846006 ], [ 12.801019, 45.845711 ], [ 12.80416, 45.8447 ], [ 12.804297, 45.844624 ], [ 12.804065, 45.841924 ], [ 12.799956, 45.833934 ], [ 12.799479, 45.833411 ], [ 12.798786, 45.833011 ], [ 12.798632, 45.832746 ], [ 12.798601, 45.832388 ], [ 12.799943, 45.825734 ], [ 12.801576, 45.823156 ], [ 12.801737, 45.823005 ], [ 12.801781, 45.822964 ], [ 12.801857, 45.822897 ], [ 12.806951, 45.820316 ], [ 12.808584, 45.820176 ], [ 12.809352, 45.820365 ], [ 12.809448, 45.820402 ], [ 12.818818, 45.824323 ], [ 12.818821, 45.82498 ], [ 12.818821, 45.825266 ], [ 12.818839, 45.828825 ], [ 12.818901, 45.833729 ], [ 12.822756, 45.836458 ], [ 12.823124, 45.836625 ], [ 12.823514, 45.836762 ], [ 12.824663, 45.835737 ], [ 12.825081, 45.835575 ], [ 12.827223, 45.83535 ], [ 12.82878, 45.835478 ], [ 12.833855, 45.838268 ], [ 12.83724, 45.841269 ], [ 12.836746, 45.845363 ], [ 12.836868, 45.847463 ], [ 12.854168, 45.849893 ], [ 12.861183, 45.85079 ], [ 12.874983, 45.850345 ], [ 12.875879, 45.848077 ], [ 12.876278, 45.845719 ], [ 12.877225, 45.843198 ], [ 12.869671, 45.833758 ], [ 12.87232, 45.832611 ], [ 12.875369, 45.829687 ], [ 12.890059, 45.820474 ], [ 12.891678, 45.819893 ], [ 12.893048, 45.819688 ], [ 12.89325, 45.819689 ], [ 12.899876, 45.8227 ], [ 12.9008, 45.824505 ], [ 12.911068, 45.826063 ], [ 12.915021, 45.824621 ], [ 12.91936, 45.829778 ], [ 12.920513, 45.831341 ], [ 12.921369, 45.830492 ], [ 12.923636, 45.827336 ], [ 12.924171, 45.825751 ], [ 12.924495, 45.824309 ], [ 12.925164, 45.823305 ], [ 12.927417, 45.820158 ], [ 12.928719, 45.818394 ], [ 12.929495, 45.817351 ], [ 12.941902, 45.820336 ], [ 12.952065, 45.822206 ], [ 12.952073, 45.828271 ], [ 12.951478, 45.828539 ], [ 12.950977, 45.829214 ], [ 12.95087, 45.83492 ], [ 12.951372, 45.843003 ], [ 12.954784, 45.846216 ], [ 12.95778, 45.847367 ], [ 12.961429, 45.846872 ], [ 12.962018, 45.846319 ], [ 12.962738, 45.845638 ], [ 12.963031, 45.845353 ], [ 12.964686, 45.843401 ], [ 12.964859, 45.84317 ], [ 12.964944, 45.843055 ], [ 12.966327, 45.84113 ], [ 12.966395, 45.838202 ], [ 12.967183, 45.836014 ], [ 12.969676, 45.835679 ], [ 12.979046, 45.834042 ], [ 12.972091, 45.829542 ], [ 12.970878, 45.828672 ], [ 12.971065, 45.828046 ], [ 12.972881, 45.825105 ], [ 12.972981, 45.824947 ], [ 12.97351, 45.824151 ], [ 12.97355, 45.824101 ], [ 12.974189, 45.823364 ], [ 12.975471, 45.823412 ], [ 12.976088, 45.823521 ], [ 12.977019, 45.823711 ], [ 12.97706, 45.824858 ], [ 12.977176, 45.826845 ], [ 12.977784, 45.827014 ], [ 12.980881, 45.82722 ], [ 12.982075, 45.827295 ], [ 12.97816, 45.824101 ], [ 12.981317, 45.818671 ], [ 12.981948, 45.818726 ], [ 12.983695, 45.818827 ], [ 12.984643, 45.818721 ], [ 12.985208, 45.818657 ], [ 12.98661, 45.818357 ], [ 12.987288, 45.818085 ], [ 12.988325, 45.817664 ], [ 12.990483, 45.81656 ], [ 12.992073, 45.815681 ], [ 12.993242, 45.815014 ], [ 12.993412, 45.814185 ], [ 12.993014, 45.812754 ], [ 12.991583, 45.810279 ], [ 12.990649, 45.809398 ], [ 12.99009, 45.809175 ], [ 12.989641, 45.809037 ], [ 12.988383, 45.808739 ], [ 12.987269, 45.808936 ], [ 12.986109, 45.809723 ], [ 12.985163, 45.810526 ], [ 12.984585, 45.811622 ], [ 12.984353, 45.812719 ], [ 12.98401, 45.814036 ], [ 12.983489, 45.814892 ], [ 12.982009, 45.815222 ], [ 12.981379, 45.815136 ], [ 12.97988, 45.81482 ], [ 12.978744, 45.814567 ], [ 12.977881, 45.813719 ], [ 12.974233, 45.807594 ], [ 12.973904, 45.806639 ], [ 12.974479, 45.805629 ], [ 12.980763, 45.79666 ], [ 12.981308, 45.796124 ], [ 12.981403, 45.79603 ], [ 12.982359, 45.795583 ], [ 12.983682, 45.795366 ], [ 12.985237, 45.795667 ], [ 12.986356, 45.796425 ], [ 12.98674, 45.797172 ], [ 12.986868, 45.798225 ], [ 12.987069, 45.799141 ], [ 12.987355, 45.800089 ], [ 12.987867, 45.800872 ], [ 12.987974, 45.800972 ], [ 12.988603, 45.801297 ], [ 12.988942, 45.801366 ], [ 12.989571, 45.801479 ], [ 12.990623, 45.800839 ], [ 12.991335, 45.799995 ], [ 12.991683, 45.798921 ], [ 12.991722, 45.797817 ], [ 12.991265, 45.796955 ], [ 12.990839, 45.796673 ], [ 12.990148, 45.796215 ], [ 12.989164, 45.795828 ], [ 12.981255, 45.792948 ], [ 12.981231, 45.786891 ], [ 12.984678, 45.781402 ], [ 12.998532, 45.768666 ], [ 12.99978, 45.767587 ], [ 13.00057, 45.767246 ], [ 13.001646, 45.766784 ], [ 13.003516, 45.766286 ], [ 13.006064, 45.765909 ], [ 13.007591, 45.76563 ], [ 13.008973, 45.765113 ], [ 13.010693, 45.764144 ], [ 13.01141, 45.763506 ], [ 13.012036, 45.762512 ], [ 13.011843, 45.761794 ], [ 13.011037, 45.760963 ], [ 13.010485, 45.760758 ], [ 13.009972, 45.760569 ], [ 13.009051, 45.760452 ], [ 13.006698, 45.760612 ], [ 13.001294, 45.750018 ], [ 13.001191, 45.749288 ], [ 13.001508, 45.748386 ], [ 13.002451, 45.747511 ], [ 13.005056, 45.745826 ], [ 13.006727, 45.744786 ], [ 13.008731, 45.744045 ], [ 13.010589, 45.743557 ], [ 13.011924, 45.743231 ], [ 13.013129, 45.742973 ], [ 13.014261, 45.742568 ], [ 13.015322, 45.742009 ], [ 13.015653, 45.74134 ], [ 13.016064, 45.73592 ], [ 13.01565, 45.735255 ], [ 13.014692, 45.734753 ], [ 13.01344, 45.734226 ], [ 13.011763, 45.733632 ], [ 13.010256, 45.733001 ], [ 13.008958, 45.732286 ], [ 13.007973, 45.731038 ], [ 13.007574, 45.728878 ], [ 13.007519, 45.727562 ], [ 13.007685, 45.726116 ], [ 13.008307, 45.724892 ], [ 13.008807, 45.724569 ], [ 13.009826, 45.724235 ], [ 13.010951, 45.723913 ], [ 13.011579, 45.723751 ], [ 13.012109, 45.723615 ], [ 13.01321, 45.723649 ], [ 13.013907, 45.723921 ], [ 13.015032, 45.724453 ], [ 13.015769, 45.725053 ], [ 13.015954, 45.725484 ], [ 13.016232, 45.72613 ], [ 13.016265, 45.726993 ], [ 13.016268, 45.727172 ], [ 13.016276, 45.728131 ], [ 13.016094, 45.729258 ], [ 13.016027, 45.730089 ], [ 13.016432, 45.730615 ], [ 13.017125, 45.731094 ], [ 13.02001, 45.733054 ], [ 13.023704, 45.735431 ], [ 13.025371, 45.73629 ], [ 13.026535, 45.73682 ], [ 13.026921, 45.73686 ], [ 13.027559, 45.73691 ], [ 13.028557, 45.736704 ], [ 13.029036, 45.736309 ], [ 13.029206, 45.736168 ], [ 13.029199, 45.73612 ], [ 13.029037, 45.73513 ], [ 13.030162, 45.725266 ], [ 13.038073, 45.714184 ], [ 13.040645, 45.706028 ], [ 13.038072, 45.701173 ], [ 13.037321, 45.7011 ], [ 13.03649, 45.700916 ], [ 13.036369, 45.700236 ], [ 13.036844, 45.699384 ], [ 13.03803, 45.69855 ], [ 13.044965, 45.693827 ], [ 13.045635, 45.69374 ], [ 13.046134, 45.693807 ], [ 13.046759, 45.693893 ], [ 13.047147, 45.694595 ], [ 13.047471, 45.695551 ], [ 13.047831, 45.696317 ], [ 13.04838, 45.696788 ], [ 13.049757, 45.697023 ], [ 13.05097, 45.696908 ], [ 13.051548, 45.696683 ], [ 13.052298, 45.696392 ], [ 13.052946, 45.695474 ], [ 13.05325, 45.694518 ], [ 13.053076, 45.693579 ], [ 13.052406, 45.691811 ], [ 13.051906, 45.690686 ], [ 13.051235, 45.689648 ], [ 13.050464, 45.688554 ], [ 13.049643, 45.687805 ], [ 13.048911, 45.687394 ], [ 13.04831, 45.687278 ], [ 13.047521, 45.687219 ], [ 13.046156, 45.687436 ], [ 13.044908, 45.687685 ], [ 13.04429, 45.687594 ], [ 13.043946, 45.687246 ], [ 13.043563, 45.686477 ], [ 13.043597, 45.685486 ], [ 13.04437, 45.684311 ], [ 13.045385, 45.683563 ], [ 13.052872, 45.678419 ], [ 13.054245, 45.67765 ], [ 13.054961, 45.677463 ], [ 13.055333, 45.677368 ], [ 13.055828, 45.677576 ], [ 13.056896, 45.678262 ], [ 13.058879, 45.679461 ], [ 13.060264, 45.679596 ], [ 13.061398, 45.679515 ], [ 13.062487, 45.679175 ], [ 13.06349, 45.678392 ], [ 13.064882, 45.676434 ], [ 13.065295, 45.675569 ], [ 13.066768, 45.672343 ], [ 13.066909, 45.670862 ], [ 13.063492, 45.666393 ], [ 13.062695, 45.665085 ], [ 13.062649, 45.664974 ], [ 13.061998, 45.66335 ], [ 13.061878, 45.662918 ], [ 13.061837, 45.662451 ], [ 13.061841, 45.661614 ], [ 13.0619, 45.660163 ], [ 13.061936, 45.659747 ], [ 13.061956, 45.659535 ], [ 13.062239, 45.658827 ], [ 13.062817, 45.657596 ], [ 13.063018, 45.657256 ], [ 13.063374, 45.656771 ], [ 13.063645, 45.656441 ], [ 13.063945, 45.656147 ], [ 13.064488, 45.65581 ], [ 13.064648, 45.655726 ], [ 13.064922, 45.655644 ], [ 13.065168, 45.655626 ], [ 13.065408, 45.655631 ], [ 13.065799, 45.655712 ], [ 13.066521, 45.655875 ], [ 13.066968, 45.656039 ], [ 13.0683, 45.656563 ], [ 13.069576, 45.65718 ], [ 13.070264, 45.657533 ], [ 13.071496, 45.658074 ], [ 13.073664, 45.658852 ], [ 13.074443, 45.659099 ], [ 13.074953, 45.659179 ], [ 13.075615, 45.659273 ], [ 13.076278, 45.659308 ], [ 13.076799, 45.659316 ], [ 13.077621, 45.659287 ], [ 13.078561, 45.659239 ], [ 13.079421, 45.659155 ], [ 13.079999, 45.659066 ], [ 13.08079, 45.658899 ], [ 13.081144, 45.658823 ], [ 13.083132, 45.658054 ], [ 13.08372, 45.657723 ], [ 13.084009, 45.657532 ], [ 13.084268, 45.65732 ], [ 13.08444, 45.657071 ], [ 13.084552, 45.656721 ], [ 13.084571, 45.656576 ], [ 13.084558, 45.65636 ], [ 13.084508, 45.656124 ], [ 13.084436, 45.655938 ], [ 13.087103, 45.651174 ], [ 13.098487, 45.644617 ], [ 13.099243, 45.644208 ], [ 13.100792, 45.643392 ], [ 13.101007, 45.643537 ], [ 13.10173, 45.642688 ], [ 13.102129, 45.641913 ], [ 13.101491, 45.640774 ], [ 13.099126, 45.63771 ], [ 13.09768, 45.635938 ], [ 13.093887, 45.635217 ], [ 13.074798, 45.632305 ], [ 13.063391, 45.630963 ], [ 13.061693, 45.630862 ], [ 13.054049, 45.630724 ], [ 13.045085, 45.630644 ], [ 13.0322, 45.630511 ], [ 13.026065, 45.630336 ], [ 13.022363, 45.629969 ], [ 13.002925, 45.627802 ], [ 12.992996, 45.626505 ], [ 12.985845, 45.625436 ], [ 12.982849, 45.625073 ], [ 12.979193, 45.624809 ], [ 12.97837, 45.625229 ], [ 12.978115, 45.626476 ], [ 12.972825, 45.625188 ], [ 12.954164, 45.620976 ], [ 12.927357, 45.614827 ], [ 12.921889, 45.61344 ], [ 12.920286, 45.613113 ], [ 12.919004, 45.612855 ], [ 12.917841, 45.612634 ], [ 12.916799, 45.612548 ], [ 12.915657, 45.612628 ], [ 12.9143, 45.612936 ], [ 12.91358, 45.613325 ], [ 12.913295, 45.613798 ], [ 12.913112, 45.614489 ], [ 12.913127, 45.615114 ], [ 12.913132, 45.61542 ], [ 12.911132, 45.615101 ], [ 12.909056, 45.614623 ], [ 12.908363, 45.614436 ], [ 12.908027, 45.614267 ], [ 12.907517, 45.613988 ], [ 12.9064, 45.613274 ], [ 12.903766, 45.611546 ], [ 12.892036, 45.603108 ], [ 12.891727, 45.602812 ], [ 12.891252, 45.602338 ], [ 12.891028, 45.602026 ], [ 12.890926, 45.60157 ], [ 12.891102, 45.60115 ], [ 12.891297, 45.600766 ], [ 12.891537, 45.600577 ], [ 12.884379, 45.596879 ], [ 12.870038, 45.590138 ], [ 12.862506, 45.586631 ], [ 12.859527, 45.585769 ], [ 12.859458, 45.585748 ], [ 12.858646, 45.585501 ], [ 12.857484, 45.585145 ], [ 12.857, 45.584994 ], [ 12.855735, 45.584587 ], [ 12.852436, 45.583506 ], [ 12.843882, 45.580401 ], [ 12.843202, 45.580149 ], [ 12.837783, 45.578041 ], [ 12.837121, 45.57778 ], [ 12.835309, 45.577053 ], [ 12.824226, 45.572159 ], [ 12.799168, 45.562132 ], [ 12.798397, 45.561766 ], [ 12.796716, 45.560963 ], [ 12.796487, 45.560853 ], [ 12.787951, 45.55658 ], [ 12.787839, 45.556586 ], [ 12.787759, 45.556589 ], [ 12.787704, 45.556586 ], [ 12.787587, 45.556554 ], [ 12.787088, 45.556372 ], [ 12.786786, 45.55622 ], [ 12.785365, 45.555471 ], [ 12.771651, 45.547999 ], [ 12.761744, 45.542863 ], [ 12.760769, 45.542355 ], [ 12.75562, 45.540051 ], [ 12.736517, 45.531734 ], [ 12.735826, 45.531455 ], [ 12.73059, 45.529405 ], [ 12.722366, 45.526654 ], [ 12.715456, 45.524406 ], [ 12.711128, 45.523534 ], [ 12.710265, 45.523321 ], [ 12.693327, 45.519015 ], [ 12.68621, 45.516995 ], [ 12.683123, 45.516102 ], [ 12.677915, 45.514524 ], [ 12.657571, 45.50788 ], [ 12.650172, 45.505453 ], [ 12.63317, 45.499573 ], [ 12.632028, 45.499177 ], [ 12.631864, 45.499119 ], [ 12.629248, 45.498186 ], [ 12.627262, 45.497457 ], [ 12.619518, 45.494611 ], [ 12.616183, 45.493353 ], [ 12.613613, 45.492336 ], [ 12.599331, 45.486392 ], [ 12.592272, 45.48325 ], [ 12.584296, 45.479612 ], [ 12.58421, 45.479561 ], [ 12.584117, 45.479452 ], [ 12.584404, 45.478736 ], [ 12.581142, 45.478604 ], [ 12.580603, 45.478529 ], [ 12.568657, 45.475958 ], [ 12.555081, 45.47193 ], [ 12.550878, 45.470664 ], [ 12.550312, 45.470461 ], [ 12.547445, 45.469312 ], [ 12.544976, 45.468293 ], [ 12.542266, 45.467216 ], [ 12.538172, 45.465615 ], [ 12.53373, 45.463892 ], [ 12.532312, 45.463404 ], [ 12.52222, 45.46024 ], [ 12.487991, 45.450748 ], [ 12.485539, 45.450087 ], [ 12.482533, 45.449594 ], [ 12.482236, 45.449612 ], [ 12.481895, 45.449623 ], [ 12.481667, 45.449609 ], [ 12.480993, 45.449562 ], [ 12.480266, 45.449391 ], [ 12.465027, 45.443734 ], [ 12.452796, 45.438663 ], [ 12.450634, 45.437433 ], [ 12.449902, 45.437014 ], [ 12.447483, 45.435498 ], [ 12.444616, 45.433672 ], [ 12.443169, 45.432683 ], [ 12.440663, 45.430794 ], [ 12.439705, 45.430013 ], [ 12.4353, 45.426324 ], [ 12.434932, 45.426002 ], [ 12.434623, 45.425597 ], [ 12.43401, 45.424551 ], [ 12.436212, 45.422545 ], [ 12.433726, 45.421323 ], [ 12.4269, 45.417969 ], [ 12.426375, 45.418421 ], [ 12.419104, 45.423307 ], [ 12.416521, 45.424991 ], [ 12.414351, 45.426262 ], [ 12.41148, 45.427541 ], [ 12.408105, 45.42851 ], [ 12.406771, 45.428757 ], [ 12.404384, 45.429112 ], [ 12.39957, 45.429796 ], [ 12.397141, 45.428482 ], [ 12.395818, 45.427684 ], [ 12.393358, 45.426177 ], [ 12.388517, 45.422703 ], [ 12.380779, 45.41687 ], [ 12.379413, 45.41565 ], [ 12.376413, 45.412912 ], [ 12.365912, 45.402142 ], [ 12.360135, 45.396088 ], [ 12.357497, 45.392475 ], [ 12.354113, 45.3877 ], [ 12.348026, 45.378954 ], [ 12.345865, 45.375417 ], [ 12.342918, 45.370692 ], [ 12.341145, 45.368336 ], [ 12.338859, 45.365333 ], [ 12.33588, 45.361559 ], [ 12.333825, 45.359094 ], [ 12.333417, 45.35848 ], [ 12.332221, 45.356346 ], [ 12.330681, 45.353546 ], [ 12.329448, 45.349343 ], [ 12.329335, 45.348698 ], [ 12.329061, 45.346937 ], [ 12.328772, 45.344169 ], [ 12.328702, 45.342564 ], [ 12.328901, 45.337927 ], [ 12.328954, 45.337529 ], [ 12.330931, 45.337021 ], [ 12.333182, 45.336497 ], [ 12.336223, 45.335805 ], [ 12.33893, 45.335167 ], [ 12.342651, 45.334154 ], [ 12.342758, 45.333773 ], [ 12.336521, 45.331394 ], [ 12.336017, 45.331215 ], [ 12.332526, 45.332046 ], [ 12.329911, 45.332654 ], [ 12.32621, 45.332312 ], [ 12.325595, 45.331772 ], [ 12.325179, 45.331311 ], [ 12.324436, 45.330284 ], [ 12.324117, 45.32974 ], [ 12.321845, 45.325616 ], [ 12.318995, 45.32023 ], [ 12.317724, 45.317634 ], [ 12.316432, 45.314936 ], [ 12.315854, 45.313544 ], [ 12.313885, 45.308695 ], [ 12.306012, 45.287846 ], [ 12.303861, 45.280199 ], [ 12.303489, 45.278558 ], [ 12.299732, 45.258805 ], [ 12.299868, 45.252923 ], [ 12.300192, 45.251513 ], [ 12.300297, 45.250363 ], [ 12.300029, 45.249133 ], [ 12.298858, 45.247407 ], [ 12.298644, 45.24717 ], [ 12.298261, 45.246753 ], [ 12.297611, 45.246174 ], [ 12.297092, 45.245685 ], [ 12.295899, 45.244463 ], [ 12.295873, 45.243712 ], [ 12.296024, 45.242668 ], [ 12.296243, 45.241424 ], [ 12.297234, 45.236449 ], [ 12.297467, 45.235551 ], [ 12.297837, 45.234816 ], [ 12.309914, 45.233931 ], [ 12.314271, 45.23375 ], [ 12.314243, 45.233175 ], [ 12.313908, 45.231117 ], [ 12.312299, 45.22871 ], [ 12.302016, 45.229315 ], [ 12.301759, 45.228836 ], [ 12.30159, 45.2284 ], [ 12.300273, 45.224515 ], [ 12.299924, 45.223382 ], [ 12.299455, 45.22162 ], [ 12.299223, 45.220142 ], [ 12.299089, 45.21875 ], [ 12.299091, 45.217524 ], [ 12.299282, 45.214946 ], [ 12.299413, 45.214337 ], [ 12.299816, 45.212511 ], [ 12.300027, 45.211578 ], [ 12.300972, 45.207898 ], [ 12.301778, 45.205157 ], [ 12.303252, 45.200987 ], [ 12.303629, 45.200064 ], [ 12.305006, 45.197036 ], [ 12.306253, 45.194385 ], [ 12.311959, 45.185267 ], [ 12.316495, 45.18403 ], [ 12.317806, 45.183047 ], [ 12.318286, 45.182439 ], [ 12.328259, 45.168534 ], [ 12.330905, 45.163708 ], [ 12.332423, 45.162772 ], [ 12.332727, 45.163108 ] ] ] ] } }
]
}
